{"type":"FeatureCollection","features":[{"type":"Feature","geometry":{"type":"Point","coordinates":[129.2253619109739,35.85633993893625]},"properties":{"name":"시청 본관·신관·별관·증축관","addr":"경주시 양정로 260","own":"시 소유","depts":"본관(옛 경주군청): 복지정책·총무새마을·노인복지·장애인여성복지·회계·시장실·국장실 6·홍보·디지털정책·문화유산·청렴감사·문화예술·산림경영 / 신관: 건축허가·시민봉사·토지정보·시의회 / 별관: 시금고·세정·징수·식품위생산업·농업유통 / 증축관: 어린이집·정책기획·체육진흥·안전정책·재난상황실·건설·도로·도시계획·교통행정·축산·대외소통·경제정책·환경정책·인구정책·농업정책·알천홀","n_depts":30,"cls":"main","lbl":"시청 본관·신관·별관·증축관","source":"경주시 홈페이지 청사안내 2026-09-02 (T1) · 좌표 V-World 지오코딩"}},{"type":"Feature","geometry":{"type":"Point","coordinates":[129.2239283951504,35.854382890290736]},"properties":{"name":"기린빌딩 2~8층 (민간 임차)","addr":"경주시 양정로 241-1","own":"민간 임차","depts":"주택과(2F) · 자원순환과·신성장산업과(3F) · 원자력정책과·농촌활력과(4F) · 해양수산과(5F) · 관광컨벤션과(6F) · 철도도심재생과(7F) · 기업투자지원과(8F)","n_depts":9,"cls":"lease","lbl":"기린빌딩 2~8층","source":"경주시 홈페이지 청사안내 2026-09-02 (T1) · 좌표 V-World 지오코딩"}},{"type":"Feature","geometry":{"type":"Point","coordinates":[129.22451600722434,35.86002499088957]},"properties":{"name":"동원빌딩 2~3층 (민간 임차)","addr":"경주시 소금강로 39","own":"민간 임차","depts":"전략기획과·미래사업과(2F) · 농촌활력과(3F)","n_depts":3,"cls":"lease","lbl":"동원빌딩 2~3층","source":"경주시 홈페이지 청사안내 2026-09-02 (T1) · 좌표 V-World 지오코딩"}},{"type":"Feature","geometry":{"type":"Point","coordinates":[129.23067081876798,35.838281892825336]},"properties":{"name":"황룡사 역사문화관 1층","addr":"경주시 임해로 64-19","own":"시 소유","depts":"왕경조성과","n_depts":1,"cls":"branch","lbl":"황룡사 역사문화관 1층","source":"경주시 홈페이지 청사안내 2026-09-02 (T1) · 좌표 V-World 지오코딩"}},{"type":"Feature","geometry":{"type":"Point","coordinates":[129.21619218233195,35.85517645278211]},"properties":{"name":"경주시청소년수련관 1층","addr":"경주시 알천북로 131","own":"시 소유","depts":"아동청소년과","n_depts":1,"cls":"branch","lbl":"경주시청소년수련관 1층","source":"경주시 홈페이지 청사안내 2026-09-02 (T1) · 좌표 V-World 지오코딩"}},{"type":"Feature","geometry":{"type":"Point","coordinates":[129.20907999289352,35.860645209010656]},"properties":{"name":"경주실내체육관","addr":"경주시 황성공원로 29","own":"시 소유","depts":"문서고 · 도시공원과 · 경주시 장학회","n_depts":1,"cls":"branch","lbl":"경주실내체육관","source":"경주시 홈페이지 청사안내 2026-09-02 (T1) · 좌표 V-World 지오코딩"}},{"type":"Feature","geometry":{"type":"Point","coordinates":[129.22463750857173,35.85951316398267]},"properties":{"name":"경주시보건소 (직속기관, 이전 대상 아님)","addr":"경주시 양정로 300","own":"시 소유","depts":"보건행정과·건강증진과·지역보건과 — 시청 인접, 시청 이전 시 잔류","n_depts":0,"cls":"health","lbl":"경주시보건소","source":"경주시 홈페이지 청사안내 2026-09-02 (T1) · 좌표 V-World 지오코딩"}}]}