{"type":"FeatureCollection","features":[{"type":"Feature","geometry":{"type":"Polygon","coordinates":[[[129.2190476310103,35.84554188641452],[129.21903369833618,35.84532106572879],[129.21899324918328,35.845102420227434],[129.21892667331005,35.84488805555931],[129.2188346120724,35.84468003613045],[129.21871795223993,35.84448036522449],[129.21857781744922,35.84429096571207],[129.21841555737737,35.84411366153519],[129.21823273473984,35.843950160144765],[129.21803111023831,35.843802036060126],[129.21781262560333,35.84367071570898],[129.21757938489537,35.84355746369356],[129.2173336342442,35.84346337061492],[129.2170777402212,35.843389342573026],[129.21681416705377,35.843336092442996],[129.21654545289985,35.84330413301187],[129.21627418541166,35.843293772041804],[129.2160029768234,35.84330510930705],[129.21573443880234,35.84333803563341],[129.21547115730564,35.84339223394921],[129.21521566768405,35.84346718233788],[129.21497043027279,35.84356215906267],[129.21473780670348,35.84367624951513],[129.2145200371658,35.84380835502061],[129.21431921883715,35.84395720341614],[129.21413728568803,35.8441213612987],[129.21397598985763,35.84429924782637],[129.213836884779,35.844489149939214],[129.2137213102158,35.84468923885382],[129.21363037935592,35.84489758767239],[129.2135649680852,35.84511218993736],[129.21352570654565,35.845330978952404],[129.2135129730594,35.84555184768439],[129.21352689047686,35.84577266905424],[129.21356732498546,35.84599131642161],[129.2136338873896,35.84620568406599],[129.21372593685092,35.84641370746692],[129.2138425870524,35.84661338318815],[129.2139827147276,35.84680278817398],[129.21414497047277,35.84698009827204],[129.21432779173884,35.847143605803936],[129.21452941787683,35.84729173601427],[129.2147479070932,35.84742306223992],[129.21498115515143,35.847536319652974],[129.21522691563942,35.847630417444854],[129.21548282160762,35.847704449334515],[129.21574640836965,35.847757702298985],[129.21601513724517,35.84778966344228],[129.2162864200161,35.84780002493645],[129.21655764386105,35.84778868698707],[129.21682619652637,35.8477557587947],[129.2170894914922,35.847701557502646],[129.2173449928901,35.84762660514189],[129.21759023993235,35.84753162360184],[129.2178228706172,35.84741752767601],[129.2180406444815,35.84728541624931],[129.21824146418163,35.84713656171234],[129.21842339569434,35.846972397704064],[129.2185846869433,35.84679450530188],[129.21872378467162,35.84660459779142],[129.21883934939808,35.84640450416358],[129.21893026831273,35.846196151497224],[129.21899566598884,35.845981546397816],[129.2190349128068,35.8457627556706],[129.2190476310103,35.84554188641452]]]},"properties":{"name":"전통상권 (역전중심·성동시장)","cls":"trad","r_m":250,"note":"경주역 앞 자연발생 역전중심상권. 전통시장 중심 주민 자족 경제활동","lbl":"전통상권","source":"전략계획(2022) 기초조사 §3 상권 분포·중심지 상권분석 서술(T1). 도면 없음 → 앵커 주소 지오코딩 + 개략 반경 (경계는 근사)"}},{"type":"Feature","geometry":{"type":"Polygon","coordinates":[[[129.21117299400558,35.84395446198297],[129.21115073716322,35.843601147206044],[129.2110860546579,35.84325130992461],[129.2109795699573,35.842908319194215],[129.21083230906373,35.84257547809346],[129.2106456906142,35.84225599191775],[129.21042151220146,35.84195293731619],[129.2101619330485,35.84166923266854],[129.20986945320402,35.84140760998749],[129.20954688945946,35.841170588616116],[129.20919734821985,35.84096045097406],[129.20882419558967,35.84077922058515],[129.20843102496198,35.84062864259812],[129.20802162242254,35.84051016698759],[129.20759993030146,35.840424934596534],[129.20717000922352,35.84037376615494],[129.20673599902122,35.84035715437966],[129.20630207888695,35.84037525923171],[129.20587242714655,35.840427906376576],[129.2054511810414,35.84051458886208],[129.20504239690533,35.84063447199806],[129.20465001111884,35.84078640139064],[129.2042778022165,35.84096891405407],[129.20392935451096,35.84118025249327],[129.2036080235844,35.84141838162169],[129.20331690397845,35.84168100835197],[129.20305879939409,35.84196560367091],[129.20283619568806,35.84226942698656],[129.20265123692633,35.842589552513324],[129.20250570472518,35.84292289744122],[129.20240100107932,35.843266251618324],[129.20233813484305,35.84361630846085],[129.20231771199502,35.843969696793344],[129.20233992978174,35.84432301331248],[129.2024045747962,35.84467285536202],[129.20251102501143,35.84501585370317],[129.20265825575038,35.84534870496486],[129.2028448495348,35.845668203461216],[129.20306900971994,35.84597127206963],[129.2033285777832,35.84625499187208],[129.20362105410206,35.846516630273506],[129.20394362202055,35.84675366732667],[129.2042931749733,35.846963820009336],[129.20466634640562,35.84714506421962],[129.20505954220195,35.84729565427766],[129.20546897530932,35.84741413974496],[129.20589070222286,35.847499379399764],[129.2063206609808,35.84755055223293],[129.20675471030253,35.847567165358846],[129.20718866949244,35.847549058764585],[129.20761835872372,35.84749640685161],[129.20803963931425,35.84740971675535],[129.20844845360494,35.84728982345843],[129.2088408640565,35.84713788174522],[129.2092130911865,35.84695535507492],[129.20956154998174,35.846744001480914],[129.2098828844339,35.846505856632135],[129.2101739998659,35.846243214220046],[129.21043209273716,35.845958603860524],[129.21065467764106,35.8456547667235],[129.21083961123412,35.845334629125716],[129.21098511286735,35.845001274341044],[129.21108978172072,35.84465791290018],[129.21115261027703,35.84430785166609],[129.21117299400558,35.84395446198297]]]},"properties":{"name":"경주중심상권 (원도심 최대)","cls":"center","r_m":400,"note":"시내 상권+도심 관광인프라 복합. 경주역·전통시장·봉황로 문화의거리","lbl":"경주중심상권","source":"전략계획(2022) 기초조사 §3 상권 분포·중심지 상권분석 서술(T1). 도면 없음 → 앵커 주소 지오코딩 + 개략 반경 (경계는 근사)"}},{"type":"Feature","geometry":{"type":"Polygon","coordinates":[[[129.22923669352383,35.85633260889912],[129.22921714538944,35.85602346229942],[129.22916046969124,35.855717364106106],[129.22906721266054,35.8554172621593],[129.22893827279384,35.85512604652066],[129.22877489218482,35.85484652164374],[129.22857864454983,35.854581379369876],[129.22835142006159,35.85433317300955],[129.22809540713806,35.85410429275849],[129.22781307136214,35.853896942685246],[129.22750713173528,35.853713119511454],[129.2271805344938,35.85355459338899],[129.22683642473996,35.85342289085876],[129.22647811616093,35.85331928015512],[129.22610905912683,35.853244758997285],[129.22573280747477,35.85320004498481],[129.22535298429813,35.85318556868987],[129.22497324707032,35.853201469512356],[129.22459725243766,35.853247594338086],[129.22422862102064,35.85332349901255],[129.2238709025611,35.853428452616306],[129.22352754175097,35.853561444500954],[129.22320184507072,35.853721194017936],[129.22289694895665,35.8539061628466],[129.22261578960294,35.854114569803194],[129.22236107468927,35.85434440798817],[129.22213525730578,35.85459346410709],[129.2219405123267,35.8548593397792],[129.22177871546035,35.85513947462877],[129.22165142517673,35.855431170937116],[129.22155986768817,35.855731619617885],[129.22150492512728,35.85603792726604],[129.22148712703665,35.856347144019736],[129.2215066452532,35.85665629196739],[129.22156329223662,35.856962393825874],[129.221656522859,35.857262501614215],[129.22178543963884,35.85755372504627],[129.2219488013696,35.857833259368995],[129.22214503506038,35.85809841237806],[129.2223722510744,35.85834663035044],[129.2226282613193,35.85857552264415],[129.22291060031515,35.85878288472785],[129.22321654893673,35.85896671941834],[129.22354316060213,35.85912525612118],[129.2238872896547,35.85925696788888],[129.2242456216657,35.85936058613206],[129.22461470536447,35.85943511284179],[129.22499098588924,35.85947983020512],[129.22537083903703,35.85949430752117],[129.2257506061827,35.85947840535072],[129.22612662953017,35.859432276859835],[129.22649528735548,35.85935636634385],[129.2268530289019,35.85925140494667],[129.22719640859032,35.85911840361621],[129.22752211921474,35.85895864336403],[129.22782702380306,35.85877366292331],[129.22810818583537,35.85856524392406],[129.2283628975291,35.85833539372863],[129.22858870591787,35.858086326093016],[129.228783436473,35.85782043984051],[129.22894521404064,35.85754029575348],[129.22907248089234,35.857248591905616],[129.2291640117162,35.85694813767295],[129.22921892540438,35.85664182667393],[129.22923669352383,35.85633260889912]]]},"properties":{"name":"시청주변 상권 (동천동)","cls":"cityhall","r_m":350,"note":"시청사 이전으로 급속 형성. 저녁 혼잡, 상권안정성 낮고 출점 경쟁 높은 과밀 경쟁","lbl":"시청주변 상권","source":"전략계획(2022) 기초조사 §3 상권 분포·중심지 상권분석 서술(T1). 도면 없음 → 앵커 주소 지오코딩 + 개략 반경 (경계는 근사)"}},{"type":"Feature","geometry":{"type":"Polygon","coordinates":[[[129.21831040634711,35.83402423466395],[129.2182936922179,35.833759249211674],[129.21824516294046,35.833496873769825],[129.21816528618172,35.833239635118645],[129.21805483147767,35.83299001054524],[129.21791486281143,35.832750403988385],[129.21774672835738,35.83252312289045],[129.21755204748956,35.832310355979146],[129.2173326951809,35.832114152193455],[129.21709078394227,35.831936400955826],[129.21682864347736,35.83177881398089],[129.21654879824715,35.83164290879564],[129.21625394316183,35.831529994129426],[129.2159469176333,35.83144115731455],[129.2156306782377,35.831377253818374],[129.21530827025157,35.831338899007754],[129.21498279833511,35.83132646222499],[129.2146573966441,35.83134006323223],[129.21433519865857,35.83137957105853],[129.21401930701788,35.83144460526055],[129.21371276365204,35.831534539585064],[129.21341852049727,35.831648507997635],[129.2131394110764,35.83178541301994],[129.21287812321825,35.831943936295175],[129.21263717317802,35.83212255128025],[129.21241888140784,35.832319537942475],[129.2122253502107,35.832532999319575],[129.21205844349262,35.832760879783535],[129.21191976880883,35.83300098483281],[129.2118106618761,35.833251002222205],[129.2117321737013,35.83350852422735],[129.21168506045026,35.833771070829364],[129.21166977615425,35.83403611359645],[129.21168646832623,35.834301100032754],[129.21173497652754,35.834563478159936],[129.2118148339012,35.8348207210945],[129.21192527165627,35.83507035138475],[129.21206522646088,35.83530996487221],[129.21223335067342,35.835537253848216],[129.21242802531333,35.83575002928224],[129.21264737564712,35.83594624190779],[129.21288928923968,35.836124001962745],[129.213151436297,35.836281597393594],[129.21343129210473,35.83641751034842],[129.21372616134607,35.836530431799254],[129.2140332040653,35.83661927415308],[129.2143494630255,35.83668318172969],[129.2146718921983,35.83672153900542],[129.2149973861094,35.83673397654321],[129.21532280975768,35.83672037455191],[129.21564502881932,35.8366808640403],[129.21596093984508,35.83661582555489],[129.21626750015992,35.83652588551353],[129.2165617571763,35.836411910170334],[129.2168408768387,35.83627499726999],[129.21710217092476,35.836116465472024],[129.21734312293987,35.83593784164708],[129.21756141235605,35.83574084616754],[129.21775493696083,35.83552737633452],[129.21792183310143,35.83529948810099],[129.21806049362914,35.8350593762671],[129.21816958337124,35.83480935333874],[129.2182480519814,35.83455182725317],[129.21829514404575,35.83428927818605],[129.21831040634711,35.83402423466395]]]},"properties":{"name":"첨성로 일대 관광상권","cls":"tour","r_m":300,"note":"관광지 중심. 문화관광명소 따라 발달, 관광객 대상 음식점 특화","lbl":"첨성로 일대 관광상권","source":"전략계획(2022) 기초조사 §3 상권 분포·중심지 상권분석 서술(T1). 도면 없음 → 앵커 주소 지오코딩 + 개략 반경 (경계는 근사)"}},{"type":"Feature","geometry":{"type":"Polygon","coordinates":[[[129.2132660871796,35.8373820503429],[129.21324938905806,35.83711706428214],[129.21320087427597,35.836854686900175],[129.21312101036074,35.83659744499599],[129.21301056672465,35.836347815888026],[129.21287060724438,35.83610820355878],[129.21270248000593,35.83588091550616],[129.21250780431396,35.83566814052493],[129.21228845509148,35.835471927631765],[129.21204654481997,35.8352941663368],[129.21178440319363,35.83513656845151],[129.21150455468475,35.835000651607906],[129.21120969423518,35.834887724647636],[129.21090266130838,35.83479887502134],[129.21058641255183,35.834734958319686],[129.2102639933322,35.834696590036714],[129.20993850841785,35.834684139644395],[129.2096130920896,35.83469772703595],[129.20929087796847,35.834737221371476],[129.20897496884913,35.83480224233754],[129.20866840682987,35.83489216380836],[129.20837414402638,35.835006119873256],[129.20809501415076,35.83514301317283],[129.2078337052286,35.83530152546316],[129.207592733718,35.835480130306934],[129.20737442027777,35.835677107769165],[129.20718086741942,35.8358905609762],[129.2070139392577,35.83611843437872],[129.20687524355418,35.8363585335432],[129.20676611622818,35.8366085462812],[129.20668760848292,35.83686606491315],[129.20664047667262,35.837128609452705],[129.2066251750075,35.83739365148798],[129.20664185116763,35.83765863853021],[129.20669034486878,35.83792101859523],[129.20677018939364,35.838178264780964],[129.20688061607507,35.83842789960439],[129.20702056168793,35.83866751886341],[129.2071886786792,35.83889481479379],[129.20738334813797,35.83910759829802],[129.2076026953807,35.8393038200319],[129.20784460800218,35.83948159014556],[129.20810675621775,35.839639196488626],[129.2083866153019,35.83977512110404],[129.20868148990647,35.839888054851514],[129.2089885400239,35.839976910019566],[129.20930480834622,35.84004083080454],[129.20962724875477,35.84007920155552],[129.20995275566702,35.840091652705645],[129.21027819395658,35.840078064332616],[129.21060042915863,35.84003856731404],[129.2109163576684,35.83997354206644],[129.21122293664234,35.83988361488015],[129.2115172133132,35.839769651885476],[129.21179635343603,35.839632750708155],[129.2120576685914,35.83947422989482],[129.2122986420817,35.839295616210315],[129.212516953172,35.83909862992939],[129.2127104994411,35.838885168264596],[129.21287741702756,35.83865728709026],[129.21301609857608,35.83841718113858],[129.21312520871143,35.83816716285883],[129.21320369689093,35.83790964014355],[129.21325080751228,35.837647093135985],[129.2132660871796,35.8373820503429]]]},"properties":{"name":"관광상권 (황리단길·황남시장·쌈밥거리)","cls":"tour","r_m":300,"note":"관광객 최다 이용. 젊은 층 선호, 음식점·게스트하우스 밀집","lbl":"관광상권","source":"전략계획(2022) 기초조사 §3 상권 분포·중심지 상권분석 서술(T1). 도면 없음 → 앵커 주소 지오코딩 + 개략 반경 (경계는 근사)"}},{"type":"Feature","geometry":{"type":"Polygon","coordinates":[[[129.19448234529514,35.863332338327005],[129.19446570379853,35.863067350620305],[129.19441723463754,35.8628049666426],[129.19433740490078,35.862547713256504],[129.19422698367183,35.86229806789113],[129.194087034612,35.86205843468556],[129.19391890570745,35.861831121338746],[129.19372421627924,35.861618316889015],[129.19350484138306,35.86142207063674],[129.1932628937478,35.86124427241323],[129.19300070342783,35.86108663438548],[129.19272079536438,35.86095067457193],[129.19242586507295,35.86083770222785],[129.1921187526895,35.860748805240775],[129.1918024156266,35.860684839657345],[129.19147990010106,35.86064642144209],[129.1911543118083,35.860633920547755],[129.19082878602455,35.8606474573537],[129.19050645742445,35.860686901507094],[129.1901904299046,35.860751873177705],[129.18988374670317,35.86084174671437],[129.18958936110246,35.86095565666807],[129.18931010799662,35.86109250612343],[129.18904867659776,35.86125097725883],[129.18880758454307,35.86142954403341],[129.18858915365195,35.86162648687887],[129.18839548756694,35.86183990925511],[129.188228451493,35.862067755909855],[129.18808965423102,35.8623078326674],[129.18798043267842,35.86255782755522],[129.18790183894603,35.862815333065896],[129.18785463021646,35.86307786933961],[129.18783926144096,35.86334290804424],[129.18785588094642,35.8636078967233],[129.1879043289945,35.863870283376954],[129.18798413930813,35.86412754103977],[129.18809454355005,35.8643771921183],[129.1882344787117,35.86461683225389],[129.1884025973412,35.86484415348127],[129.1885972805122,35.865056966459285],[129.18881665340953,35.86525322155982],[129.18905860338106,35.865431028611496],[129.18932080028273,35.86558867510811],[129.1896007189203,35.86572464270576],[129.18989566337194,35.86583762184999],[129.1902027929575,35.86592652439197],[129.19051914960343,35.865990494071625],[129.1908416863403,35.86602891476695],[129.19116729665748,35.866041416429916],[129.19149284443242,35.86602787865162],[129.19181519414542,35.86598843182228],[129.1921312410884,35.86592345587495],[129.19243794127686,35.86583357662512],[129.19273234077568,35.865719659741416],[129.19301160415662,35.86558280240548],[129.1932730418127,35.865424322741795],[129.19351413586628,35.86524574711897],[129.19373256442108,35.865048795445304],[129.19392622392442,35.86483536460021],[129.19409324942424,35.86460751016139],[129.19423203252597,35.86436742660369],[129.19434123687645,35.86411742616096],[129.19441981102585,35.86385991655406],[129.1944669985441,35.86359737780028],[129.19448234529514,35.863332338327005]]]},"properties":{"name":"도심배후상권 (구 대학로)","cls":"back","r_m":300,"note":"동국대 구 대학로. 기존 주민 유출로 외국인 근로자 이용 높음","lbl":"도심배후상권","source":"전략계획(2022) 기초조사 §3 상권 분포·중심지 상권분석 서술(T1). 도면 없음 → 앵커 주소 지오코딩 + 개략 반경 (경계는 근사)"}},{"type":"Feature","geometry":{"type":"Polygon","coordinates":[[[129.22782666389716,35.8592457240286],[129.22781270428194,35.85902490496174],[129.22777222387765,35.85880626302724],[129.2277056127437,35.85859190383949],[129.22761351257566,35.85838389175172],[129.22749681051815,35.858184229976786],[129.22735663061445,35.85799484129731],[129.22719432297612,35.85781754955095],[129.22701145077667,35.85765406206881],[129.226809775195,35.85750595323627],[129.22659123845352,35.85737464933407],[129.22635794511444,35.857261414806004],[129.22611214181416,35.85716734008472],[129.22585619563102,35.857093331093374],[129.22559257129456,35.85704010052361],[129.2253238074553,35.85700816097415],[129.22505249224386,35.856997820015685],[129.22478123835387,35.8570091772298],[129.22451265788874,35.85704212325021],[129.22424933721422,35.857096340815644],[129.22399381205835,35.85717130782424],[129.2237485430984,35.85726630235995],[129.22351589226986,35.85738040964285],[129.22329810002495,35.85751253083633],[129.2230972637597,35.85766139362632],[129.2229153176175,35.857825564471284],[129.22275401386275,35.85800346240447],[129.22261490600482,35.858193374256146],[129.22249933383443,35.85839347114908],[129.22240841051652,35.85860182610872],[129.22234301186444,35.8588164326183],[129.2223037678989,35.859035223940616],[129.22229105677286,35.859256093020264],[129.2223050011216,35.85947691277479],[129.22234546687335,35.859695556579375],[129.2224120645317,35.859909918747704],[129.2225041529189,35.86011793481205],[129.2226208453431,35.86031760140672],[129.22276101813122,35.86050699556386],[129.22292332144517,35.86068429323534],[129.22310619227758,35.86084778686233],[129.22330786950212,35.86099590182334],[129.22352641083324,35.861127211602074],[129.22375971153232,35.861240451528936],[129.2240055246802,35.86133453096379],[129.22426148282,35.861408543802334],[129.22452512076273,35.86146177720509],[129.22479389933503,35.861493718464494],[129.22506522984003,35.8615040599441],[129.22533649899646,35.8614927020423],[129.22560509411417,35.86145975415182],[129.2258684282643,35.8614055336058],[129.22612396520103,35.86133056262064],[129.22636924379427,35.86123556326519],[129.22660190173838,35.861121450504605],[129.2268196983077,35.86098932338602],[129.22702053593994,35.86084045445117],[129.2272024804393,35.860676277477744],[129.22736377960442,35.86049837366803],[129.22750288010232,35.86030845641758],[129.22761844242515,35.860108354811054],[129.2277093537864,35.85989999600421],[129.22777473883218,35.85968538666163],[129.2278139680647,35.859466593629385],[129.22782666389716,35.8592457240286]]]},"properties":{"name":"동천근린상권","cls":"nbhd","r_m":250,"note":"중심지 상권분석 ④ (원문 서술 부족 — 위치 근사)","lbl":"동천근린상권","source":"전략계획(2022) 기초조사 §3 상권 분포·중심지 상권분석 서술(T1). 도면 없음 → 앵커 주소 지오코딩 + 개략 반경 (경계는 근사)"}},{"type":"Feature","geometry":{"type":"Polygon","coordinates":[[[129.22081297353003,35.86746899248146],[129.2207962434644,35.86720400890839],[129.22074768497967,35.86694163604055],[129.22066776602452,35.86668440063336],[129.22055725654175,35.86643477994262],[129.22041722104245,35.86619517786959],[129.22024900834492,35.86596790181327],[129.22005423857698,35.865755140452734],[129.21983478756772,35.86555894267334],[129.21959276877874,35.865381197839504],[129.21933051294928,35.865223617604045],[129.21905054565116,35.86508771942889],[129.21875556297,35.86497481197579],[129.21844840554598,35.864885982507445],[129.21813203122517,35.86482208642039],[129.21780948658298,35.864783739010036],[129.21748387759516,35.86477130954744],[129.21715833973707,35.86478491772424],[129.2168360077996,35.86482443250047],[129.21651998571159,35.86488947336592],[129.21621331665895,35.86497941400329],[129.21591895378788,35.865093388317455],[129.2156397317739,35.86523029877341],[129.21537833952993,35.86538882696217],[129.21513729431632,35.86556744629344],[129.2149189175018,35.865764436692885],[129.21472531220837,35.86597790116236],[129.21455834305596,35.86620578404423],[129.21441961820125,35.86644589081379],[129.21431047384462,35.86669590920938],[129.21423196135376,35.866953431497045],[129.21418483712907,35.86721597765522],[129.21416955530816,35.86748101925639],[129.2141862633805,35.86774600381598],[129.214234800755,35.86800837937363],[129.21431470029412,35.868265619070584],[129.21442519280131,35.86851524548619],[129.21456521441783,35.86875485449917],[129.21473341685882,35.868982138443826],[129.21492818039064,35.869194908337974],[129.2151476294239,35.86939111496827],[129.21538965057286,35.869568868630175],[129.21565191300766,35.86972645733162],[129.21593189090257,35.86986236328533],[129.21622688776483,35.86997527753064],[129.21653406240915,35.870064112543815],[129.21685045632785,35.87012801271524],[129.21717302219227,35.87016636259253],[129.21749865321118,35.87017879280985],[129.2178242130625,35.87016518364655],[129.21814656611025,35.87012566618051],[129.21846260761424,35.87006062102529],[129.21876929364248,35.86997067466305],[129.21906367039634,35.869856693408934],[129.21934290266685,35.86971977506463],[129.21960430114694,35.869561238342285],[129.21984534833658,35.8693826101601],[129.2200637227911,35.86918561093258],[129.2202573214792,35.86897213799712],[129.22042428003482,35.86874424733669],[129.22056299070846,35.868504133774934],[129.22067211784474,35.86825410983452],[129.22075061073772,35.86799658346247],[129.22079771374018,35.86773403483736],[129.22081297353003,35.86746899248146]]]},"properties":{"name":"황성동 근린상권","cls":"nbhd","r_m":300,"note":"공동주택 중심. 개폐업 빈도 낮은 안정 상권. 도로·주차장 협소","lbl":"황성동 근린상권","source":"전략계획(2022) 기초조사 §3 상권 분포·중심지 상권분석 서술(T1). 도면 없음 → 앵커 주소 지오코딩 + 개략 반경 (경계는 근사)"}},{"type":"Feature","geometry":{"type":"Polygon","coordinates":[[[129.21520872319732,35.86408393959006],[129.2151920125539,35.86381895501998],[129.21514347465245,35.863556579667886],[129.2150635772434,35.86329934031315],[129.21495309006198,35.86304971424963],[129.2148130774046,35.86281010543037],[129.21464488786953,35.8625828213194],[129.21445014136157,35.86237005067339],[129.21423071348593,35.86217384246714],[129.2139887174814,35.86199608616552],[129.2137264838679,35.861838493531785],[129.2134465380034,35.86170258214729],[129.21315157576717,35.861589660800945],[129.2128444376026,35.86150081688929],[129.21252808117032,35.861436905947876],[129.21220555287363,35.86139854341522],[129.21187995853086,35.861386098707904],[129.2115544334764,35.86139969166436],[129.21123211237796,35.861439191391156],[129.21091609905986,35.861504217523006],[129.2106094366237,35.86159414388441],[129.21031507815198,35.86170810451771],[129.2100358582777,35.8618450020196],[129.2097744658932,35.86200351810581],[129.20953341826015,35.86218212630261],[129.20931503677048,35.862379106642855],[129.2091214245912,35.86259256222525],[129.20895444640834,35.86282043747776],[129.20881571046561,35.86306053794915],[129.20870655307,35.86331055143845],[129.2086280257147,35.86356807025896],[129.20858088494316,35.86383061442252],[129.20856558505233,35.86409565552091],[129.20858227370562,35.864360641074406],[129.2086307904989,35.86462301911313],[129.20871066849284,35.864880262754475],[129.2088211386983,35.86512989453984],[129.20896113747136,35.865369510296304],[129.2091293167472,35.86559680229325],[129.20932405701532,35.86580958147093],[129.20954348291033,35.8660057985267],[129.2097854812695,35.86618356365561],[129.2100477214825,35.86634116475515],[129.21032767793767,35.86647708391867],[129.2106226543488,35.86659001205827],[129.21092980972773,35.8666788615164],[129.2112461857523,35.86674277654429],[129.21156873526627,35.866781141546475],[129.21189435163598,35.8667935870114],[129.21221989868053,35.86677999307153],[129.21254224088722,35.8667404906581],[129.2128582736204,35.86667546023966],[129.21316495303248,35.86658552815641],[129.21345932538858,35.8664715605859],[129.21373855552207,35.86633465519805],[129.2139999541464,35.86617613058016],[129.2142410037601,35.86599751353382],[129.2144593828951,35.865800524366314],[129.2146529884749,35.8655870603181],[129.2148199560671,35.86535917728657],[129.21495867783491,35.86511907002192],[129.21506781801622,35.864869050986165],[129.2151463257792,35.86461152807915],[129.2151934453334,35.86434898144607],[129.21520872319732,35.86408393959006]]]},"properties":{"name":"용강동 근린상권","cls":"nbhd","r_m":300,"note":"아파트 밀집 근린상권. 도로 폭 좁고 주차장 부족","lbl":"용강동 근린상권","source":"전략계획(2022) 기초조사 §3 상권 분포·중심지 상권분석 서술(T1). 도면 없음 → 앵커 주소 지오코딩 + 개략 반경 (경계는 근사)"}}]}