{"type":"FeatureCollection","features":[{"type":"Feature","geometry":{"type":"Polygon","coordinates":[[[129.21974903762973,35.850005837623904],[129.21947253645766,35.850131112103774],[129.21917828898276,35.85044637664865],[129.21886137880446,35.85045417240796],[129.21869246539785,35.8503161616188],[129.2182302570718,35.84921389901098],[129.2151879626742,35.84928867965954],[129.21475879300564,35.84432342905795],[129.21455646948294,35.84416253920546],[129.20834549774733,35.844314943404164],[129.2081167177955,35.844225774150964],[129.20726112365037,35.844246741824904],[129.20704452120586,35.844323131687666],[129.2010922444392,35.84453990433006],[129.20096027603094,35.84447204855722],[129.2006702765517,35.8439815611257],[129.20068673993944,35.84334141580305],[129.20112987079185,35.842027400918745],[129.20174532613595,35.840898722785056],[129.20268926815996,35.838624682551455],[129.20367154921001,35.838600645609546],[129.2094833520109,35.83950081023539],[129.21306674189609,35.84031326432256],[129.21517865191908,35.840972221696966],[129.21534753936714,35.84111023772985],[129.216898476119,35.84104842504293],[129.2187805416535,35.84074150399889],[129.2189229762893,35.8409512487777],[129.21923975081847,35.848264991510376],[129.21977929544403,35.84955490189093],[129.21974903762973,35.850005837623904]]]},"properties":{"name":"① 경주중심상권","cls":"center","desc":"경주시 원도심에 형성된 최대 규모 상권. 시민 주거생활용 시내 상권과 관광객 유치용 도심 관광인프라가 복합된 상업지역","anchors":"경주역·전통시장·봉황로 문화의거리·경주역 일원","area_ha":101.9,"lbl":"① 경주중심상권","source":"경주시 도시재생 전략계획(변경) 2022.01 기초조사 인쇄쪽 42 「경주 중심지 상권 분석도」 디지타이징 (T1 도면, 개략도 · GCP 잔차 ≤65m)","gcp_resid_m":64.2}},{"type":"Feature","geometry":{"type":"Polygon","coordinates":[[[129.20722496494434,35.83339566646491],[129.20782348894528,35.833333609238224],[129.2111959481625,35.83344045502802],[129.21133660925932,35.83362655758979],[129.2115584001335,35.83362111467959],[129.2116301174017,35.834164323170306],[129.21258065580707,35.83414099119044],[129.21259354018363,35.833453540404285],[129.21517215998753,35.8335560669177],[129.21530586394243,35.833647558740594],[129.21540406628387,35.83411903177869],[129.21585951118976,35.83470019677532],[129.21587170408802,35.83486575727012],[129.21666698206417,35.835320095150166],[129.2173198476199,35.835564680965064],[129.21739192942144,35.83568138009172],[129.21874361826056,35.83593246675311],[129.22001102761322,35.835901280682],[129.22230805578144,35.8360579746316],[129.22295745657956,35.836255226923534],[129.2230118138784,35.836561914286925],[129.22247316113967,35.83657518346194],[129.22241676553097,35.83667134994302],[129.2218269465092,35.836851736852104],[129.22119118824727,35.837270195211985],[129.220971131386,35.83729930733889],[129.2209481626691,35.837418344458385],[129.22049553801955,35.83773751294676],[129.22000076478685,35.837915551019655],[129.21998651015502,35.83815284505725],[129.21960627671527,35.8381622022384],[129.21953070340146,35.837998201648794],[129.2186667823967,35.83747448769049],[129.21845749779757,35.837218998404744],[129.21776595969897,35.83688059228685],[129.21772556184592,35.836763114200295],[129.21753370591767,35.83674413788906],[129.21745465351054,35.836532833002934],[129.2171659994429,35.836492542031955],[129.21570913124785,35.83567535915601],[129.21489958580074,35.8354583085495],[129.21360223727103,35.83551387036566],[129.21298942646098,35.83581324975907],[129.21281324255614,35.836007129752495],[129.21265481583345,35.83601101925574],[129.2126335759616,35.836153706396786],[129.21182158672678,35.836765994847994],[129.21165410109694,35.83707813089364],[129.21112066418073,35.83716230387069],[129.2111029022409,35.83735229384939],[129.2107244118103,35.83738527448415],[129.21072753348034,35.837859083208016],[129.21054263785987,35.837934702009306],[129.21005443906822,35.83863381102591],[129.21009794460852,35.83922510033446],[129.2079857487957,35.83899255873358],[129.20746310834636,35.83879211958967],[129.20722496494434,35.83339566646491]]]},"properties":{"name":"② 관광상권","cls":"tour","desc":"관광객이 가장 많이 이용하는 황리단길 중심 상권. 젊은 층 선호, 음식점업과 게스트하우스 등 숙박시설 밀집","anchors":"황리단길·황남시장·쌈밥거리 일원","area_ha":39.7,"lbl":"② 관광상권","source":"경주시 도시재생 전략계획(변경) 2022.01 기초조사 인쇄쪽 42 「경주 중심지 상권 분석도」 디지타이징 (T1 도면, 개략도 · GCP 잔차 ≤65m)","gcp_resid_m":64.2}},{"type":"Feature","geometry":{"type":"Polygon","coordinates":[[[129.20349120422324,35.85644677776454],[129.2033418277117,35.856142408764356],[129.20321331529294,35.85612185888103],[129.20313160296533,35.85501023310418],[129.20622012015224,35.854697688927345],[129.20621702412996,35.85422388132921],[129.2065955964777,35.854190914711545],[129.20651036007632,35.85303198788446],[129.20628503592008,35.8529901184923],[129.20622725264556,35.852636121069814],[129.20591033231466,35.852643882702715],[129.20588076428368,35.85224180579592],[129.20654281458357,35.852178202428014],[129.20643225353754,35.84981149194294],[129.20827032484235,35.849766455052496],[129.20839845699652,35.8502135043226],[129.20878048955166,35.850227833970976],[129.20879789061303,35.8504643494352],[129.20844928806346,35.85047289461396],[129.20839982572255,35.850663660587465],[129.2085529496805,35.85274499661872],[129.20878523496157,35.852881467904254],[129.2087775359613,35.85363987077798],[129.20858912166747,35.85366818343681],[129.20864132587732,35.85437772946737],[129.20874684508902,35.854517308082556],[129.208905308833,35.8545134236191],[129.20894359432586,35.85503375720327],[129.20913897299482,35.855100050073325],[129.20936183222295,35.855971271226785],[129.20835249451406,35.85649359098055],[129.20803555906826,35.856501358264254],[129.20758178550295,35.85594381749557],[129.2066943719755,35.85596555807387],[129.20562723350596,35.85613385797301],[129.20560075796098,35.856205588736955],[129.20427310998593,35.85628547840114],[129.20387152709273,35.85643747130709],[129.20349120422324,35.85644677776454]]]},"properties":{"name":"③ 도심배후상권","cls":"back","desc":"동국대 구(舊)대학로 거리의 도심 배후상권, 근린생활권. 기존 주민 유출로 외국인 근로자 이용이 높은 지역","anchors":"상권 형성지역 일원(성건동)","area_ha":19.2,"lbl":"③ 도심배후상권","source":"경주시 도시재생 전략계획(변경) 2022.01 기초조사 인쇄쪽 42 「경주 중심지 상권 분석도」 디지타이징 (T1 도면, 개략도 · GCP 잔차 ≤65m)","gcp_resid_m":64.2}},{"type":"Feature","geometry":{"type":"Polygon","coordinates":[[[129.224808616438,35.855757422662286],[129.22467835427284,35.855713244476945],[129.22443581666153,35.85242571564466],[129.22557671898014,35.85239759398844],[129.2258509966113,35.85568433898356],[129.224808616438,35.855757422662286]]]},"properties":{"name":"④ 동천근린상권","cls":"nbhd","desc":"경주시청·주변 업무시설 근로자와 인근 거주민이 이용하는 근린상업지역. 음식점업·모텔 중심 숙박업 비중 높음","anchors":"동천시장","area_ha":3.8,"lbl":"④ 동천근린상권","source":"경주시 도시재생 전략계획(변경) 2022.01 기초조사 인쇄쪽 42 「경주 중심지 상권 분석도」 디지타이징 (T1 도면, 개략도 · GCP 잔차 ≤65m)","gcp_resid_m":64.2}}]}