{"type":"FeatureCollection","features":[{"type":"Feature","geometry":{"type":"Point","coordinates":[129.19448824309475,35.86255063898626]},"properties":{"name":"동국대학교경주캠퍼스/도서관","kind":"도서관","category":"중앙행정기관 > 교육부","addr":"경상북도 경주시 동대로 123","lbl":"동국대학교경주캠퍼스/도서관","source":"V-World 장소검색 (2026-09-21, T2 POI) — 공식 시설 목록 아님"}},{"type":"Feature","geometry":{"type":"Point","coordinates":[129.50180380215315,35.80788698923805]},"properties":{"name":"해송작은도서관","kind":"도서관","category":"도서관","addr":"경상북도 경주시 감포읍 감포리 54-2 대","lbl":"해송작은도서관","source":"V-World 장소검색 (2026-09-21, T2 POI) — 공식 시설 목록 아님"}},{"type":"Feature","geometry":{"type":"Point","coordinates":[129.10260236363692,35.85171262362221]},"properties":{"name":"단석도서관","kind":"도서관","category":"도서관","addr":"경상북도 경주시 건천읍 작원3길 23","lbl":"단석도서관","source":"V-World 장소검색 (2026-09-21, T2 POI) — 공식 시설 목록 아님"}},{"type":"Feature","geometry":{"type":"Point","coordinates":[129.21055979067816,35.840055923396385]},"properties":{"name":"국제펜대회기념도서관","kind":"도서관","category":"도서관","addr":"경상북도 경주시 태종로 755","lbl":"국제펜대회기념도서관","source":"V-World 장소검색 (2026-09-21, T2 POI) — 공식 시설 목록 아님"}},{"type":"Feature","geometry":{"type":"Point","coordinates":[129.21071797400683,35.84618140325577]},"properties":{"name":"경주문화원도서관","kind":"도서관","category":"도서관","addr":"경상북도 경주시 중앙로 67-12","lbl":"경주문화원도서관","source":"V-World 장소검색 (2026-09-21, T2 POI) — 공식 시설 목록 아님"}},{"type":"Feature","geometry":{"type":"Point","coordinates":[129.20437763433392,35.85025996911516]},"properties":{"name":"우리작은도서관","kind":"도서관","category":"도서관","addr":"경상북도 경주시 한빛길 23","lbl":"우리작은도서관","source":"V-World 장소검색 (2026-09-21, T2 POI) — 공식 시설 목록 아님"}},{"type":"Feature","geometry":{"type":"Point","coordinates":[129.22751115123089,35.99192020509935]},"properties":{"name":"정다운작은도서관,경주문화원안강교육장","kind":"도서관","category":"도서관","addr":"경상북도 경주시 안강읍 안강중앙로 249","lbl":"정다운작은도서관,경주문화원안강교육장","source":"V-World 장소검색 (2026-09-21, T2 POI) — 공식 시설 목록 아님"}},{"type":"Feature","geometry":{"type":"Point","coordinates":[129.2185601336352,35.99225183008588]},"properties":{"name":"칠평도서관","kind":"도서관","category":"도서관","addr":"경상북도 경주시 안강읍 비화중로 51","lbl":"칠평도서관","source":"V-World 장소검색 (2026-09-21, T2 POI) — 공식 시설 목록 아님"}},{"type":"Feature","geometry":{"type":"Point","coordinates":[129.32441054067357,35.71722449895921]},"properties":{"name":"경상북도교육청외동도서관","kind":"도서관","category":"도서관","addr":"경상북도 경주시 외동읍 입실로 98","lbl":"경상북도교육청외동도서관","source":"V-World 장소검색 (2026-09-21, T2 POI) — 공식 시설 목록 아님"}},{"type":"Feature","geometry":{"type":"Point","coordinates":[129.18154966581062,35.84213009297741]},"properties":{"name":"경주시립송화도서관","kind":"도서관","category":"도서관","addr":"경상북도 경주시 태종로 472-9","lbl":"경주시립송화도서관","source":"V-World 장소검색 (2026-09-21, T2 POI) — 공식 시설 목록 아님"}},{"type":"Feature","geometry":{"type":"Point","coordinates":[129.21904669978161,35.85941307064413]},"properties":{"name":"경주도서관","kind":"도서관","category":"도서관","addr":"경상북도 경주시 황성동 369-3","lbl":"경주도서관","source":"V-World 장소검색 (2026-09-21, T2 POI) — 공식 시설 목록 아님"}},{"type":"Feature","geometry":{"type":"Point","coordinates":[129.44310438929364,35.78576286777222]},"properties":{"name":"양북중교목련도서관","kind":"도서관","category":"중앙행정기관 > 교육부","addr":"경상북도 경주시 문무대왕면 어일남길 2","lbl":"양북중교목련도서관","source":"V-World 장소검색 (2026-09-21, T2 POI) — 공식 시설 목록 아님"}},{"type":"Feature","geometry":{"type":"Point","coordinates":[129.16195672752255,35.83108229538464]},"properties":{"name":"경주대학교/중앙도서관","kind":"도서관","category":"중앙행정기관 > 교육부","addr":"경상북도 경주시 태종로 188","lbl":"경주대학교/중앙도서관","source":"V-World 장소검색 (2026-09-21, T2 POI) — 공식 시설 목록 아님"}},{"type":"Feature","geometry":{"type":"Point","coordinates":[129.50177569425037,35.80784990672088]},"properties":{"name":"고맙습니다해송작은도서관","kind":"도서관","category":"작은도서관","addr":"경상북도 경주시 감포읍 감포로9길 9","lbl":"고맙습니다해송작은도서관","source":"V-World 장소검색 (2026-09-21, T2 POI) — 공식 시설 목록 아님"}},{"type":"Feature","geometry":{"type":"Point","coordinates":[129.4931247984405,35.799081102920226]},"properties":{"name":"감포도서관","kind":"도서관","category":"공공도서관","addr":"경상북도 경주시 감포읍 동해안로 2151","lbl":"감포도서관","source":"V-World 장소검색 (2026-09-21, T2 POI) — 공식 시설 목록 아님"}},{"type":"Feature","geometry":{"type":"Point","coordinates":[129.27300075783413,35.9873580512581]},"properties":{"name":"강동꿈마루작은도서관","kind":"도서관","category":"작은도서관","addr":"경상북도 경주시 강동면 강동로 17","lbl":"강동꿈마루작은도서관","source":"V-World 장소검색 (2026-09-21, T2 POI) — 공식 시설 목록 아님"}},{"type":"Feature","geometry":{"type":"Point","coordinates":[129.21087819587942,35.843708782797584]},"properties":{"name":"꿈나무작은도서관","kind":"도서관","category":"작은도서관","addr":"경상북도 경주시 중앙로47번길 3","lbl":"꿈나무작은도서관","source":"V-World 장소검색 (2026-09-21, T2 POI) — 공식 시설 목록 아님"}},{"type":"Feature","geometry":{"type":"Point","coordinates":[129.22479863345563,35.850686118401605]},"properties":{"name":"성화작은도서관","kind":"도서관","category":"작은도서관","addr":"경상북도 경주시 양정로202번길 8-4","lbl":"성화작은도서관","source":"V-World 장소검색 (2026-09-21, T2 POI) — 공식 시설 목록 아님"}},{"type":"Feature","geometry":{"type":"Point","coordinates":[129.43974520424413,35.79368215574181]},"properties":{"name":"문무대왕꿈마루작은도서관","kind":"도서관","category":"작은도서관","addr":"경상북도 경주시 문무대왕면 감은로 17","lbl":"문무대왕꿈마루작은도서관","source":"V-World 장소검색 (2026-09-21, T2 POI) — 공식 시설 목록 아님"}},{"type":"Feature","geometry":{"type":"Point","coordinates":[129.38930303626856,35.79278192334321]},"properties":{"name":"수민작은도서관","kind":"도서관","category":"작은도서관","addr":"경상북도 경주시 문무대왕면 장항재동길 14-1","lbl":"수민작은도서관","source":"V-World 장소검색 (2026-09-21, T2 POI) — 공식 시설 목록 아님"}},{"type":"Feature","geometry":{"type":"Point","coordinates":[129.20785439469668,35.838393297427345]},"properties":{"name":"경주중앙도서관","kind":"도서관","category":"공공도서관","addr":"경상북도 경주시 금성로 236","lbl":"경주중앙도서관","source":"V-World 장소검색 (2026-09-21, T2 POI) — 공식 시설 목록 아님"}},{"type":"Feature","geometry":{"type":"Point","coordinates":[129.17846880306948,35.86075242103174]},"properties":{"name":"화랑마을꿈마루도서관","kind":"도서관","category":"작은도서관","addr":"경상북도 경주시 석현로 123","lbl":"화랑마을꿈마루도서관","source":"V-World 장소검색 (2026-09-21, T2 POI) — 공식 시설 목록 아님"}},{"type":"Feature","geometry":{"type":"Point","coordinates":[129.20578264096181,35.842455399851325]},"properties":{"name":"경주영어작은도서관","kind":"도서관","category":"작은도서관","addr":"경상북도 경주시 원효로45번길 1","lbl":"경주영어작은도서관","source":"V-World 장소검색 (2026-09-21, T2 POI) — 공식 시설 목록 아님"}},{"type":"Feature","geometry":{"type":"Point","coordinates":[129.20724025675278,35.85103640352543]},"properties":{"name":"우리작은도서관","kind":"도서관","category":"작은도서관","addr":"경상북도 경주시 금성로 374","lbl":"우리작은도서관","source":"V-World 장소검색 (2026-09-21, T2 POI) — 공식 시설 목록 아님"}},{"type":"Feature","geometry":{"type":"Point","coordinates":[129.20656891255095,35.854702286819226]},"properties":{"name":"글로벌작은도서관","kind":"도서관","category":"작은도서관","addr":"경상북도 경주시 금성로 415","lbl":"글로벌작은도서관","source":"V-World 장소검색 (2026-09-21, T2 POI) — 공식 시설 목록 아님"}},{"type":"Feature","geometry":{"type":"Point","coordinates":[129.20552015008695,35.851823705553166]},"properties":{"name":"위드해피작은도서관","kind":"도서관","category":"작은도서관","addr":"경상북도 경주시 금성로385번길 13","lbl":"위드해피작은도서관","source":"V-World 장소검색 (2026-09-21, T2 POI) — 공식 시설 목록 아님"}},{"type":"Feature","geometry":{"type":"Point","coordinates":[129.2177116763525,35.84860017610083]},"properties":{"name":"큰마디힐링작은도서관","kind":"도서관","category":"작은도서관","addr":"경상북도 경주시 원화로 312","lbl":"큰마디힐링작은도서관","source":"V-World 장소검색 (2026-09-21, T2 POI) — 공식 시설 목록 아님"}},{"type":"Feature","geometry":{"type":"Point","coordinates":[129.2082140819398,35.98935330282887]},"properties":{"name":"근계작은도서관","kind":"도서관","category":"작은도서관","addr":"경상북도 경주시 안강읍 부곡길 24","lbl":"근계작은도서관","source":"V-World 장소검색 (2026-09-21, T2 POI) — 공식 시설 목록 아님"}},{"type":"Feature","geometry":{"type":"Point","coordinates":[129.2143112835418,35.991144999029004]},"properties":{"name":"꿈꾸는작은도서관","kind":"도서관","category":"작은도서관","addr":"경상북도 경주시 안강읍 화전길 41","lbl":"꿈꾸는작은도서관","source":"V-World 장소검색 (2026-09-21, T2 POI) — 공식 시설 목록 아님"}},{"type":"Feature","geometry":{"type":"Point","coordinates":[129.13777574862462,35.98096498151678]},"properties":{"name":"가온누리작은도서관","kind":"도서관","category":"작은도서관","addr":"경상북도 경주시 안강읍 호국로 2037","lbl":"가온누리작은도서관","source":"V-World 장소검색 (2026-09-21, T2 POI) — 공식 시설 목록 아님"}},{"type":"Feature","geometry":{"type":"Point","coordinates":[129.47185932950612,35.69912101575885]},"properties":{"name":"양남꿈마루작은도서관","kind":"도서관","category":"작은도서관","addr":"경상북도 경주시 양남면 죽전안길 27-3","lbl":"양남꿈마루작은도서관","source":"V-World 장소검색 (2026-09-21, T2 POI) — 공식 시설 목록 아님"}},{"type":"Feature","geometry":{"type":"Point","coordinates":[129.22790717475627,35.88685878619596]},"properties":{"name":"에일린의뜰작은도서관","kind":"도서관","category":"작은도서관","addr":"경상북도 경주시 용황로10길 43","lbl":"에일린의뜰작은도서관","source":"V-World 장소검색 (2026-09-21, T2 POI) — 공식 시설 목록 아님"}},{"type":"Feature","geometry":{"type":"Point","coordinates":[129.3257241641879,35.7851966794041]},"properties":{"name":"토함산아래작은도서관","kind":"도서관","category":"작은도서관","addr":"경상북도 경주시 진현로2길 39","lbl":"토함산아래작은도서관","source":"V-World 장소검색 (2026-09-21, T2 POI) — 공식 시설 목록 아님"}},{"type":"Feature","geometry":{"type":"Point","coordinates":[129.16428942152825,35.8357923772292]},"properties":{"name":"솔로몬도서마당","kind":"도서관","category":"작은도서관","addr":"경상북도 경주시 태종로 266-8","lbl":"솔로몬도서마당","source":"V-World 장소검색 (2026-09-21, T2 POI) — 공식 시설 목록 아님"}},{"type":"Feature","geometry":{"type":"Point","coordinates":[129.18642887923855,35.84304884573005]},"properties":{"name":"비전작은도서관","kind":"도서관","category":"작은도서관","addr":"경상북도 경주시 충효중앙길 40-3","lbl":"비전작은도서관","source":"V-World 장소검색 (2026-09-21, T2 POI) — 공식 시설 목록 아님"}},{"type":"Feature","geometry":{"type":"Point","coordinates":[129.18161460486064,35.8420374019166]},"properties":{"name":"송화도서관","kind":"도서관","category":"공공도서관","addr":"경상북도 경주시 태종로 472-9","lbl":"송화도서관","source":"V-World 장소검색 (2026-09-21, T2 POI) — 공식 시설 목록 아님"}},{"type":"Feature","geometry":{"type":"Point","coordinates":[129.19207025918135,35.87362999118959]},"properties":{"name":"신라문화유산연구원작은도서관","kind":"도서관","category":"작은도서관","addr":"경상북도 경주시 현곡면 가삼골1길 19-10","lbl":"신라문화유산연구원작은도서관","source":"V-World 장소검색 (2026-09-21, T2 POI) — 공식 시설 목록 아님"}},{"type":"Feature","geometry":{"type":"Point","coordinates":[129.1914068799268,35.874565489920556]},"properties":{"name":"현곡꿈마루작은도서관","kind":"도서관","category":"작은도서관","addr":"경상북도 경주시 현곡면 용담로 311","lbl":"현곡꿈마루작은도서관","source":"V-World 장소검색 (2026-09-21, T2 POI) — 공식 시설 목록 아님"}},{"type":"Feature","geometry":{"type":"Point","coordinates":[129.17913066316228,35.886454400317746]},"properties":{"name":"현곡작은도서관","kind":"도서관","category":"작은도서관","addr":"경상북도 경주시 현곡면 다경길 9-4","lbl":"현곡작은도서관","source":"V-World 장소검색 (2026-09-21, T2 POI) — 공식 시설 목록 아님"}},{"type":"Feature","geometry":{"type":"Point","coordinates":[129.2134389036741,35.83403440452586]},"properties":{"name":"두란노작은도서관","kind":"도서관","category":"작은도서관","addr":"경상북도 경주시 첨성로 99","lbl":"두란노작은도서관","source":"V-World 장소검색 (2026-09-21, T2 POI) — 공식 시설 목록 아님"}},{"type":"Feature","geometry":{"type":"Point","coordinates":[129.21917249835477,35.85972789860669]},"properties":{"name":"경주시립도서관","kind":"도서관","category":"공공도서관","addr":"경상북도 경주시 원화로 431-12","lbl":"경주시립도서관","source":"V-World 장소검색 (2026-09-21, T2 POI) — 공식 시설 목록 아님"}},{"type":"Feature","geometry":{"type":"Point","coordinates":[129.215627877317,35.87018118916809]},"properties":{"name":"경주새천년작은도서관","kind":"도서관","category":"작은도서관","addr":"경상북도 경주시 유림로 44-8","lbl":"경주새천년작은도서관","source":"V-World 장소검색 (2026-09-21, T2 POI) — 공식 시설 목록 아님"}},{"type":"Feature","geometry":{"type":"Point","coordinates":[129.21662109286154,35.84172209314425]},"properties":{"name":"황오작은도서관","kind":"도서관","category":"작은도서관","addr":"경상북도 경주시 원효로 142","lbl":"황오작은도서관","source":"V-World 장소검색 (2026-09-21, T2 POI) — 공식 시설 목록 아님"}},{"type":"Feature","geometry":{"type":"Point","coordinates":[129.22801478029405,35.82920894620689]},"properties":{"name":"국립경주박물관","kind":"박물관","category":"중앙행정기관 > 문화체육관광부 > 국립중앙박물관","addr":"경상북도 경주시 일정로 186","lbl":"국립경주박물관","source":"V-World 장소검색 (2026-09-21, T2 POI) — 공식 시설 목록 아님"}},{"type":"Feature","geometry":{"type":"Point","coordinates":[129.33171900406302,35.79232770283221]},"properties":{"name":"불국사박물관","kind":"박물관","category":"사립박물관","addr":"경상북도 경주시 불국로 385","lbl":"불국사박물관","source":"V-World 장소검색 (2026-09-21, T2 POI) — 공식 시설 목록 아님"}},{"type":"Feature","geometry":{"type":"Point","coordinates":[129.27345770441204,35.851893598216115]},"properties":{"name":"바니베어뮤지엄","kind":"박물관","category":"사립박물관","addr":"경상북도 경주시 보문로 280-34","lbl":"바니베어뮤지엄","source":"V-World 장소검색 (2026-09-21, T2 POI) — 공식 시설 목록 아님"}},{"type":"Feature","geometry":{"type":"Point","coordinates":[129.26854700583755,35.852130004591096]},"properties":{"name":"경주세계자동차박물관","kind":"박물관","category":"사립박물관","addr":"경상북도 경주시 보문로 132-22","lbl":"경주세계자동차박물관","source":"V-World 장소검색 (2026-09-21, T2 POI) — 공식 시설 목록 아님"}},{"type":"Feature","geometry":{"type":"Point","coordinates":[129.1944930046046,35.86256059818644]},"properties":{"name":"동국대학교경주캠퍼스박물관","kind":"박물관","category":"대학박물관","addr":"경상북도 경주시 동대로 123","lbl":"동국대학교경주캠퍼스박물관","source":"V-World 장소검색 (2026-09-21, T2 POI) — 공식 시설 목록 아님"}},{"type":"Feature","geometry":{"type":"Point","coordinates":[129.28889399698096,35.84036429838381]},"properties":{"name":"한국대중음악박물관","kind":"박물관","category":"사립박물관","addr":"경상북도 경주시 신평동 220","lbl":"한국대중음악박물관","source":"V-World 장소검색 (2026-09-21, T2 POI) — 공식 시설 목록 아님"}},{"type":"Feature","geometry":{"type":"Point","coordinates":[129.28654657176642,35.830515761674775]},"properties":{"name":"경주세계문화엑스포공원/세계화석박물관","kind":"박물관","category":"건물 > 관광휴게시설","addr":"경상북도 경주시 경감로 614","lbl":"경주세계문화엑스포공원/세계화석박물관","source":"V-World 장소검색 (2026-09-21, T2 POI) — 공식 시설 목록 아님"}},{"type":"Feature","geometry":{"type":"Point","coordinates":[129.16323800578238,35.829284004908686]},"properties":{"name":"경주대학교박물관","kind":"박물관","category":"대학박물관","addr":"경상북도 경주시 태종로 188","lbl":"경주대학교박물관","source":"V-World 장소검색 (2026-09-21, T2 POI) — 공식 시설 목록 아님"}},{"type":"Feature","geometry":{"type":"Point","coordinates":[129.07574387159784,35.86574093018932]},"properties":{"name":"여근곡기박물관","kind":"박물관","category":"창작및예술관련서비스업 > 공연시설운영업","addr":"경상북도 경주시 건천읍 원신길 63","lbl":"여근곡기박물관","source":"V-World 장소검색 (2026-09-21, T2 POI) — 공식 시설 목록 아님"}},{"type":"Feature","geometry":{"type":"Point","coordinates":[129.21306771047023,35.84567320122777]},"properties":{"name":"취연벼루박물관","kind":"박물관","category":"창작및예술관련서비스업 > 공연시설운영업","addr":"경상북도 경주시 화랑로107번길 10-9","lbl":"취연벼루박물관","source":"V-World 장소검색 (2026-09-21, T2 POI) — 공식 시설 목록 아님"}},{"type":"Feature","geometry":{"type":"Point","coordinates":[129.28771940446114,35.84280861872196]},"properties":{"name":"손재림박물관","kind":"박물관","category":"창작및예술관련서비스업 > 공연시설운영업","addr":"경상북도 경주시 신평동 375-4","lbl":"손재림박물관","source":"V-World 장소검색 (2026-09-21, T2 POI) — 공식 시설 목록 아님"}},{"type":"Feature","geometry":{"type":"Point","coordinates":[129.276933022168,35.851714715862514]},"properties":{"name":"드림스페이스테디베어박물관","kind":"박물관","category":"창작및예술관련서비스업 > 공연시설운영업","addr":"경상북도 경주시 보문로 280-34","lbl":"드림스페이스테디베어박물관","source":"V-World 장소검색 (2026-09-21, T2 POI) — 공식 시설 목록 아님"}},{"type":"Feature","geometry":{"type":"Point","coordinates":[129.2268651054383,35.829256756454555]},"properties":{"name":"국립경주박물관","kind":"박물관","category":"창작및예술관련서비스업 > 공연시설운영업","addr":"경상북도 경주시 일정로 186","lbl":"국립경주박물관","source":"V-World 장소검색 (2026-09-21, T2 POI) — 공식 시설 목록 아님"}},{"type":"Feature","geometry":{"type":"Point","coordinates":[129.27728110348903,35.78831800833933]},"properties":{"name":"한국광고영상박물관","kind":"박물관","category":"창작및예술관련서비스업 > 공연시설운영업","addr":"경상북도 경주시 산업로 3260","lbl":"한국광고영상박물관","source":"V-World 장소검색 (2026-09-21, T2 POI) — 공식 시설 목록 아님"}},{"type":"Feature","geometry":{"type":"Point","coordinates":[129.21298097764733,35.833053025476914]},"properties":{"name":"이동형길거리박물관","kind":"박물관","category":"창작및예술관련서비스업 > 공연시설운영업","addr":"경상북도 경주시 황남동 158-1","lbl":"이동형길거리박물관","source":"V-World 장소검색 (2026-09-21, T2 POI) — 공식 시설 목록 아님"}},{"type":"Feature","geometry":{"type":"Point","coordinates":[129.3073777945723,35.81233067299798]},"properties":{"name":"성박물관러브캐슬","kind":"박물관","category":"창작및예술관련서비스업 > 공연시설운영업","addr":"경상북도 경주시 보불로 332","lbl":"성박물관러브캐슬","source":"V-World 장소검색 (2026-09-21, T2 POI) — 공식 시설 목록 아님"}},{"type":"Feature","geometry":{"type":"Point","coordinates":[129.51141520067588,35.80728149556965]},"properties":{"name":"송대말등대빛체험전시관","kind":"박물관","category":"도서관,사적지및유사여가관련서비스업 > 박물관및사적지관리운영업 > 전시관","addr":"경상북도 경주시 감포읍 감포로 226-19","lbl":"송대말등대빛체험전시관","source":"V-World 장소검색 (2026-09-21, T2 POI) — 공식 시설 목록 아님"}},{"type":"Feature","geometry":{"type":"Point","coordinates":[129.2306978955492,35.83825129764919]},"properties":{"name":"황룡사역사문화관","kind":"박물관","category":"도서관,사적지및유사여가관련서비스업 > 박물관및사적지관리운영업 > 전시관","addr":"경상북도 경주시 임해로 64-19","lbl":"황룡사역사문화관","source":"V-World 장소검색 (2026-09-21, T2 POI) — 공식 시설 목록 아님"}},{"type":"Feature","geometry":{"type":"Point","coordinates":[129.2180536002642,35.84736130144943]},"properties":{"name":"경주문화관1918","kind":"박물관","category":"도서관,사적지및유사여가관련서비스업 > 박물관및사적지관리운영업 > 전시관","addr":"경상북도 경주시 성동동 122-1","lbl":"경주문화관1918","source":"V-World 장소검색 (2026-09-21, T2 POI) — 공식 시설 목록 아님"}},{"type":"Feature","geometry":{"type":"Point","coordinates":[129.4344648245816,35.76690181273717]},"properties":{"name":"경주시전통명주전시관","kind":"박물관","category":"창작및예술관련서비스업 > 공연시설운영업","addr":"경상북도 경주시 문무대왕면 명주길 154","lbl":"경주시전통명주전시관","source":"V-World 장소검색 (2026-09-21, T2 POI) — 공식 시설 목록 아님"}},{"type":"Feature","geometry":{"type":"Point","coordinates":[129.17845740384018,35.860755924864954]},"properties":{"name":"화랑마을전시관","kind":"박물관","category":"창작및예술관련서비스업 > 공연시설운영업","addr":"경상북도 경주시 석장동 1272","lbl":"화랑마을전시관","source":"V-World 장소검색 (2026-09-21, T2 POI) — 공식 시설 목록 아님"}},{"type":"Feature","geometry":{"type":"Point","coordinates":[129.31117170404215,35.804526578309236]},"properties":{"name":"경주민속공예촌전시관","kind":"박물관","category":"창작및예술관련서비스업 > 공연시설운영업","addr":"경상북도 경주시 보불로 230","lbl":"경주민속공예촌전시관","source":"V-World 장소검색 (2026-09-21, T2 POI) — 공식 시설 목록 아님"}},{"type":"Feature","geometry":{"type":"Point","coordinates":[129.29144179913578,35.83304630286243]},"properties":{"name":"경주세계문화엑스포공원/기념관","kind":"박물관","category":"건물 > 관광휴게시설","addr":"경상북도 경주시 천군동 130","lbl":"경주세계문화엑스포공원/기념관","source":"V-World 장소검색 (2026-09-21, T2 POI) — 공식 시설 목록 아님"}},{"type":"Feature","geometry":{"type":"Point","coordinates":[129.33408759966932,35.78503650941968]},"properties":{"name":"동리목월기념관","kind":"박물관","category":"창작및예술관련서비스업 > 공연시설운영업","addr":"경상북도 경주시 불국로 406-3","lbl":"동리목월기념관","source":"V-World 장소검색 (2026-09-21, T2 POI) — 공식 시설 목록 아님"}},{"type":"Feature","geometry":{"type":"Point","coordinates":[129.28931429655265,35.82878188410445]},"properties":{"name":"경주세계문화엑스포공원/솔거미술관","kind":"미술관","category":"건물 > 관광휴게시설","addr":"경상북도 경주시 경감로 614","lbl":"경주세계문화엑스포공원/솔거미술관","source":"V-World 장소검색 (2026-09-21, T2 POI) — 공식 시설 목록 아님"}},{"type":"Feature","geometry":{"type":"Point","coordinates":[129.28594899608674,35.839933800996015]},"properties":{"name":"우양미술관","kind":"미술관","category":"사립미술관","addr":"경상북도 경주시 보문로 484-7","lbl":"우양미술관","source":"V-World 장소검색 (2026-09-21, T2 POI) — 공식 시설 목록 아님"}},{"type":"Feature","geometry":{"type":"Point","coordinates":[129.28886099662324,35.83227370314113]},"properties":{"name":"경주솔거미술관","kind":"미술관","category":"공립미술관","addr":"경상북도 경주시 경감로 614","lbl":"경주솔거미술관","source":"V-World 장소검색 (2026-09-21, T2 POI) — 공식 시설 목록 아님"}},{"type":"Feature","geometry":{"type":"Point","coordinates":[129.2059889969555,35.86237710433312]},"properties":{"name":"경주예술의전당알천미술관","kind":"미술관","category":"공립미술관","addr":"경상북도 경주시 알천북로 1","lbl":"경주예술의전당알천미술관","source":"V-World 장소검색 (2026-09-21, T2 POI) — 공식 시설 목록 아님"}},{"type":"Feature","geometry":{"type":"Point","coordinates":[129.28588676885573,35.84164642833282]},"properties":{"name":"우양미술관","kind":"미술관","category":"창작및예술관련서비스업 > 공연시설운영업","addr":"경상북도 경주시 보문로 484-7","lbl":"우양미술관","source":"V-World 장소검색 (2026-09-21, T2 POI) — 공식 시설 목록 아님"}},{"type":"Feature","geometry":{"type":"Point","coordinates":[129.16460306693054,35.896716392957394]},"properties":{"name":"필소헌갤러리","kind":"미술관","category":"창작및예술관련서비스업 > 공연시설운영업","addr":"경상북도 경주시 현곡면 용담로 663-1","lbl":"필소헌갤러리","source":"V-World 장소검색 (2026-09-21, T2 POI) — 공식 시설 목록 아님"}},{"type":"Feature","geometry":{"type":"Point","coordinates":[129.09590906444035,35.84712785329223]},"properties":{"name":"공원","kind":"공원","category":"공원 > 어린이공원","addr":"경상북도 경주시 건천읍 천포리 480-7답","lbl":"공원","source":"V-World 장소검색 (2026-09-21, T2 POI) — 공식 시설 목록 아님"}},{"type":"Feature","geometry":{"type":"Point","coordinates":[129.2861976038959,35.990990999878555]},"properties":{"name":"형산강역사문화관광공원","kind":"공원","category":"공원 > 문화공원","addr":"경상북도 경주시 강동면 유금리 1545-1","lbl":"형산강역사문화관광공원","source":"V-World 장소검색 (2026-09-21, T2 POI) — 공식 시설 목록 아님"}},{"type":"Feature","geometry":{"type":"Point","coordinates":[129.10519567773304,35.8524056090436]},"properties":{"name":"건천7어린이공원","kind":"공원","category":"공원 > 어린이공원","addr":"경상북도 경주시 건천읍 건천리 177-45","lbl":"건천7어린이공원","source":"V-World 장소검색 (2026-09-21, T2 POI) — 공식 시설 목록 아님"}},{"type":"Feature","geometry":{"type":"Point","coordinates":[129.10520450325447,35.852384738477895]},"properties":{"name":"단석어린이공원","kind":"공원","category":"공원 > 어린이공원","addr":"경상북도 경주시 건천읍 건천리 177-45","lbl":"단석어린이공원","source":"V-World 장소검색 (2026-09-21, T2 POI) — 공식 시설 목록 아님"}},{"type":"Feature","geometry":{"type":"Point","coordinates":[129.10849750466764,35.84683652812299]},"properties":{"name":"동심어린이공원","kind":"공원","category":"공원 > 어린이공원","addr":"경상북도 경주시 건천읍 건천리 628","lbl":"동심어린이공원","source":"V-World 장소검색 (2026-09-21, T2 POI) — 공식 시설 목록 아님"}},{"type":"Feature","geometry":{"type":"Point","coordinates":[129.24730109851956,35.84072689030538]},"properties":{"name":"신라왕경숲공원","kind":"공원","category":"공원 > 문화공원","addr":"경상북도 경주시 구황동 2-4","lbl":"신라왕경숲공원","source":"V-World 장소검색 (2026-09-21, T2 POI) — 공식 시설 목록 아님"}},{"type":"Feature","geometry":{"type":"Point","coordinates":[129.23985353624838,35.84080584084311]},"properties":{"name":"알천체육공원","kind":"공원","category":"공원 > 체육공원","addr":"경상북도 경주시 구황동 290-5잡","lbl":"알천체육공원","source":"V-World 장소검색 (2026-09-21, T2 POI) — 공식 시설 목록 아님"}},{"type":"Feature","geometry":{"type":"Point","coordinates":[129.24599011259818,35.840073719469274]},"properties":{"name":"문화공원","kind":"공원","category":"공원 > 근린공원","addr":"경상북도 경주시 구황동 6-16 제","lbl":"문화공원","source":"V-World 장소검색 (2026-09-21, T2 POI) — 공식 시설 목록 아님"}},{"type":"Feature","geometry":{"type":"Point","coordinates":[129.23858840045972,35.839943101237644]},"properties":{"name":"분황사지구공원","kind":"공원","category":"공원 > 근린공원","addr":"경상북도 경주시 구황동 883-44","lbl":"분황사지구공원","source":"V-World 장소검색 (2026-09-21, T2 POI) — 공식 시설 목록 아님"}},{"type":"Feature","geometry":{"type":"Point","coordinates":[129.1762397382567,35.74622491572125]},"properties":{"name":"내남면체육공원","kind":"공원","category":"공원 > 체육공원","addr":"경상북도 경주시 내남면 덕천리 897-3학","lbl":"내남면체육공원","source":"V-World 장소검색 (2026-09-21, T2 POI) — 공식 시설 목록 아님"}},{"type":"Feature","geometry":{"type":"Point","coordinates":[129.2038136506364,35.75498694918454]},"properties":{"name":"남산체육공원","kind":"공원","category":"공원 > 체육공원","addr":"경상북도 경주시 내남면 이조리 1008-403천","lbl":"남산체육공원","source":"V-World 장소검색 (2026-09-21, T2 POI) — 공식 시설 목록 아님"}},{"type":"Feature","geometry":{"type":"Point","coordinates":[129.19662935610242,35.75301359235965]},"properties":{"name":"충의공원","kind":"공원","category":"공원 > 근린공원","addr":"경상북도 경주시 내남면 이조리 505-5","lbl":"충의공원","source":"V-World 장소검색 (2026-09-21, T2 POI) — 공식 시설 목록 아님"}},{"type":"Feature","geometry":{"type":"Point","coordinates":[129.20616019963992,35.841886400786315]},"properties":{"name":"노서어린이공원","kind":"공원","category":"공원 > 어린이공원","addr":"경상북도 경주시 태종로711번길 36","lbl":"노서어린이공원","source":"V-World 장소검색 (2026-09-21, T2 POI) — 공식 시설 목록 아님"}},{"type":"Feature","geometry":{"type":"Point","coordinates":[129.23449166980814,35.842516023795575]},"properties":{"name":"알천체육공원","kind":"공원","category":"공원 > 체육공원","addr":"경상북도 경주시 동천동 733-1 천","lbl":"알천체육공원","source":"V-World 장소검색 (2026-09-21, T2 POI) — 공식 시설 목록 아님"}},{"type":"Feature","geometry":{"type":"Point","coordinates":[129.22120956448697,35.85580019011435]},"properties":{"name":"동천소공원","kind":"공원","category":"공원 > 근린공원","addr":"경상북도 경주시 동천동 760","lbl":"동천소공원","source":"V-World 장소검색 (2026-09-21, T2 POI) — 공식 시설 목록 아님"}},{"type":"Feature","geometry":{"type":"Point","coordinates":[129.22475210034202,35.85720620131433]},"properties":{"name":"양정어린이공원","kind":"공원","category":"공원 > 어린이공원","addr":"경상북도 경주시 동천동 770-3","lbl":"양정어린이공원","source":"V-World 장소검색 (2026-09-21, T2 POI) — 공식 시설 목록 아님"}},{"type":"Feature","geometry":{"type":"Point","coordinates":[129.22225179988757,35.854219799576605]},"properties":{"name":"대안어린이공원","kind":"공원","category":"공원 > 어린이공원","addr":"경상북도 경주시 대안길 45","lbl":"대안어린이공원","source":"V-World 장소검색 (2026-09-21, T2 POI) — 공식 시설 목록 아님"}},{"type":"Feature","geometry":{"type":"Point","coordinates":[129.2263376000053,35.85439270087709]},"properties":{"name":"보우어린이공원","kind":"공원","category":"공원 > 어린이공원","addr":"경상북도 경주시 동천동 808-3","lbl":"보우어린이공원","source":"V-World 장소검색 (2026-09-21, T2 POI) — 공식 시설 목록 아님"}},{"type":"Feature","geometry":{"type":"Point","coordinates":[129.229381473189,35.85129762104248]},"properties":{"name":"탈해어린이공원","kind":"공원","category":"공원 > 어린이공원","addr":"경상북도 경주시 동천동 875-1","lbl":"탈해어린이공원","source":"V-World 장소검색 (2026-09-21, T2 POI) — 공식 시설 목록 아님"}},{"type":"Feature","geometry":{"type":"Point","coordinates":[129.2297415000758,35.8496446006343]},"properties":{"name":"월성어린이공원","kind":"공원","category":"공원 > 어린이공원","addr":"경상북도 경주시 동천동 909","lbl":"월성어린이공원","source":"V-World 장소검색 (2026-09-21, T2 POI) — 공식 시설 목록 아님"}},{"type":"Feature","geometry":{"type":"Point","coordinates":[129.23002562169142,35.8475490358543]},"properties":{"name":"금강어린이공원","kind":"공원","category":"공원 > 어린이공원","addr":"경상북도 경주시 동천동 916","lbl":"금강어린이공원","source":"V-World 장소검색 (2026-09-21, T2 POI) — 공식 시설 목록 아님"}},{"type":"Feature","geometry":{"type":"Point","coordinates":[129.2355712995371,35.84596420075862]},"properties":{"name":"동원어린이공원","kind":"공원","category":"공원 > 어린이공원","addr":"경상북도 경주시 동천동 940","lbl":"동원어린이공원","source":"V-World 장소검색 (2026-09-21, T2 POI) — 공식 시설 목록 아님"}},{"type":"Feature","geometry":{"type":"Point","coordinates":[129.2333208000429,35.84556630068607]},"properties":{"name":"경동어린이공원","kind":"공원","category":"공원 > 어린이공원","addr":"경상북도 경주시 동천동 951","lbl":"경동어린이공원","source":"V-World 장소검색 (2026-09-21, T2 POI) — 공식 시설 목록 아님"}},{"type":"Feature","geometry":{"type":"Point","coordinates":[129.4837257427284,35.734131305400226]},"properties":{"name":"청정누리공원","kind":"공원","category":"공원 > 근린공원","addr":"경상북도 경주시 문무대왕면 봉길리 853","lbl":"청정누리공원","source":"V-World 장소검색 (2026-09-21, T2 POI) — 공식 시설 목록 아님"}},{"type":"Feature","geometry":{"type":"Point","coordinates":[129.4431759875642,35.78932727750706]},"properties":{"name":"황성공원","kind":"공원","category":"공원 > 근린공원","addr":"경상북도 경주시 문무대왕면 어일리 893-3 전","lbl":"황성공원","source":"V-World 장소검색 (2026-09-21, T2 POI) — 공식 시설 목록 아님"}},{"type":"Feature","geometry":{"type":"Point","coordinates":[129.4470494552708,35.790472802554774]},"properties":{"name":"황성공원","kind":"공원","category":"공원 > 근린공원","addr":"경상북도 경주시 문무대왕면 어일리 산 15임","lbl":"황성공원","source":"V-World 장소검색 (2026-09-21, T2 POI) — 공식 시설 목록 아님"}},{"type":"Feature","geometry":{"type":"Point","coordinates":[129.2489369643605,35.841516789247294]},"properties":{"name":"문화공원","kind":"공원","category":"공원 > 근린공원","addr":"경상북도 경주시 보문동 43-24 공","lbl":"문화공원","source":"V-World 장소검색 (2026-09-21, T2 POI) — 공식 시설 목록 아님"}},{"type":"Feature","geometry":{"type":"Point","coordinates":[129.0524590729102,35.89359588145706]},"properties":{"name":"서면문화공원","kind":"공원","category":"공원 > 근린공원","addr":"경상북도 경주시 서면 아화리 259-1","lbl":"서면문화공원","source":"V-World 장소검색 (2026-09-21, T2 POI) — 공식 시설 목록 아님"}},{"type":"Feature","geometry":{"type":"Point","coordinates":[129.20833879998676,35.85423610133443]},"properties":{"name":"금성어린이공원","kind":"공원","category":"공원 > 어린이공원","addr":"경상북도 경주시 성건동 626-16","lbl":"금성어린이공원","source":"V-World 장소검색 (2026-09-21, T2 POI) — 공식 시설 목록 아님"}},{"type":"Feature","geometry":{"type":"Point","coordinates":[129.21380950020594,35.8534001013056]},"properties":{"name":"동문어린이공원","kind":"공원","category":"공원 > 어린이공원","addr":"경상북도 경주시 성건동 639","lbl":"동문어린이공원","source":"V-World 장소검색 (2026-09-21, T2 POI) — 공식 시설 목록 아님"}},{"type":"Feature","geometry":{"type":"Point","coordinates":[129.20420730027027,35.85372550075325]},"properties":{"name":"한빛어린이공원","kind":"공원","category":"공원 > 어린이공원","addr":"경상북도 경주시 성건동 692","lbl":"한빛어린이공원","source":"V-World 장소검색 (2026-09-21, T2 POI) — 공식 시설 목록 아님"}},{"type":"Feature","geometry":{"type":"Point","coordinates":[129.20606630029457,35.85090420098426]},"properties":{"name":"성건어린이공원","kind":"공원","category":"공원 > 어린이공원","addr":"경상북도 경주시 성건동 716","lbl":"성건어린이공원","source":"V-World 장소검색 (2026-09-21, T2 POI) — 공식 시설 목록 아님"}},{"type":"Feature","geometry":{"type":"Point","coordinates":[129.20606065497861,35.85090449751944]},"properties":{"name":"한빛어린이공원","kind":"공원","category":"공원 > 어린이공원","addr":"경상북도 경주시 성건동 716","lbl":"한빛어린이공원","source":"V-World 장소검색 (2026-09-21, T2 POI) — 공식 시설 목록 아님"}},{"type":"Feature","geometry":{"type":"Point","coordinates":[129.22035412414064,35.84670229455992]},"properties":{"name":"코레일소공원","kind":"공원","category":"공원 > 근린공원","addr":"경상북도 경주시 성동동 97","lbl":"코레일소공원","source":"V-World 장소검색 (2026-09-21, T2 POI) — 공식 시설 목록 아님"}},{"type":"Feature","geometry":{"type":"Point","coordinates":[129.28079805500317,35.86500293816883]},"properties":{"name":"경주생활체육공원","kind":"공원","category":"공원 > 체육공원","addr":"경상북도 경주시 천북남로 357","lbl":"경주생활체육공원","source":"V-World 장소검색 (2026-09-21, T2 POI) — 공식 시설 목록 아님"}},{"type":"Feature","geometry":{"type":"Point","coordinates":[129.30865056927823,35.77415558712909]},"properties":{"name":"두림어린이공원","kind":"공원","category":"공원 > 어린이공원","addr":"경상북도 경주시 시래동 1004","lbl":"두림어린이공원","source":"V-World 장소검색 (2026-09-21, T2 POI) — 공식 시설 목록 아님"}},{"type":"Feature","geometry":{"type":"Point","coordinates":[129.30479583053932,35.77231366897363]},"properties":{"name":"시래어린이공원","kind":"공원","category":"공원 > 어린이공원","addr":"경상북도 경주시 시래동 1012","lbl":"시래어린이공원","source":"V-World 장소검색 (2026-09-21, T2 POI) — 공식 시설 목록 아님"}},{"type":"Feature","geometry":{"type":"Point","coordinates":[129.31026799950385,35.771986000683036]},"properties":{"name":"구매어린이공원","kind":"공원","category":"공원 > 어린이공원","addr":"경상북도 경주시 시래동 1083","lbl":"구매어린이공원","source":"V-World 장소검색 (2026-09-21, T2 POI) — 공식 시설 목록 아님"}},{"type":"Feature","geometry":{"type":"Point","coordinates":[129.3080755796037,35.77017553253486]},"properties":{"name":"영불어린이공원","kind":"공원","category":"공원 > 어린이공원","addr":"경상북도 경주시 시래동 1107","lbl":"영불어린이공원","source":"V-World 장소검색 (2026-09-21, T2 POI) — 공식 시설 목록 아님"}},{"type":"Feature","geometry":{"type":"Point","coordinates":[129.21580690683265,35.986138579399224]},"properties":{"name":"안강생활체육공원","kind":"공원","category":"공원 > 근린공원","addr":"경상북도 경주시 안강읍 근계리 1418-472 체","lbl":"안강생활체육공원","source":"V-World 장소검색 (2026-09-21, T2 POI) — 공식 시설 목록 아님"}},{"type":"Feature","geometry":{"type":"Point","coordinates":[129.21706564590812,35.98572009976242]},"properties":{"name":"안강생활체육공원","kind":"공원","category":"공원 > 체육공원","addr":"경상북도 경주시 안강읍 근계리 1418-474 체","lbl":"안강생활체육공원","source":"V-World 장소검색 (2026-09-21, T2 POI) — 공식 시설 목록 아님"}},{"type":"Feature","geometry":{"type":"Point","coordinates":[129.16138441485228,35.991432135887024]},"properties":{"name":"소공원","kind":"공원","category":"공원 > 근린공원","addr":"경상북도 경주시 안강읍 두류리 1684","lbl":"소공원","source":"V-World 장소검색 (2026-09-21, T2 POI) — 공식 시설 목록 아님"}},{"type":"Feature","geometry":{"type":"Point","coordinates":[129.16103359574302,35.99061761136835]},"properties":{"name":"소공원","kind":"공원","category":"공원 > 근린공원","addr":"경상북도 경주시 안강읍 두류리 1701 공","lbl":"소공원","source":"V-World 장소검색 (2026-09-21, T2 POI) — 공식 시설 목록 아님"}},{"type":"Feature","geometry":{"type":"Point","coordinates":[129.1615927348164,35.989623496763386]},"properties":{"name":"소공원","kind":"공원","category":"공원 > 근린공원","addr":"경상북도 경주시 안강읍 두류리 1734 공","lbl":"소공원","source":"V-World 장소검색 (2026-09-21, T2 POI) — 공식 시설 목록 아님"}},{"type":"Feature","geometry":{"type":"Point","coordinates":[129.21756939982504,35.98892729971959]},"properties":{"name":"칠평어린이공원","kind":"공원","category":"공원 > 어린이공원","addr":"경상북도 경주시 안강읍 산대리 1956-10","lbl":"칠평어린이공원","source":"V-World 장소검색 (2026-09-21, T2 POI) — 공식 시설 목록 아님"}},{"type":"Feature","geometry":{"type":"Point","coordinates":[129.4669539995721,35.70478640096253]},"properties":{"name":"나아공원","kind":"공원","category":"공원 > 근린공원","addr":"경상북도 경주시 양남면 나아리 958","lbl":"나아공원","source":"V-World 장소검색 (2026-09-21, T2 POI) — 공식 시설 목록 아님"}},{"type":"Feature","geometry":{"type":"Point","coordinates":[129.4671168001793,35.70468054112603]},"properties":{"name":"월성한마음동산","kind":"공원","category":"공원 > 근린공원","addr":"경상북도 경주시 양남면 나아리 958","lbl":"월성한마음동산","source":"V-World 장소검색 (2026-09-21, T2 POI) — 공식 시설 목록 아님"}},{"type":"Feature","geometry":{"type":"Point","coordinates":[129.47138600013915,35.703504270444824]},"properties":{"name":"월성한마음동산","kind":"공원","category":"공원 > 근린공원","addr":"경상북도 경주시 양남면 나아리 981","lbl":"월성한마음동산","source":"V-World 장소검색 (2026-09-21, T2 POI) — 공식 시설 목록 아님"}},{"type":"Feature","geometry":{"type":"Point","coordinates":[129.4634672609289,35.67128899244293]},"properties":{"name":"하서해안공원","kind":"공원","category":"공원 > 근린공원","addr":"경상북도 경주시 양남면 수렴리 10-2 임","lbl":"하서해안공원","source":"V-World 장소검색 (2026-09-21, T2 POI) — 공식 시설 목록 아님"}},{"type":"Feature","geometry":{"type":"Point","coordinates":[129.31865904940645,35.73660265444337]},"properties":{"name":"대성공원","kind":"공원","category":"공원 > 근린공원","addr":"경상북도 경주시 외동읍 개곡리 1324-56전","lbl":"대성공원","source":"V-World 장소검색 (2026-09-21, T2 POI) — 공식 시설 목록 아님"}},{"type":"Feature","geometry":{"type":"Point","coordinates":[129.30513302812068,35.76287204238464]},"properties":{"name":"영지공원","kind":"공원","category":"공원 > 근린공원","addr":"경상북도 경주시 외동읍 괘릉리 1201","lbl":"영지공원","source":"V-World 장소검색 (2026-09-21, T2 POI) — 공식 시설 목록 아님"}},{"type":"Feature","geometry":{"type":"Point","coordinates":[129.3323791998608,35.67567590103554]},"properties":{"name":"계동공원","kind":"공원","category":"공원 > 근린공원","addr":"경상북도 경주시 외동읍 모화리 1852","lbl":"계동공원","source":"V-World 장소검색 (2026-09-21, T2 POI) — 공식 시설 목록 아님"}},{"type":"Feature","geometry":{"type":"Point","coordinates":[129.33648435030318,35.72158933326415]},"properties":{"name":"외동생활체육공원","kind":"공원","category":"공원 > 체육공원","addr":"경상북도 경주시 외동읍 외남로 1754","lbl":"외동생활체육공원","source":"V-World 장소검색 (2026-09-21, T2 POI) — 공식 시설 목록 아님"}},{"type":"Feature","geometry":{"type":"Point","coordinates":[129.23133519042338,35.880289466057754]},"properties":{"name":"용강어린이공원","kind":"공원","category":"공원 > 어린이공원","addr":"경상북도 경주시 용강동 1282","lbl":"용강어린이공원","source":"V-World 장소검색 (2026-09-21, T2 POI) — 공식 시설 목록 아님"}},{"type":"Feature","geometry":{"type":"Point","coordinates":[129.22905040036878,35.874971201026]},"properties":{"name":"승삼어린이공원","kind":"공원","category":"공원 > 어린이공원","addr":"경상북도 경주시 용강동 1292-1","lbl":"승삼어린이공원","source":"V-World 장소검색 (2026-09-21, T2 POI) — 공식 시설 목록 아님"}},{"type":"Feature","geometry":{"type":"Point","coordinates":[129.22408780272184,35.86394824936078]},"properties":{"name":"토용어린이공원","kind":"공원","category":"공원 > 어린이공원","addr":"경상북도 경주시 용강동 1318-1","lbl":"토용어린이공원","source":"V-World 장소검색 (2026-09-21, T2 POI) — 공식 시설 목록 아님"}},{"type":"Feature","geometry":{"type":"Point","coordinates":[129.22463519809617,35.861306654382645]},"properties":{"name":"용강고분공원","kind":"공원","category":"공원 > 어린이공원","addr":"경상북도 경주시 용강동 1333-1","lbl":"용강고분공원","source":"V-World 장소검색 (2026-09-21, T2 POI) — 공식 시설 목록 아님"}},{"type":"Feature","geometry":{"type":"Point","coordinates":[129.2258534518422,35.86064222239897]},"properties":{"name":"소금강어린이공원","kind":"공원","category":"공원 > 어린이공원","addr":"경상북도 경주시 용강동 1342-1","lbl":"소금강어린이공원","source":"V-World 장소검색 (2026-09-21, T2 POI) — 공식 시설 목록 아님"}},{"type":"Feature","geometry":{"type":"Point","coordinates":[129.2220480397589,35.86147276822903]},"properties":{"name":"대신어린이공원","kind":"공원","category":"공원 > 어린이공원","addr":"경상북도 경주시 용강동 1350","lbl":"대신어린이공원","source":"V-World 장소검색 (2026-09-21, T2 POI) — 공식 시설 목록 아님"}},{"type":"Feature","geometry":{"type":"Point","coordinates":[129.22640780046834,35.88189520067935]},"properties":{"name":"2호어린이공원","kind":"공원","category":"공원 > 어린이공원","addr":"경상북도 경주시 용강동 1504","lbl":"2호어린이공원","source":"V-World 장소검색 (2026-09-21, T2 POI) — 공식 시설 목록 아님"}},{"type":"Feature","geometry":{"type":"Point","coordinates":[129.22692380000908,35.885749000895665]},"properties":{"name":"근린공원(용황휴포레)","kind":"공원","category":"공원 > 근린공원","addr":"경상북도 경주시 용강동 1610","lbl":"근린공원(용황휴포레)","source":"V-World 장소검색 (2026-09-21, T2 POI) — 공식 시설 목록 아님"}},{"type":"Feature","geometry":{"type":"Point","coordinates":[129.2300650001851,35.88259750100996]},"properties":{"name":"3호어린이공원","kind":"공원","category":"공원 > 어린이공원","addr":"경상북도 경주시 용강동 1672","lbl":"3호어린이공원","source":"V-World 장소검색 (2026-09-21, T2 POI) — 공식 시설 목록 아님"}},{"type":"Feature","geometry":{"type":"Point","coordinates":[129.32648389878278,35.784750651852185]},"properties":{"name":"불국소공원","kind":"공원","category":"공원 > 어린이공원","addr":"경상북도 경주시 진현동 651-11","lbl":"불국소공원","source":"V-World 장소검색 (2026-09-21, T2 POI) — 공식 시설 목록 아님"}},{"type":"Feature","geometry":{"type":"Point","coordinates":[129.32824389928766,35.7875274203534]},"properties":{"name":"불국공원","kind":"공원","category":"공원 > 근린공원","addr":"경상북도 경주시 진현동 88","lbl":"불국공원","source":"V-World 장소검색 (2026-09-21, T2 POI) — 공식 시설 목록 아님"}},{"type":"Feature","geometry":{"type":"Point","coordinates":[129.19527190050155,35.84544500056158]},"properties":{"name":"흥무공원","kind":"공원","category":"공원 > 근린공원","addr":"경상북도 경주시 충효동 1-3","lbl":"흥무공원","source":"V-World 장소검색 (2026-09-21, T2 POI) — 공식 시설 목록 아님"}},{"type":"Feature","geometry":{"type":"Point","coordinates":[129.17635160002285,35.84584329961723]},"properties":{"name":"원당어린이공원","kind":"공원","category":"공원 > 어린이공원","addr":"경상북도 경주시 충효동 2934","lbl":"원당어린이공원","source":"V-World 장소검색 (2026-09-21, T2 POI) — 공식 시설 목록 아님"}},{"type":"Feature","geometry":{"type":"Point","coordinates":[129.18088781678927,35.845150446307684]},"properties":{"name":"중앙어린이공원","kind":"공원","category":"공원 > 어린이공원","addr":"경상북도 경주시 충효동 2955","lbl":"중앙어린이공원","source":"V-World 장소검색 (2026-09-21, T2 POI) — 공식 시설 목록 아님"}},{"type":"Feature","geometry":{"type":"Point","coordinates":[129.18405590049235,35.844365501245214]},"properties":{"name":"충효어린이공원","kind":"공원","category":"공원 > 어린이공원","addr":"경상북도 경주시 충효동 2968-2","lbl":"충효어린이공원","source":"V-World 장소검색 (2026-09-21, T2 POI) — 공식 시설 목록 아님"}},{"type":"Feature","geometry":{"type":"Point","coordinates":[129.18727920661922,35.84289629126846]},"properties":{"name":"현대어린이공원","kind":"공원","category":"공원 > 어린이공원","addr":"경상북도 경주시 충효동 2999","lbl":"현대어린이공원","source":"V-World 장소검색 (2026-09-21, T2 POI) — 공식 시설 목록 아님"}},{"type":"Feature","geometry":{"type":"Point","coordinates":[129.1895710263392,35.841010880911824]},"properties":{"name":"송화어린이공원","kind":"공원","category":"공원 > 어린이공원","addr":"경상북도 경주시 충효동 3018","lbl":"송화어린이공원","source":"V-World 장소검색 (2026-09-21, T2 POI) — 공식 시설 목록 아님"}},{"type":"Feature","geometry":{"type":"Point","coordinates":[129.16713060019333,35.84869389075571]},"properties":{"name":"충효6어린이공원","kind":"공원","category":"공원 > 어린이공원","addr":"경상북도 경주시 충효동 3100","lbl":"충효6어린이공원","source":"V-World 장소검색 (2026-09-21, T2 POI) — 공식 시설 목록 아님"}},{"type":"Feature","geometry":{"type":"Point","coordinates":[129.20275109969958,35.871627400541776]},"properties":{"name":"금장어린이공원","kind":"공원","category":"공원 > 어린이공원","addr":"경상북도 경주시 현곡면 금장리 384-38","lbl":"금장어린이공원","source":"V-World 장소검색 (2026-09-21, T2 POI) — 공식 시설 목록 아님"}},{"type":"Feature","geometry":{"type":"Point","coordinates":[129.2016611998748,35.864213000041524]},"properties":{"name":"안현어린이공원","kind":"공원","category":"공원 > 어린이공원","addr":"경상북도 경주시 현곡면 금장리 640-4","lbl":"안현어린이공원","source":"V-World 장소검색 (2026-09-21, T2 POI) — 공식 시설 목록 아님"}},{"type":"Feature","geometry":{"type":"Point","coordinates":[129.2139834000945,35.859489201320066]},"properties":{"name":"황성공원","kind":"공원","category":"공원 > 근린공원","addr":"경상북도 경주시 황성공원로 30","lbl":"황성공원","source":"V-World 장소검색 (2026-09-21, T2 POI) — 공식 시설 목록 아님"}},{"type":"Feature","geometry":{"type":"Point","coordinates":[129.22060964348103,35.87784617653426]},"properties":{"name":"형산강체육공원","kind":"공원","category":"공원 > 체육공원","addr":"경상북도 경주시 황성동 1070","lbl":"형산강체육공원","source":"V-World 장소검색 (2026-09-21, T2 POI) — 공식 시설 목록 아님"}},{"type":"Feature","geometry":{"type":"Point","coordinates":[129.21965560012376,35.88338470059137]},"properties":{"name":"현진어린이공원","kind":"공원","category":"공원 > 어린이공원","addr":"경상북도 경주시 황성동 1164","lbl":"현진어린이공원","source":"V-World 장소검색 (2026-09-21, T2 POI) — 공식 시설 목록 아님"}},{"type":"Feature","geometry":{"type":"Point","coordinates":[129.2194727155156,35.88344534350254]},"properties":{"name":"현진에버빌공원","kind":"공원","category":"공원 > 어린이공원","addr":"경상북도 경주시 황성동 1164","lbl":"현진에버빌공원","source":"V-World 장소검색 (2026-09-21, T2 POI) — 공식 시설 목록 아님"}},{"type":"Feature","geometry":{"type":"Point","coordinates":[129.22301429952753,35.88373340100738]},"properties":{"name":"1호어린이공원","kind":"공원","category":"공원 > 어린이공원","addr":"경상북도 경주시 황성동 1241","lbl":"1호어린이공원","source":"V-World 장소검색 (2026-09-21, T2 POI) — 공식 시설 목록 아님"}},{"type":"Feature","geometry":{"type":"Point","coordinates":[129.2186008995772,35.867132100683904]},"properties":{"name":"용황어린이공원","kind":"공원","category":"공원 > 어린이공원","addr":"경상북도 경주시 황성동 280-1","lbl":"용황어린이공원","source":"V-World 장소검색 (2026-09-21, T2 POI) — 공식 시설 목록 아님"}},{"type":"Feature","geometry":{"type":"Point","coordinates":[129.21525670051466,35.8641357005203]},"properties":{"name":"황성어린이공원","kind":"공원","category":"공원 > 어린이공원","addr":"경상북도 경주시 황성동 477-5","lbl":"황성어린이공원","source":"V-World 장소검색 (2026-09-21, T2 POI) — 공식 시설 목록 아님"}},{"type":"Feature","geometry":{"type":"Point","coordinates":[129.2152762186123,35.864101726898575]},"properties":{"name":"횡성어린이공원","kind":"공원","category":"공원 > 어린이공원","addr":"경상북도 경주시 황성동 477-5","lbl":"횡성어린이공원","source":"V-World 장소검색 (2026-09-21, T2 POI) — 공식 시설 목록 아님"}},{"type":"Feature","geometry":{"type":"Point","coordinates":[129.208478902903,35.86226780021092]},"properties":{"name":"황성문화공원","kind":"공원","category":"공원 > 문화공원","addr":"경상북도 경주시 황성동 962","lbl":"황성문화공원","source":"V-World 장소검색 (2026-09-21, T2 POI) — 공식 시설 목록 아님"}},{"type":"Feature","geometry":{"type":"Point","coordinates":[129.22928010518785,35.84359814687122]},"properties":{"name":"화랑공원","kind":"공원","category":"공원 > 소공원","addr":"경상북도 경주시 구황동 883-14","lbl":"화랑공원","source":"V-World 장소검색 (2026-09-21, T2 POI) — 공식 시설 목록 아님"}},{"type":"Feature","geometry":{"type":"Point","coordinates":[129.27937147406982,35.84835195482442]},"properties":{"name":"목월공원","kind":"공원","category":"공원 > 기타공원","addr":"경상북도 경주시 신평동 611-1 원","lbl":"목월공원","source":"V-World 장소검색 (2026-09-21, T2 POI) — 공식 시설 목록 아님"}},{"type":"Feature","geometry":{"type":"Point","coordinates":[129.21503069985104,35.87180090048046]},"properties":{"name":"황성2공원","kind":"공원","category":"공원 > 소공원","addr":"경상북도 경주시 황성동 1073-6","lbl":"황성2공원","source":"V-World 장소검색 (2026-09-21, T2 POI) — 공식 시설 목록 아님"}},{"type":"Feature","geometry":{"type":"Point","coordinates":[129.21381279649086,35.872566564076784]},"properties":{"name":"황성1공원","kind":"공원","category":"공원 > 소공원","addr":"경상북도 경주시 황성동 1074-3","lbl":"황성1공원","source":"V-World 장소검색 (2026-09-21, T2 POI) — 공식 시설 목록 아님"}},{"type":"Feature","geometry":{"type":"Point","coordinates":[129.20728213948675,35.86355018968915]},"properties":{"name":"한중우호의숲","kind":"공원","category":"공원 > 기타공원","addr":"경상북도 경주시 황성동 990-1전","lbl":"한중우호의숲","source":"V-World 장소검색 (2026-09-21, T2 POI) — 공식 시설 목록 아님"}}]}