{"type":"FeatureCollection","features":[{"type":"Feature","geometry":{"type":"Polygon","coordinates":[[[129.2152230447393,35.84409985426536],[129.21411617957574,35.84411565232343],[129.21413557684494,35.84501686550292],[129.21415497497537,35.84591807853786],[129.21417437396707,35.846819291428254],[129.21419377382006,35.8477205041741],[129.21421317453442,35.848621716775384],[129.21532010225621,35.84860591611554],[129.21642702911606,35.848590105264975],[129.21753395511342,35.84857428422371],[129.21864088024768,35.84855845299176],[129.21862142948257,35.847657242473986],[129.218601979581,35.84675603181163],[129.21858253054293,35.84585482100465],[129.2185630823684,35.84495361005308],[129.2185436350573,35.84405239895691],[129.21852418860962,35.84315118771614],[129.2185047430253,35.842249976330805],[129.21848529830433,35.84134876480084],[129.21846585444666,35.84044755312632],[129.21735904190612,35.84046337966625],[129.2162522285029,35.84047919601852],[129.21514541423753,35.84049500218312],[129.21516482057046,35.8413962154205],[129.21518422776506,35.84229742851334],[129.21520363582135,35.84319864146163],[129.2152230447393,35.84409985426536]]]},"properties":{"id":"A_hwango_grid32","name":"황오동 원도심 활성화구역","short":"A 황오동","area_ha":32.0,"footfall_avg":22874,"footfall_2606":22092,"per_ha":714.7,"pct_18_23":21.4,"pct_23_05":4.9,"weekend_ratio":0.74,"pct_60plus":38.5,"resident":1040,"worker":3974,"ff_per_rw":4.6,"life_stores":137,"tour_stores":49,"life_share":73.7,"life_chg":4,"tour_chg":1,"lbl":"A 황오동\n714/ha","source":"소상공인365 2025.06~2026.06 (T2)"}},{"type":"Feature","geometry":{"type":"Polygon","coordinates":[[[129.21904763873815,35.84989593523783],[129.2195803365482,35.84989531040323],[129.22240089059576,35.847786522021636],[129.22224104372947,35.8452213235646],[129.2222148263172,35.84439747691104],[129.2215788100415,35.844398236502336],[129.22155174342447,35.84354747165189],[129.2220486258369,35.84354687863952],[129.22200634210748,35.84221802660897],[129.22206596700136,35.84221795533393],[129.2220507544078,35.84173986812007],[129.2212358857245,35.84174083953135],[129.22120312707332,35.840710978663616],[129.21857362349238,35.84071407483648],[129.21864123012887,35.84170775612989],[129.21886564293297,35.842919413104376],[129.22056645215216,35.84291741277453],[129.22073548274955,35.84630249550733],[129.22057625556653,35.84754921577343],[129.2206134378252,35.84871831391065],[129.2190960547377,35.84872010052069],[129.21904763873815,35.84989593523783]]]},"properties":{"id":"B_haengbok_hwangchon_digitized","name":"행복황촌 활성화구역(근사)","short":"B 행복황촌","area_ha":16.4,"footfall_avg":1321,"footfall_2606":1291,"per_ha":80.3,"pct_18_23":23.1,"pct_23_05":4.4,"weekend_ratio":1.15,"pct_60plus":36.6,"resident":1220,"worker":573,"ff_per_rw":0.7,"life_stores":15,"tour_stores":29,"life_share":34.1,"life_chg":0,"tour_chg":7,"lbl":"B 행복황촌\n80/ha","source":"소상공인365 2025.06~2026.06 (T2)"}},{"type":"Feature","geometry":{"type":"Polygon","coordinates":[[[129.21410680983226,35.843408218607244],[129.21412042729477,35.845070947145466],[129.21423157689634,35.845529645821294],[129.21423651306063,35.84643238136222],[129.21430484451093,35.84696561328173],[129.21453067019127,35.847718190932994],[129.21489640985723,35.84865179140033],[129.21491277601658,35.84900911086575],[129.21511841591683,35.84998407560291],[129.21567078491006,35.851209500255855],[129.21599435436877,35.851674482804306],[129.2164088795332,35.85206694539204],[129.21690767595223,35.85238790505213],[129.2174724626297,35.85262559798684],[129.21839761633836,35.852807870363115],[129.21921593350706,35.85280633970043],[129.21984077673497,35.85270624288686],[129.22047505465335,35.8524919661577],[129.2210359430915,35.85219034513421],[129.22138898717535,35.851934263018364],[129.22179177048884,35.85153754010058],[129.22210753923386,35.851061859529736],[129.2223036422161,35.85055404574571],[129.2228948053002,35.850160354653745],[129.2234772448517,35.8495091825204],[129.2237945811149,35.848768925075404],[129.22385450171527,35.84824747693488],[129.2238047641671,35.84560833994498],[129.223745225419,35.84416998379797],[129.22366998232903,35.84364738726904],[129.22347184952415,35.84314655231128],[129.22315833278918,35.842686446261396],[129.2227413071024,35.84228449368882],[129.2220871936219,35.84188493948401],[129.22204357491952,35.84140677888167],[129.22189392632268,35.840906958766865],[129.22145935573067,35.84022282065968],[129.2210448728791,35.83983453282474],[129.2205475725077,35.83951719679838],[129.2196863839878,35.839198550830005],[129.21906573913824,35.839102238870844],[129.2181594875278,35.839106205241585],[129.21748475845544,35.83917362007059],[129.21659562230292,35.83944631270546],[129.2160716582834,35.83973786578262],[129.21562537942225,35.84010525808634],[129.21512761763861,35.84076589631611],[129.214903777997,35.84123497270054],[129.21447193159992,35.84241234850552],[129.21423241030587,35.84288814830636],[129.21410680983226,35.843408218607244]]]},"properties":{"id":"C_zone_buffer300","name":"구역+300m","short":"C 구역+300m","area_ha":106.7,"footfall_avg":37327,"footfall_2606":36347,"per_ha":350.0,"pct_18_23":21.9,"pct_23_05":4.9,"weekend_ratio":0.72,"pct_60plus":38.1,"resident":3808,"worker":6110,"ff_per_rw":3.8,"life_stores":185,"tour_stores":112,"life_share":62.3,"life_chg":6,"tour_chg":14,"lbl":"C 구역+300m\n350/ha","source":"소상공인365 2025.06~2026.06 (T2)"}},{"type":"Feature","geometry":{"type":"Polygon","coordinates":[[[129.21870812024798,35.850115958265846],[129.21844619543845,35.849527176478176],[129.21840973896886,35.84935252081853],[129.21833769519557,35.84932010550136],[129.21828955901856,35.84874463832645],[129.21821760031753,35.84874305606377],[129.2182249673188,35.84834220996413],[129.21847464180485,35.84832462668203],[129.21847658424656,35.84826124361532],[129.2182332071805,35.848259972900024],[129.2179519081934,35.84754789185579],[129.21784081318853,35.847164390106606],[129.21775801710876,35.847068614369206],[129.21771110848073,35.8469402273042],[129.21760636420584,35.84655671379014],[129.21760390637743,35.84643167209132],[129.21755731650313,35.84641976572189],[129.21754667339408,35.844847286608086],[129.2175190225953,35.844795947818774],[129.21742378938978,35.84479440720038],[129.21741480570986,35.84460428473085],[129.21741224857163,35.84366729934421],[129.21753706924474,35.84365508272405],[129.21753660618256,35.84348550034513],[129.21762913675096,35.84327292554146],[129.21766299045618,35.843271151266585],[129.21766478367908,35.843152953648364],[129.21779926169413,35.842803265759514],[129.21781611117123,35.8427741148666],[129.21788382283214,35.84277227915667],[129.217883401209,35.84261811333872],[129.2180138748123,35.84235236758634],[129.2180974881668,35.84197536419187],[129.21817980085066,35.8418964185161],[129.21819862067872,35.84181416215844],[129.21854984328795,35.84179468135084],[129.21875722203546,35.841794304031474],[129.21878999461262,35.84294021600646],[129.21882182610724,35.84297270432535],[129.2190251027865,35.843018583979266],[129.21911650677853,35.843167445035306],[129.21941649684942,35.843752730593195],[129.21944741127123,35.84422031266108],[129.22042509309102,35.84422194923618],[129.22052514215008,35.84672782782301],[129.2205255499806,35.8468751416999],[129.22044523698568,35.84691297419597],[129.22044558304415,35.847038019693166],[129.22052815942408,35.84705328482528],[129.22053360965504,35.84825748606544],[129.22046601193108,35.848302147074],[129.220368681902,35.84830917744623],[129.21909474102506,35.84833377543137],[129.21913769818696,35.84856323378642],[129.21912182815288,35.84894867878352],[129.21904316116485,35.84958604336915],[129.21895005265173,35.84958963897825],[129.2190544918101,35.84985838335104],[129.21905487341172,35.849997132409015],[129.21889012468904,35.85011562686222],[129.21870812024798,35.850115958265846]]]},"properties":{"id":"D_zone","name":"지구단위계획구역","short":"D 구역","area_ha":15.9,"footfall_avg":1259,"footfall_2606":1194,"per_ha":79.3,"pct_18_23":19.5,"pct_23_05":3.7,"weekend_ratio":0.62,"pct_60plus":40.1,"resident":27,"worker":117,"ff_per_rw":8.7,"life_stores":1,"tour_stores":2,"life_share":33.3,"life_chg":0,"tour_chg":0,"lbl":"D 구역\n79/ha","source":"소상공인365 2025.06~2026.06 (T2)"}},{"type":"Feature","geometry":{"type":"Polygon","coordinates":[[[129.2222398057733,35.84583060439393],[129.22222307589206,35.845565620064605],[129.22217452628456,35.845303246797044],[129.22209462481368,35.845046011350505],[129.2219841412535,35.84479639098121],[129.22184413986523,35.84455678958737],[129.22167596913843,35.84432951456156],[129.22148124879652,35.84411675457298],[129.2212618541925,35.84392055849385],[129.22101989824475,35.84374281567236],[129.22075771108723,35.84358523774202],[129.22047781763058,35.84344934214268],[129.22018291324937,35.84333643751136],[129.21987583783,35.843247611083676],[129.21955954842895,35.84318371822694],[129.21923709080414,35.843145374205555],[129.21891157009364,35.84313294825793],[129.2185861209229,35.8431465600419],[129.21826387722913,35.84318607848273],[129.21794794209163,35.843251123034946],[129.21764135785924,35.84334106734567],[129.21734707686159,35.84345504528435],[129.21706793298588,35.84359195928102],[129.21680661439274,35.843750490892475],[129.21656563763332,35.84392911349539],[129.21634732341715,35.844126106983836],[129.2161537742634,35.84433957432978],[129.21598685425116,35.844567459847795],[129.2158481710638,35.844807568987704],[129.2157390605002,35.845057589464936],[129.21566057360235,35.84531511352541],[129.21561346652388,35.845577661130406],[129.21559819323693,35.84584270383848],[129.2156149011485,35.84610768915435],[129.21566342966867,35.84637006511038],[129.2157433117449,35.846627304844],[129.2158537783484,35.846876930934215],[129.21599376586963,35.847116539262984],[129.21616192635202,35.847343822171254],[129.21635664046573,35.84755659068686],[129.2165760330971,35.847752795609885],[129.21681799140367,35.847930547252325],[129.21708018516074,35.84808813364165],[129.21736008920402,35.84822403701296],[129.2176550077522,35.84833694843055],[129.21796210037442,35.84842578039799],[129.21827840935308,35.8484896773351],[129.21860088817786,35.84852802382068],[129.21892643089615,35.8485404505216],[129.21925190203652,35.848526837751095],[129.21957416681767,35.84848731662179],[129.21989012134983,35.84842226778251],[129.22019672253887,35.84833231775086],[129.22049101740356,35.848218332877224],[129.2207701715237,35.84808141099813],[129.22103149634506,35.847922870859655],[129.22127247507706,35.8477442394128],[129.22149078693442,35.84754723710342],[129.22168432948865,35.84733376129848],[129.22185123891424,35.8471058680085],[129.2219899079346,35.846865752082344],[129.22209900129542,35.846615726065345],[129.22217746861566,35.846358197924495],[129.2222245544941,35.846095647855314],[129.2222398057733,35.84583060439393]]]},"properties":{"id":"E_center_r300","name":"구역 중심 300m","short":"E 중심300m","area_ha":28.2,"footfall_avg":11032,"footfall_2606":10799,"per_ha":390.2,"pct_18_23":21.7,"pct_23_05":4.8,"weekend_ratio":0.67,"pct_60plus":38.4,"resident":953,"worker":1875,"ff_per_rw":3.9,"life_stores":67,"tour_stores":19,"life_share":77.9,"life_chg":1,"tour_chg":2,"lbl":"E 중심300m\n390/ha","source":"소상공인365 2025.06~2026.06 (T2)"}},{"type":"Feature","geometry":{"type":"Polygon","coordinates":[[[129.23031705762222,35.856206176424735],[129.2302891258222,35.85576453868282],[129.23020815506283,35.855327256260225],[129.23007492598055,35.85489854031793],[129.2298907224201,35.85448251945309],[129.22965731904068,35.854083199944974],[129.229376964199,35.85370442718113],[129.22905235827494,35.85334984863489],[129.2286866276498,35.85302287875028],[129.22828329458798,35.85272666607222],[129.22784624331257,35.85246406293786],[129.22737968260188,35.85223759802063],[129.22688810526677,35.852049451990645],[129.2263762448986,35.8519014365257],[129.22584903030418,35.85179497687415],[129.2253115380648,35.85173109813758],[129.22476894367637,35.851710415404675],[129.22422647173897,35.85173312783146],[129.22368934567498,35.851799016724456],[129.22316273745844,35.851907447645225],[129.22265171783843,35.85205737651631],[129.22216120753495,35.85224735966963],[129.22169592987564,35.85247556774101],[129.2212603653289,35.85273980327734],[129.22085870837032,35.85303752188707],[129.22049482709704,35.85336585673102],[129.220172225979,35.85372164611806],[129.2198940121055,35.854101463940275],[129.21966286525168,35.85450165265535],[129.219481012055,35.85491835849869],[129.21935020454956,35.85534756858683],[129.2192717032665,35.85578514955527],[129.21924626506438,35.85622688735865],[129.2192741358078,35.85666852785059],[129.21935504796545,35.85710581775226],[129.21948822315295,35.85753454561523],[129.2196723795967,35.857950582384255],[129.2199057444481,35.858349921168916],[129.22018607083118,35.85872871584085],[129.22051065945962,35.859083318084785],[129.2208763846168,35.859410312546025],[129.22127972424846,35.85970654973521],[129.221716793879,35.859969176373205],[129.2221833840248,35.86019566288336],[129.22267500074375,35.86038382776576],[129.22318690893104,35.860531858618124],[129.22371417794218,35.86063832960075],[129.22425172910468,35.86070221517665],[129.22479438465825,35.86072289999426],[129.22533691765224,35.860700184817446],[129.22587410231796,35.8606342884454],[129.22640076442931,35.86052584560393],[129.22691183116603,35.86037590082865],[129.2274023799975,35.860185898398804],[129.22786768611542,35.859957668419334],[129.22830326795778,35.85969340918531],[129.2287049303843,35.859395665998946],[129.2290688050878,35.859067306643865],[129.22939138785063,35.8587114937532],[129.2296695722891,35.85833165433804],[129.22990067975906,35.85793144677054],[129.23008248513656,35.85751472553981],[129.2302132382253,35.857085504120576],[129.23029168058528,35.85664791631282],[129.23031705762222,35.856206176424735]]]},"properties":{"id":"F_cityhall_r500","name":"동천동 시청 500m","short":"F 시청500m","area_ha":78.4,"footfall_avg":46775,"footfall_2606":48465,"per_ha":595.6,"pct_18_23":27.2,"pct_23_05":6.1,"weekend_ratio":0.88,"pct_60plus":32.2,"resident":9145,"worker":8374,"ff_per_rw":2.7,"life_stores":169,"tour_stores":46,"life_share":78.6,"life_chg":10,"tour_chg":-3,"lbl":"F 시청500m\n595/ha","source":"소상공인365 2025.06~2026.06 (T2)"}},{"type":"Feature","geometry":{"type":"Polygon","coordinates":[[[129.2185686837647,35.84533970374798],[129.21855753871148,35.84516304714599],[129.21852518048206,35.84498813060999],[129.21847192083882,35.84481663866464],[129.21839827282537,35.84465022284366],[129.2183049458208,35.8444904857858],[129.21819283870397,35.844338965801846],[129.21806303119325,35.84419712206165],[129.21791677344578,35.844066320543405],[129.21775547401623,35.84394782088064],[129.2175806862912,35.843842764233436],[129.21739409352983,35.8437521623006],[129.21719749265463,35.843676887578546],[129.2169927769489,35.843617664960576],[129.2167819178267,35.84357506475742],[129.21656694585133,35.84354949720618],[129.21634993118482,35.84354120852063],[129.21613296365626,35.843550278520446],[129.2159181326409,35.84357661986293],[129.21570750694397,35.84361997888372],[129.21550311488193,35.84367993803919],[129.21530692475358,35.84375591992647],[129.2151208258883,35.84384719284282],[129.21494661045435,35.84395287783061],[129.21478595620172,35.844071957140194],[129.21464041030606,35.84420328402929],[129.21451137446894,35.844345593804654],[129.21440009141824,35.84449751599945],[129.21430763293827,35.84465758756966],[129.21423488954537,35.84482426698197],[129.2141825619083,35.844995949058024],[129.214151154096,35.84517098043167],[129.21414096871857,35.8453476754709],[129.21415210400764,35.845524332510735],[129.2141844528648,35.845699250241005],[129.21423770388793,35.845870744091165],[129.21431134436463,35.846037162454245],[129.21440466520545,35.846196902593874],[129.2145167677684,35.846348426080766],[129.21464657251013,35.84649027361052],[129.21479282937992,35.84662107905927],[129.21495412985678,35.84673958264244],[129.2151289205139,35.846844643049316],[129.21531551797946,35.84693524843658],[129.21551212515016,35.84701052617509],[129.2157168485008,35.847069751255596],[129.21592771632348,35.84711235327278],[129.21614269772053,35.84713792191976],[129.2163597221679,35.84714621094073],[129.21657669946063,35.84713714050306],[129.21679153984823,35.8471107979663],[129.2170021741653,35.8470674370407],[129.2172065737641,35.847007475343126],[129.21740277005622,35.84693149037409],[129.21758887347536,35.84684021395476],[129.21776309167828,35.84673452517743],[129.2179237468086,35.84661544193736],[129.21806929165695,35.84648411112785],[129.21819832456197,35.84634179759283],[129.2183096029085,35.8461898719436],[129.21840205509295,35.84602979735694],[129.218474790841,35.845863115482075],[129.2185271097776,35.84569143159203],[129.21855850816817,35.845516399122616],[129.2185686837647,35.84533970374798]]]},"properties":{"id":"G_seongdong_market_r200","name":"성동시장 200m","short":"G 성동시장","area_ha":12.5,"footfall_avg":14761,"footfall_2606":14331,"per_ha":1174.6,"pct_18_23":21.2,"pct_23_05":5.0,"weekend_ratio":0.68,"pct_60plus":39.1,"resident":219,"worker":2658,"ff_per_rw":5.1,"life_stores":72,"tour_stores":10,"life_share":87.8,"life_chg":0,"tour_chg":1,"lbl":"G 성동시장\n1,174/ha","source":"소상공인365 2025.06~2026.06 (T2)"}},{"type":"Feature","geometry":{"type":"Polygon","coordinates":[[[129.21312049781824,35.838394157438884],[129.2131037999513,35.83812917140167],[129.21305528501495,35.837866794005656],[129.21297542053796,35.83760955204995],[129.21286497593817,35.83735992285352],[129.2127250151015,35.83712031039971],[129.21255688612703,35.83689302218761],[129.21236220833615,35.83668024701351],[129.2121428566721,35.83648403389597],[129.21190094363982,35.83630627234725],[129.21163879896014,35.83614867418126],[129.21135894713476,35.83601275703274],[129.21106408313747,35.83589982974625],[129.2107570464659,35.83581097977556],[129.2104407938035,35.835747062714695],[129.21011837055465,35.83570869406108],[129.20979288152637,35.83569624329033],[129.20946746103925,35.83570983029924],[129.20914524275423,35.835749324251616],[129.20882932950607,35.835814344837736],[129.20852276343285,35.835904265935454],[129.2082284966893,35.83601822163771],[129.20794936302534,35.83615511458858],[129.20768805050318,35.8363136265475],[129.2074470756155,35.83649223108038],[129.20722875905366,35.8366892082552],[129.20703520335923,35.836902661201094],[129.20686827267426,35.83713053437127],[129.20672957478465,35.837370633334444],[129.20662044563073,35.837620645904096],[129.2065419364334,35.83787816440233],[129.20649480356087,35.838140708844044],[129.20647950123353,35.838405750818296],[129.20649617713795,35.83867073783696],[129.20654467099232,35.838933117916056],[129.20662451607785,35.839190364153396],[129.20673494372204,35.83943999906543],[129.2068748906905,35.839679618449225],[129.2070430094172,35.839906914539334],[129.2072376809744,35.84011969823673],[129.20745703065853,35.84031592019533],[129.20769894604072,35.84049369056307],[129.2079610973098,35.840651297187165],[129.2082409597109,35.840787222107835],[129.2085358378638,35.840900156181824],[129.20884289172682,35.84098901169453],[129.2091591639559,35.841052932838956],[129.20948160839467,35.84109130396073],[129.20980711942187,35.841103755489435],[129.2101325618715,35.841090167499075],[129.21045480123854,35.841050670863616],[129.2107707338781,35.84098564599587],[129.21107731690694,35.840895719182534],[129.21137159751868,35.8407817565503],[129.21165074143047,35.84064485572143],[129.21191206018625,35.84048633523919],[129.21215303705387,35.84030772186528],[129.21237135126583,35.84011073587141],[129.2125649003708,35.83989727446742],[129.2127318204801,35.8396693935251],[129.2128705042141,35.83942928777442],[129.21297961617657,35.83917926966276],[129.21305810580722,35.83892174708097],[129.2131052174898,35.83865920017109],[129.21312049781824,35.838394157438884]]]},"properties":{"id":"H_hwangridan_r300","name":"황리단길 300m","short":"H 황리단길","area_ha":28.2,"footfall_avg":21403,"footfall_2606":17366,"per_ha":757.0,"pct_18_23":21.0,"pct_23_05":5.5,"weekend_ratio":1.72,"pct_60plus":36.5,"resident":460,"worker":1061,"ff_per_rw":14.1,"life_stores":58,"tour_stores":82,"life_share":41.4,"life_chg":8,"tour_chg":-7,"lbl":"H 황리단길\n757/ha","source":"소상공인365 2025.06~2026.06 (T2)"}}]}