{"type":"FeatureCollection","features":[{"type":"Feature","geometry":{"type":"Point","coordinates":[129.182539183687,35.8418721722542]},"properties":{"bizesId":"MA010120220804986817","bizesNm":"경북다문화공동체하나협동조합","indsLclsCd":"P1","indsLclsNm":"교육","indsMclsNm":"기타 교육","indsSclsNm":"그 외 기타 교육기관","ldongNm":"충효동","lnoAdr":"경상북도 경주시 충효동 165","rdnmAdr":"경상북도 경주시 태종로 478-20","bldNm":"서라벌대학교","flrNo":"","src":"소진공","fr_cat":"지원시설","fr_kw":"다문화","fr_basis":"상호"}},{"type":"Feature","geometry":{"type":"Point","coordinates":[129.203248660241,35.8424311781655]},"properties":{"bizesId":"MA010120220804818116","bizesNm":"태국전통마사지샵뉴풋샵","indsLclsCd":"S2","indsLclsNm":"수리·개인","indsMclsNm":"욕탕·신체관리","indsSclsNm":"마사지/안마","ldongNm":"성건동","lnoAdr":"경상북도 경주시 성건동 374-24","rdnmAdr":"경상북도 경주시 원효로 23","bldNm":"","flrNo":"2","src":"소진공","fr_cat":"동남아","fr_kw":"태국","fr_basis":"상호"}},{"type":"Feature","geometry":{"type":"Point","coordinates":[129.205497708436,35.8557073491201]},"properties":{"bizesId":"MA010120220802131755","bizesNm":"타이빙백","indsLclsCd":"G2","indsLclsNm":"소매","indsMclsNm":"기타 상품 소매","indsSclsNm":"그 외 기타 상품 전문 소매업","ldongNm":"성건동","lnoAdr":"경상북도 경주시 성건동 620-476","rdnmAdr":"경상북도 경주시 동대로14번길 2","bldNm":"","flrNo":"","src":"소진공","fr_cat":"동남아","fr_kw":"타이","fr_basis":"상호"}},{"type":"Feature","geometry":{"type":"Point","coordinates":[129.20559460821,35.8552099952396]},"properties":{"bizesId":"MA010120220804471317","bizesNm":"러시아빵집","indsLclsCd":"I2","indsLclsNm":"음식","indsMclsNm":"기타 간이","indsSclsNm":"빵/도넛","ldongNm":"성건동","lnoAdr":"경상북도 경주시 성건동 680-1","rdnmAdr":"경상북도 경주시 한빛길10번길 53","bldNm":"","flrNo":"","src":"소진공","fr_cat":"중앙아시아·고려인","fr_kw":"러시아","fr_basis":"상호"}},{"type":"Feature","geometry":{"type":"Point","coordinates":[129.20559460821,35.8552099952396]},"properties":{"bizesId":"MA010120220802281845","bizesNm":"도너우스페흐","indsLclsCd":"I2","indsLclsNm":"음식","indsMclsNm":"동남아시아","indsSclsNm":"베트남식 전문","ldongNm":"성건동","lnoAdr":"경상북도 경주시 성건동 680-1","rdnmAdr":"경상북도 경주시 한빛길10번길 53","bldNm":"","flrNo":"1","src":"소진공","fr_cat":"외국 음식 업종","fr_kw":"베트남식 전문","fr_basis":"업종"}},{"type":"Feature","geometry":{"type":"Point","coordinates":[129.206490921031,35.8552025413944]},"properties":{"bizesId":"MA010120220804435180","bizesNm":"연연양꼬치","indsLclsCd":"I2","indsLclsNm":"음식","indsMclsNm":"중식","indsSclsNm":"중국집","ldongNm":"성건동","lnoAdr":"경상북도 경주시 성건동 682-4","rdnmAdr":"경상북도 경주시 동대로 3","bldNm":"","flrNo":"1","src":"소진공","fr_cat":"중국·기타","fr_kw":"양꼬치","fr_basis":"상호"}},{"type":"Feature","geometry":{"type":"Point","coordinates":[129.206236643025,35.8432323260394]},"properties":{"bizesId":"MA010120220803098857","bizesNm":"꼴로스","indsLclsCd":"I2","indsLclsNm":"음식","indsMclsNm":"동남아시아","indsSclsNm":"베트남식 전문","ldongNm":"성건동","lnoAdr":"경상북도 경주시 성건동 342-38","rdnmAdr":"경상북도 경주시 원효로51번길 11","bldNm":"예림빌리지","flrNo":"","src":"소진공","fr_cat":"외국 음식 업종","fr_kw":"베트남식 전문","fr_basis":"업종"}},{"type":"Feature","geometry":{"type":"Point","coordinates":[129.207602410121,35.8366115763064]},"properties":{"bizesId":"MA010120220805203314","bizesNm":"발리단길","indsLclsCd":"I2","indsLclsNm":"음식","indsMclsNm":"동남아시아","indsSclsNm":"베트남식 전문","ldongNm":"사정동","lnoAdr":"경상북도 경주시 사정동 75-1","rdnmAdr":"경상북도 경주시 첨성로49번길 41","bldNm":"","flrNo":"1","src":"소진공","fr_cat":"외국 음식 업종","fr_kw":"베트남식 전문","fr_basis":"업종"}},{"type":"Feature","geometry":{"type":"Point","coordinates":[129.215708306521,35.8447789703935]},"properties":{"bizesId":"MA010120220800161971","bizesNm":"연정쌀국수","indsLclsCd":"I2","indsLclsNm":"음식","indsMclsNm":"동남아시아","indsSclsNm":"베트남식 전문","ldongNm":"성동동","lnoAdr":"경상북도 경주시 성동동 399-80","rdnmAdr":"경상북도 경주시 화랑로 135","bldNm":"","flrNo":"","src":"소진공","fr_cat":"외국 음식 업종","fr_kw":"베트남식 전문","fr_basis":"업종"}},{"type":"Feature","geometry":{"type":"Point","coordinates":[129.224009522073,35.8840280086318]},"properties":{"bizesId":"MA010120220802866797","bizesNm":"포메인경주점","indsLclsCd":"I2","indsLclsNm":"음식","indsMclsNm":"동남아시아","indsSclsNm":"베트남식 전문","ldongNm":"황성동","lnoAdr":"경상북도 경주시 황성동 1244","rdnmAdr":"경상북도 경주시 광중길 67","bldNm":"","flrNo":"1","src":"소진공","fr_cat":"외국 음식 업종","fr_kw":"베트남식 전문","fr_basis":"업종"}},{"type":"Feature","geometry":{"type":"Point","coordinates":[129.18622256547,35.8426161324868]},"properties":{"bizesId":"MA010120220806519855","bizesNm":"제이비아시아마트","indsLclsCd":"G2","indsLclsNm":"소매","indsMclsNm":"종합 소매","indsSclsNm":"슈퍼마켓","ldongNm":"충효동","lnoAdr":"경상북도 경주시 충효동 2991-8","rdnmAdr":"경상북도 경주시 충효녹지길 44-15","bldNm":"","flrNo":"1","src":"소진공","fr_cat":"중국·기타","fr_kw":"아시아마트","fr_basis":"상호"}},{"type":"Feature","geometry":{"type":"Point","coordinates":[129.204795003359,35.8487191337632]},"properties":{"bizesId":"MA010120220805416817","bizesNm":"러시아어과외교습소","indsLclsCd":"P1","indsLclsNm":"교육","indsMclsNm":"기타 교육","indsSclsNm":"외국어학원","ldongNm":"성건동","lnoAdr":"경상북도 경주시 성건동 488-6","rdnmAdr":"경상북도 경주시 북성로29번길 13","bldNm":"","flrNo":"","src":"소진공","fr_cat":"중앙아시아·고려인","fr_kw":"러시아","fr_basis":"상호"}},{"type":"Feature","geometry":{"type":"Point","coordinates":[129.205105535659,35.8531375633708]},"properties":{"bizesId":"MA010120220805510574","bizesNm":"마시소","indsLclsCd":"I2","indsLclsNm":"음식","indsMclsNm":"동남아시아","indsSclsNm":"베트남식 전문","ldongNm":"성건동","lnoAdr":"경상북도 경주시 성건동 694-7","rdnmAdr":"경상북도 경주시 금성로395번길 16","bldNm":"","flrNo":"1","src":"소진공","fr_cat":"외국 음식 업종","fr_kw":"베트남식 전문","fr_basis":"업종"}},{"type":"Feature","geometry":{"type":"Point","coordinates":[129.206441350633,35.8554106922642]},"properties":{"bizesId":"MA010120220806160231","bizesNm":"글로벌마트","indsLclsCd":"G2","indsLclsNm":"소매","indsMclsNm":"종합 소매","indsSclsNm":"슈퍼마켓","ldongNm":"성건동","lnoAdr":"경상북도 경주시 성건동 620-431","rdnmAdr":"경상북도 경주시 동대로 4","bldNm":"","flrNo":"","src":"소진공","fr_cat":"중국·기타","fr_kw":"글로벌마트","fr_basis":"상호"}},{"type":"Feature","geometry":{"type":"Point","coordinates":[129.206743536349,35.8439528612304]},"properties":{"bizesId":"MA010120220808727023","bizesNm":"팟타이","indsLclsCd":"I2","indsLclsNm":"음식","indsMclsNm":"기타 간이","indsSclsNm":"그 외 기타 간이 음식점","ldongNm":"성건동","lnoAdr":"경상북도 경주시 성건동 339-2","rdnmAdr":"경상북도 경주시 금성로 295","bldNm":"야시장","flrNo":"","src":"소진공","fr_cat":"동남아","fr_kw":"타이","fr_basis":"상호"}},{"type":"Feature","geometry":{"type":"Point","coordinates":[129.206812911162,35.8452581024445]},"properties":{"bizesId":"MA010120220806498333","bizesNm":"러시아마트","indsLclsCd":"G2","indsLclsNm":"소매","indsMclsNm":"종합 소매","indsSclsNm":"슈퍼마켓","ldongNm":"성건동","lnoAdr":"경상북도 경주시 성건동 211-19","rdnmAdr":"경상북도 경주시 금성로 309","bldNm":"","flrNo":"","src":"소진공","fr_cat":"중앙아시아·고려인","fr_kw":"러시아","fr_basis":"상호"}},{"type":"Feature","geometry":{"type":"Point","coordinates":[129.215193171998,35.842571904125]},"properties":{"bizesId":"MA010120220806909770","bizesNm":"캄보디아식당","indsLclsCd":"I2","indsLclsNm":"음식","indsMclsNm":"동남아시아","indsSclsNm":"베트남식 전문","ldongNm":"황오동","lnoAdr":"경상북도 경주시 황오동 243-10","rdnmAdr":"경상북도 경주시 북정로 17-1","bldNm":"","flrNo":"","src":"소진공","fr_cat":"동남아","fr_kw":"캄보디아","fr_basis":"상호"}},{"type":"Feature","geometry":{"type":"Point","coordinates":[129.217608155927,35.8704686475194]},"properties":{"bizesId":"MA010120220809144558","bizesNm":"경포","indsLclsCd":"N1","indsLclsNm":"시설관리·임대","indsMclsNm":"시설관리","indsSclsNm":"사업시설 유지·관리 서비스업","ldongNm":"황성동","lnoAdr":"경상북도 경주시 황성동 110","rdnmAdr":"경상북도 경주시 유림로 53-8","bldNm":"","flrNo":"","src":"소진공","fr_cat":"동남아","fr_kw":"포","fr_basis":"상호"}},{"type":"Feature","geometry":{"type":"Point","coordinates":[129.232589415039,35.845727829587]},"properties":{"bizesId":"MA010120220809336423","bizesNm":"경주스타이벤트","indsLclsCd":"N1","indsLclsNm":"시설관리·임대","indsMclsNm":"기타 사업 서비스","indsSclsNm":"전시/컨벤션/행사 대행 서비스업","ldongNm":"동천동","lnoAdr":"경상북도 경주시 동천동 925-6","rdnmAdr":"경상북도 경주시 초당길31번길 9-1","bldNm":"","flrNo":"","src":"소진공","fr_cat":"동남아","fr_kw":"타이","fr_basis":"상호"}},{"type":"Feature","geometry":{"type":"Point","coordinates":[129.207928795906,35.855167104784]},"properties":{"bizesId":"MA010120220812952923","bizesNm":"부벳비스트로","indsLclsCd":"I2","indsLclsNm":"음식","indsMclsNm":"동남아시아","indsSclsNm":"베트남식 전문","ldongNm":"성건동","lnoAdr":"경상북도 경주시 성건동 620-700","rdnmAdr":"경상북도 경주시 공영주택길 11","bldNm":"","flrNo":"","src":"소진공","fr_cat":"외국 음식 업종","fr_kw":"베트남식 전문","fr_basis":"업종"}},{"type":"Feature","geometry":{"type":"Point","coordinates":[129.210074645031,35.8359804363361]},"properties":{"bizesId":"MA010120220812575825","bizesNm":"차오찹스","indsLclsCd":"I2","indsLclsNm":"음식","indsMclsNm":"동남아시아","indsSclsNm":"베트남식 전문","ldongNm":"황남동","lnoAdr":"경상북도 경주시 황남동 304-6","rdnmAdr":"경상북도 경주시 포석로 1064-6","bldNm":"","flrNo":"1","src":"소진공","fr_cat":"외국 음식 업종","fr_kw":"베트남식 전문","fr_basis":"업종"}},{"type":"Feature","geometry":{"type":"Point","coordinates":[129.211068528751,35.84268394384]},"properties":{"bizesId":"MA010120220809995577","bizesNm":"푸타이뷔페무카타","indsLclsCd":"I2","indsLclsNm":"음식","indsMclsNm":"구내식당·뷔페","indsSclsNm":"뷔페","ldongNm":"노동동","lnoAdr":"경상북도 경주시 노동동 120-7","rdnmAdr":"경상북도 경주시 중앙로29번길 6-1","bldNm":"","flrNo":"","src":"소진공","fr_cat":"동남아","fr_kw":"타이","fr_basis":"상호"}},{"type":"Feature","geometry":{"type":"Point","coordinates":[129.231446301809,35.8452174586062]},"properties":{"bizesId":"MA010120220809976723","bizesNm":"버터키토","indsLclsCd":"I2","indsLclsNm":"음식","indsMclsNm":"기타 간이","indsSclsNm":"김밥/만두/분식","ldongNm":"동천동","lnoAdr":"경상북도 경주시 동천동 921-4","rdnmAdr":"경상북도 경주시 초당길 28","bldNm":"","flrNo":"","src":"소진공","fr_cat":"할랄·이슬람","fr_kw":"터키","fr_basis":"상호"}},{"type":"Feature","geometry":{"type":"Point","coordinates":[129.20341633994,35.8392924604205]},"properties":{"bizesId":"MA010120220813194092","bizesNm":"본전막포","indsLclsCd":"I2","indsLclsNm":"음식","indsMclsNm":"주점","indsSclsNm":"요리 주점","ldongNm":"노서동","lnoAdr":"경상북도 경주시 노서동 241-21","rdnmAdr":"경상북도 경주시 태종로685번길 10-5","bldNm":"","flrNo":"","src":"소진공","fr_cat":"동남아","fr_kw":"포","fr_basis":"상호"}},{"type":"Feature","geometry":{"type":"Point","coordinates":[129.206576466913,35.8522996071294]},"properties":{"bizesId":"MA010120220813872216","bizesNm":"고려인태권도장","indsLclsCd":"P1","indsLclsNm":"교육","indsMclsNm":"기타 교육","indsSclsNm":"태권도/무술학원","ldongNm":"성건동","lnoAdr":"경상북도 경주시 성건동 698-7","rdnmAdr":"경상북도 경주시 금성로 387","bldNm":"","flrNo":"2","src":"소진공","fr_cat":"중앙아시아·고려인","fr_kw":"고려인","fr_basis":"상호"}},{"type":"Feature","geometry":{"type":"Point","coordinates":[129.206812911162,35.8452581024445]},"properties":{"bizesId":"MA0101202210A0046158","bizesNm":"러시아마트","indsLclsCd":"G2","indsLclsNm":"소매","indsMclsNm":"종합 소매","indsSclsNm":"슈퍼마켓","ldongNm":"성건동","lnoAdr":"경상북도 경주시 성건동 211-19","rdnmAdr":"경상북도 경주시 금성로 309","bldNm":"","flrNo":"","src":"소진공","fr_cat":"중앙아시아·고려인","fr_kw":"러시아","fr_basis":"상호"}},{"type":"Feature","geometry":{"type":"Point","coordinates":[129.207648236955,35.8550280954037]},"properties":{"bizesId":"MA010120220814372310","bizesNm":"아리랑양꼬치","indsLclsCd":"I2","indsLclsNm":"음식","indsMclsNm":"주점","indsSclsNm":"요리 주점","ldongNm":"성건동","lnoAdr":"경상북도 경주시 성건동 625-5","rdnmAdr":"경상북도 경주시 공영주택길 8","bldNm":"","flrNo":"","src":"소진공","fr_cat":"중국·기타","fr_kw":"양꼬치","fr_basis":"상호"}},{"type":"Feature","geometry":{"type":"Point","coordinates":[129.209128470431,35.8377729012573]},"properties":{"bizesId":"MA010120220813416665","bizesNm":"온천집","indsLclsCd":"I2","indsLclsNm":"음식","indsMclsNm":"동남아시아","indsSclsNm":"베트남식 전문","ldongNm":"사정동","lnoAdr":"경상북도 경주시 사정동 20-1","rdnmAdr":"경상북도 경주시 사정로57번길 13","bldNm":"","flrNo":"1","src":"소진공","fr_cat":"외국 음식 업종","fr_kw":"베트남식 전문","fr_basis":"업종"}},{"type":"Feature","geometry":{"type":"Point","coordinates":[129.209587063252,35.8371517552949]},"properties":{"bizesId":"MA0101202211A0099284","bizesNm":"촘촘경주황리단길점","indsLclsCd":"I2","indsLclsNm":"음식","indsMclsNm":"동남아시아","indsSclsNm":"베트남식 전문","ldongNm":"황남동","lnoAdr":"경상북도 경주시 황남동 289-1","rdnmAdr":"경상북도 경주시 포석로 1077","bldNm":"","flrNo":"","src":"소진공","fr_cat":"외국 음식 업종","fr_kw":"베트남식 전문","fr_basis":"업종"}},{"type":"Feature","geometry":{"type":"Point","coordinates":[129.214979182497,35.8659038430684]},"properties":{"bizesId":"MA010120220813291785","bizesNm":"영무무에타이킥복싱","indsLclsCd":"P1","indsLclsNm":"교육","indsMclsNm":"기타 교육","indsSclsNm":"태권도/무술학원","ldongNm":"황성동","lnoAdr":"경상북도 경주시 황성동 503-9","rdnmAdr":"경상북도 경주시 황성로 34-4","bldNm":"","flrNo":"2","src":"소진공","fr_cat":"동남아","fr_kw":"타이","fr_basis":"상호"}},{"type":"Feature","geometry":{"type":"Point","coordinates":[129.223370406596,35.8544317029452]},"properties":{"bizesId":"MA010120220813682897","bizesNm":"베트남노래","indsLclsCd":"I2","indsLclsNm":"음식","indsMclsNm":"주점","indsSclsNm":"일반 유흥 주점","ldongNm":"동천동","lnoAdr":"경상북도 경주시 동천동 799-7","rdnmAdr":"경상북도 경주시 양정로225번길 23","bldNm":"","flrNo":"1","src":"소진공","fr_cat":"동남아","fr_kw":"베트남","fr_basis":"상호"}},{"type":"Feature","geometry":{"type":"Point","coordinates":[129.223985112584,35.8542491234548]},"properties":{"bizesId":"MA0101202212A0073554","bizesNm":"베트남노래광장","indsLclsCd":"I2","indsLclsNm":"음식","indsMclsNm":"주점","indsSclsNm":"일반 유흥 주점","ldongNm":"동천동","lnoAdr":"경상북도 경주시 동천동 801-4","rdnmAdr":"경상북도 경주시 양정로 241","bldNm":"","flrNo":"","src":"소진공","fr_cat":"동남아","fr_kw":"베트남","fr_basis":"상호"}},{"type":"Feature","geometry":{"type":"Point","coordinates":[129.22673390626,35.8555767806865]},"properties":{"bizesId":"MA010120220814305388","bizesNm":"올래양꼬치","indsLclsCd":"I2","indsLclsNm":"음식","indsMclsNm":"중식","indsSclsNm":"중국집","ldongNm":"동천동","lnoAdr":"경상북도 경주시 동천동 782-5","rdnmAdr":"경상북도 경주시 동천로86번길 1","bldNm":"","flrNo":"","src":"소진공","fr_cat":"중국·기타","fr_kw":"양꼬치","fr_basis":"상호"}},{"type":"Feature","geometry":{"type":"Point","coordinates":[129.204782399563,35.8534588615611]},"properties":{"bizesId":"MA0101202311A0085615","bizesNm":"반넉","indsLclsCd":"I2","indsLclsNm":"음식","indsMclsNm":"동남아시아","indsSclsNm":"베트남식 전문","ldongNm":"성건동","lnoAdr":"경상북도 경주시 성건동 693-4","rdnmAdr":"경상북도 경주시 한빛길20번길 35","bldNm":"","flrNo":"1","src":"소진공","fr_cat":"외국 음식 업종","fr_kw":"베트남식 전문","fr_basis":"업종"}},{"type":"Feature","geometry":{"type":"Point","coordinates":[129.206243722821,35.8554683856201]},"properties":{"bizesId":"MA0101202311A0101333","bizesNm":"바코드","indsLclsCd":"I2","indsLclsNm":"음식","indsMclsNm":"동남아시아","indsSclsNm":"베트남식 전문","ldongNm":"성건동","lnoAdr":"경상북도 경주시 성건동 620-720","rdnmAdr":"경상북도 경주시 동대로 6","bldNm":"2~3층","flrNo":"","src":"소진공","fr_cat":"외국 음식 업종","fr_kw":"베트남식 전문","fr_basis":"업종"}},{"type":"Feature","geometry":{"type":"Point","coordinates":[129.206372698597,35.8529340818535]},"properties":{"bizesId":"MA0101202311A0036001","bizesNm":"반넉아시아마트","indsLclsCd":"G2","indsLclsNm":"소매","indsMclsNm":"종합 소매","indsSclsNm":"슈퍼마켓","ldongNm":"성건동","lnoAdr":"경상북도 경주시 성건동 698","rdnmAdr":"경상북도 경주시 한빛길6번길 26-1","bldNm":"","flrNo":"1","src":"소진공","fr_cat":"중국·기타","fr_kw":"아시아마트","fr_basis":"상호"}},{"type":"Feature","geometry":{"type":"Point","coordinates":[129.210309213704,35.8356607543582]},"properties":{"bizesId":"MA0101202308A0004737","bizesNm":"피포","indsLclsCd":"I2","indsLclsNm":"음식","indsMclsNm":"비알코올 ","indsSclsNm":"카페","ldongNm":"황남동","lnoAdr":"경상북도 경주시 황남동 307-1","rdnmAdr":"경상북도 경주시 포석로 1058-7","bldNm":"황남동종합시장","flrNo":"","src":"소진공","fr_cat":"동남아","fr_kw":"포","fr_basis":"상호"}},{"type":"Feature","geometry":{"type":"Point","coordinates":[129.220348056975,35.8821675594636]},"properties":{"bizesId":"MA0101202307A0024531","bizesNm":"시드니월남쌈","indsLclsCd":"I2","indsLclsNm":"음식","indsMclsNm":"동남아시아","indsSclsNm":"베트남식 전문","ldongNm":"황성동","lnoAdr":"경상북도 경주시 황성동 1267","rdnmAdr":"경상북도 경주시 용황로 20","bldNm":"","flrNo":"","src":"소진공","fr_cat":"외국 음식 업종","fr_kw":"베트남식 전문","fr_basis":"업종"}},{"type":"Feature","geometry":{"type":"Point","coordinates":[129.220288353232,35.8653552744989]},"properties":{"bizesId":"MA0101202309A0005541","bizesNm":"커플릭스경주점","indsLclsCd":"I2","indsLclsNm":"음식","indsMclsNm":"동남아시아","indsSclsNm":"베트남식 전문","ldongNm":"황성동","lnoAdr":"경상북도 경주시 황성동 1168","rdnmAdr":"경상북도 경주시 원지길12번길 39","bldNm":"성호마루한","flrNo":"","src":"소진공","fr_cat":"외국 음식 업종","fr_kw":"베트남식 전문","fr_basis":"업종"}},{"type":"Feature","geometry":{"type":"Point","coordinates":[129.220547080613,35.8666930400239]},"properties":{"bizesId":"MA0101202310A0082591","bizesNm":"꼰비떼","indsLclsCd":"I2","indsLclsNm":"음식","indsMclsNm":"동남아시아","indsSclsNm":"베트남식 전문","ldongNm":"황성동","lnoAdr":"경상북도 경주시 황성동 251-13","rdnmAdr":"경상북도 경주시 황성로64번길 32","bldNm":"","flrNo":"1","src":"소진공","fr_cat":"외국 음식 업종","fr_kw":"베트남식 전문","fr_basis":"업종"}},{"type":"Feature","geometry":{"type":"Point","coordinates":[129.223336002194,35.8567660355619]},"properties":{"bizesId":"MA0101202310A0023520","bizesNm":"하노이신짜오","indsLclsCd":"I2","indsLclsNm":"음식","indsMclsNm":"동남아시아","indsSclsNm":"베트남식 전문","ldongNm":"동천동","lnoAdr":"경상북도 경주시 동천동 768-5","rdnmAdr":"경상북도 경주시 백률로 37","bldNm":"","flrNo":"","src":"소진공","fr_cat":"동남아","fr_kw":"하노이","fr_basis":"상호"}},{"type":"Feature","geometry":{"type":"Point","coordinates":[129.223543919067,35.8562846345951]},"properties":{"bizesId":"MA0101202406A0075508","bizesNm":"베트남노래","indsLclsCd":"I2","indsLclsNm":"음식","indsMclsNm":"주점","indsSclsNm":"일반 유흥 주점","ldongNm":"동천동","lnoAdr":"경상북도 경주시 동천동 790-14","rdnmAdr":"경상북도 경주시 양정로261번길 8","bldNm":"","flrNo":"1","src":"소진공","fr_cat":"동남아","fr_kw":"베트남","fr_basis":"상호"}},{"type":"Feature","geometry":{"type":"Point","coordinates":[129.205460777432,35.8555728706973]},"properties":{"bizesId":"MA0101202411A0024277","bizesNm":"훈춘양꼬치","indsLclsCd":"I2","indsLclsNm":"음식","indsMclsNm":"중식","indsSclsNm":"중국집","ldongNm":"성건동","lnoAdr":"경상북도 경주시 성건동 620-477","rdnmAdr":"경상북도 경주시 동대로 14","bldNm":"","flrNo":"2","src":"소진공","fr_cat":"중국·기타","fr_kw":"양꼬치","fr_basis":"상호"}},{"type":"Feature","geometry":{"type":"Point","coordinates":[129.205895373122,35.8548800953407]},"properties":{"bizesId":"MA0101202409A0201085","bizesNm":"넥스트레벨","indsLclsCd":"I2","indsLclsNm":"음식","indsMclsNm":"동남아시아","indsSclsNm":"베트남식 전문","ldongNm":"성건동","lnoAdr":"경상북도 경주시 성건동 681-4","rdnmAdr":"경상북도 경주시 한빛길10번길 50","bldNm":"","flrNo":"2","src":"소진공","fr_cat":"외국 음식 업종","fr_kw":"베트남식 전문","fr_basis":"업종"}},{"type":"Feature","geometry":{"type":"Point","coordinates":[129.205908013525,35.8545374663437]},"properties":{"bizesId":"MA0101202406A0433259","bizesNm":"알리아시아마트","indsLclsCd":"G2","indsLclsNm":"소매","indsMclsNm":"종합 소매","indsSclsNm":"슈퍼마켓","ldongNm":"성건동","lnoAdr":"경상북도 경주시 성건동 684-1","rdnmAdr":"경상북도 경주시 한빛길10번길 46","bldNm":"","flrNo":"1","src":"소진공","fr_cat":"중국·기타","fr_kw":"아시아마트","fr_basis":"상호"}},{"type":"Feature","geometry":{"type":"Point","coordinates":[129.205928214257,35.8528701631727]},"properties":{"bizesId":"MA0101202406A0321419","bizesNm":"오로라식당","indsLclsCd":"I2","indsLclsNm":"음식","indsMclsNm":"동남아시아","indsSclsNm":"베트남식 전문","ldongNm":"성건동","lnoAdr":"경상북도 경주시 성건동 699","rdnmAdr":"경상북도 경주시 한빛길10번길 26","bldNm":"","flrNo":"3","src":"소진공","fr_cat":"외국 음식 업종","fr_kw":"베트남식 전문","fr_basis":"업종"}},{"type":"Feature","geometry":{"type":"Point","coordinates":[129.206072622153,35.8548858500109]},"properties":{"bizesId":"MA0101202406A0589298","bizesNm":"엑스에이치아시안마트","indsLclsCd":"G2","indsLclsNm":"소매","indsMclsNm":"종합 소매","indsSclsNm":"슈퍼마켓","ldongNm":"성건동","lnoAdr":"경상북도 경주시 성건동 681-3","rdnmAdr":"경상북도 경주시 한빛길6번길 47","bldNm":"서쪽매장","flrNo":"1","src":"소진공","fr_cat":"중국·기타","fr_kw":"아시안마트","fr_basis":"상호"}},{"type":"Feature","geometry":{"type":"Point","coordinates":[129.206345096399,35.8539347481625]},"properties":{"bizesId":"MA0101202412A0080255","bizesNm":"알로이디","indsLclsCd":"I2","indsLclsNm":"음식","indsMclsNm":"동남아시아","indsSclsNm":"베트남식 전문","ldongNm":"성건동","lnoAdr":"경상북도 경주시 성건동 697","rdnmAdr":"경상북도 경주시 한빛길6번길 38","bldNm":"","flrNo":"1","src":"소진공","fr_cat":"외국 음식 업종","fr_kw":"베트남식 전문","fr_basis":"업종"}},{"type":"Feature","geometry":{"type":"Point","coordinates":[129.206490921031,35.8552025413944]},"properties":{"bizesId":"MA0101202406A0409728","bizesNm":"복만거마라탕&양꼬치","indsLclsCd":"I2","indsLclsNm":"음식","indsMclsNm":"한식","indsSclsNm":"백반/한정식","ldongNm":"성건동","lnoAdr":"경상북도 경주시 성건동 682-4","rdnmAdr":"경상북도 경주시 동대로 3","bldNm":"","flrNo":"","src":"소진공","fr_cat":"중국·기타","fr_kw":"양꼬치","fr_basis":"상호"}},{"type":"Feature","geometry":{"type":"Point","coordinates":[129.206743536349,35.8439528612304]},"properties":{"bizesId":"MA0101202412A0021747","bizesNm":"경주중앙야시장베트남쌀국수","indsLclsCd":"I2","indsLclsNm":"음식","indsMclsNm":"동남아시아","indsSclsNm":"베트남식 전문","ldongNm":"성건동","lnoAdr":"경상북도 경주시 성건동 339-2","rdnmAdr":"경상북도 경주시 금성로 295","bldNm":"야시장","flrNo":"","src":"소진공","fr_cat":"동남아","fr_kw":"베트남","fr_basis":"상호"}},{"type":"Feature","geometry":{"type":"Point","coordinates":[129.207912340449,35.8529778704705]},"properties":{"bizesId":"MA0101202406A0538656","bizesNm":"오마르알리","indsLclsCd":"I2","indsLclsNm":"음식","indsMclsNm":"동남아시아","indsSclsNm":"베트남식 전문","ldongNm":"성건동","lnoAdr":"경상북도 경주시 성건동 641","rdnmAdr":"경상북도 경주시 북문로47번길 32-1","bldNm":"","flrNo":"","src":"소진공","fr_cat":"외국 음식 업종","fr_kw":"베트남식 전문","fr_basis":"업종"}},{"type":"Feature","geometry":{"type":"Point","coordinates":[129.224491422918,35.8529602684131]},"properties":{"bizesId":"MA0101202406A0519683","bizesNm":"동천양꼬치","indsLclsCd":"I2","indsLclsNm":"음식","indsMclsNm":"중식","indsSclsNm":"중국집","ldongNm":"동천동","lnoAdr":"경상북도 경주시 동천동 814-1","rdnmAdr":"경상북도 경주시 양정로228번길 4","bldNm":"","flrNo":"","src":"소진공","fr_cat":"중국·기타","fr_kw":"양꼬치","fr_basis":"상호"}},{"type":"Feature","geometry":{"type":"Point","coordinates":[129.206342942661,35.8546556231205]},"properties":{"bizesId":"MA0101202507A0021227","bizesNm":"포비엗","indsLclsCd":"I2","indsLclsNm":"음식","indsMclsNm":"동남아시아","indsSclsNm":"베트남식 전문","ldongNm":"성건동","lnoAdr":"경상북도 경주시 성건동 683","rdnmAdr":"경상북도 경주시 한빛길6번길 46","bldNm":"","flrNo":"","src":"소진공","fr_cat":"외국 음식 업종","fr_kw":"베트남식 전문","fr_basis":"업종"}},{"type":"Feature","geometry":{"type":"Point","coordinates":[129.206743536349,35.8439528612304]},"properties":{"bizesId":"MA0101202506A0026831","bizesNm":"경주중앙야시장반카파오","indsLclsCd":"I2","indsLclsNm":"음식","indsMclsNm":"동남아시아","indsSclsNm":"베트남식 전문","ldongNm":"성건동","lnoAdr":"경상북도 경주시 성건동 339-2","rdnmAdr":"경상북도 경주시 금성로 295","bldNm":"경주중앙시장","flrNo":"","src":"소진공","fr_cat":"외국 음식 업종","fr_kw":"베트남식 전문","fr_basis":"업종"}},{"type":"Feature","geometry":{"type":"Point","coordinates":[129.206743536349,35.8439528612304]},"properties":{"bizesId":"MA0101202508A0000411","bizesNm":"몽골글로벌","indsLclsCd":"G2","indsLclsNm":"소매","indsMclsNm":"의약·화장품 소매","indsSclsNm":"화장품 소매업","ldongNm":"성건동","lnoAdr":"경상북도 경주시 성건동 339-2","rdnmAdr":"경상북도 경주시 금성로 295","bldNm":"경주중앙시장","flrNo":"","src":"소진공","fr_cat":"중국·기타","fr_kw":"몽골","fr_basis":"상호"}},{"type":"Feature","geometry":{"type":"Point","coordinates":[129.207648236955,35.8550280954037]},"properties":{"bizesId":"MA0101202603A0012294","bizesNm":"일심중국식품","indsLclsCd":"G2","indsLclsNm":"소매","indsMclsNm":"종합 소매","indsSclsNm":"슈퍼마켓","ldongNm":"성건동","lnoAdr":"경상북도 경주시 성건동 625-5","rdnmAdr":"경상북도 경주시 공영주택길 8","bldNm":"점포","flrNo":"1","src":"소진공","fr_cat":"중국·기타","fr_kw":"중국식품","fr_basis":"상호"}},{"type":"Feature","geometry":{"type":"Point","coordinates":[129.208313984016,35.8550879391289]},"properties":{"bizesId":"MA0101202602A0007352","bizesNm":"타이라오무카타","indsLclsCd":"I2","indsLclsNm":"음식","indsMclsNm":"한식","indsSclsNm":"백반/한정식","ldongNm":"성건동","lnoAdr":"경상북도 경주시 성건동 620-372","rdnmAdr":"경상북도 경주시 공영주택길 13-1","bldNm":"","flrNo":"","src":"소진공","fr_cat":"동남아","fr_kw":"타이","fr_basis":"상호"}},{"type":"Feature","geometry":{"type":"Point","coordinates":[129.208519850167,35.84375802484]},"properties":{"bizesId":"MA0101202509A0032129","bizesNm":"혼술바포","indsLclsCd":"I2","indsLclsNm":"음식","indsMclsNm":"주점","indsSclsNm":"생맥주 전문","ldongNm":"노서동","lnoAdr":"경상북도 경주시 노서동 31-13","rdnmAdr":"경상북도 경주시 화랑로70번길 9-2","bldNm":"","flrNo":"","src":"소진공","fr_cat":"동남아","fr_kw":"포","fr_basis":"상호"}},{"type":"Feature","geometry":{"type":"Point","coordinates":[129.210774229696,35.837265068751]},"properties":{"bizesId":"MA0101202602A0011747","bizesNm":"안반미ANBANHMI","indsLclsCd":"I2","indsLclsNm":"음식","indsMclsNm":"동남아시아","indsSclsNm":"베트남식 전문","ldongNm":"황남동","lnoAdr":"경상북도 경주시 황남동 249-5","rdnmAdr":"경상북도 경주시 손효자길 12-1","bldNm":"","flrNo":"1","src":"소진공","fr_cat":"외국 음식 업종","fr_kw":"베트남식 전문","fr_basis":"업종"}},{"type":"Feature","geometry":{"type":"Point","coordinates":[129.213619754483,35.8428982562098]},"properties":{"bizesId":"MA0101202509A0037374","bizesNm":"신당양꼬치","indsLclsCd":"I2","indsLclsNm":"음식","indsMclsNm":"중식","indsSclsNm":"중국집","ldongNm":"황오동","lnoAdr":"경상북도 경주시 황오동 225-12","rdnmAdr":"경상북도 경주시 계림로 96-2","bldNm":"","flrNo":"1","src":"소진공","fr_cat":"중국·기타","fr_kw":"양꼬치","fr_basis":"상호"}},{"type":"Feature","geometry":{"type":"Point","coordinates":[129.215186658238,35.8423377528004]},"properties":{"bizesId":"MA0101202509A0003992","bizesNm":"하노이쌀국수","indsLclsCd":"I2","indsLclsNm":"음식","indsMclsNm":"동남아시아","indsSclsNm":"베트남식 전문","ldongNm":"황오동","lnoAdr":"경상북도 경주시 황오동 242-2","rdnmAdr":"경상북도 경주시 북정로 15-1","bldNm":"","flrNo":"","src":"소진공","fr_cat":"동남아","fr_kw":"하노이","fr_basis":"상호"}},{"type":"Feature","geometry":{"type":"Point","coordinates":[129.224972335221,35.8586819772346]},"properties":{"bizesId":"MA0101202601A0010329","bizesNm":"포호느호","indsLclsCd":"I2","indsLclsNm":"음식","indsMclsNm":"동남아시아","indsSclsNm":"베트남식 전문","ldongNm":"동천동","lnoAdr":"경상북도 경주시 동천동 987-16","rdnmAdr":"경상북도 경주시 양정로290번길 7","bldNm":"","flrNo":"","src":"소진공","fr_cat":"외국 음식 업종","fr_kw":"베트남식 전문","fr_basis":"업종"}},{"type":"Feature","geometry":{"type":"Point","coordinates":[129.184438546246,35.8425314538344]},"properties":{"bizesId":"MA0106202605A1396769","bizesNm":"카라신타이마트","indsLclsCd":"G2","indsLclsNm":"소매","indsMclsNm":"종합 소매","indsSclsNm":"슈퍼마켓","ldongNm":"충효동","lnoAdr":"경상북도 경주시 충효동 2980-6","rdnmAdr":"경상북도 경주시 충효녹지길 60","bldNm":"","flrNo":"","src":"소진공","fr_cat":"동남아","fr_kw":"타이","fr_basis":"상호"}},{"type":"Feature","geometry":{"type":"Point","coordinates":[129.207036029874,35.8537058023241]},"properties":{"bizesId":"MA0101202604A0021898","bizesNm":"아노르","indsLclsCd":"I2","indsLclsNm":"음식","indsMclsNm":"동남아시아","indsSclsNm":"베트남식 전문","ldongNm":"성건동","lnoAdr":"경상북도 경주시 성건동 629","rdnmAdr":"경상북도 경주시 금성로 404","bldNm":"","flrNo":"","src":"소진공","fr_cat":"외국 음식 업종","fr_kw":"베트남식 전문","fr_basis":"업종"}},{"type":"Feature","geometry":{"type":"Point","coordinates":[129.208490017549,35.8390911578133]},"properties":{"bizesId":"MA0101202604A0029128","bizesNm":"나이팟타이","indsLclsCd":"I2","indsLclsNm":"음식","indsMclsNm":"기타 간이","indsSclsNm":"그 외 기타 간이 음식점","ldongNm":"사정동","lnoAdr":"경상북도 경주시 사정동 1-18","rdnmAdr":"경상북도 경주시 태종로 734-1","bldNm":"","flrNo":"1","src":"소진공","fr_cat":"동남아","fr_kw":"타이","fr_basis":"상호"}},{"type":"Feature","geometry":{"type":"Point","coordinates":[129.211148334296,35.8543239639801]},"properties":{"bizesId":"MA0101202604A0023320","bizesNm":"신짜우","indsLclsCd":"I2","indsLclsNm":"음식","indsMclsNm":"동남아시아","indsSclsNm":"베트남식 전문","ldongNm":"성건동","lnoAdr":"경상북도 경주시 성건동 635-2","rdnmAdr":"경상북도 경주시 금성로408번길 37-10","bldNm":"","flrNo":"1","src":"소진공","fr_cat":"외국 음식 업종","fr_kw":"베트남식 전문","fr_basis":"업종"}},{"type":"Feature","geometry":{"type":"Point","coordinates":[129.222563117275,35.8552485722501]},"properties":{"bizesId":"MA0106202605A0300079","bizesNm":"빙빙아시안마트","indsLclsCd":"G2","indsLclsNm":"소매","indsMclsNm":"종합 소매","indsSclsNm":"슈퍼마켓","ldongNm":"동천동","lnoAdr":"경상북도 경주시 동천동 794-7","rdnmAdr":"경상북도 경주시 양정로251번길 16","bldNm":"","flrNo":"","src":"소진공","fr_cat":"중국·기타","fr_kw":"아시안마트","fr_basis":"상호"}}]}