{"type":"FeatureCollection","features":[{"type":"Feature","geometry":{"type":"Point","coordinates":[129.185696,35.806642]},"properties":{"name":"경주IC","kind":"고속도로 IC","note":"경부고속도로 · 언양JCT~경주IC 45,807대/일(2015) · 활천~경주 54,887대/일(2025 AADT)","src_doc":"전략계획 p.48 · 경관계획 관문적 경관거점 · 기본계획 p.207","geocode":"V-World 장소검색 '경주나들목' (인공지명 > 기간시설 > 교통)","lbl":"경주IC","source":"위치 V-World 장소검색(2026-09-21, IC는 나들목 지명점) · 관문 지정·규모 서술은 4개 문서(T1·T2) 전사"}},{"type":"Feature","geometry":{"type":"Point","coordinates":[129.08585,35.842951]},"properties":{"name":"건천IC","kind":"고속도로 IC","note":"경부고속도로 · 경주IC~건천IC 42,808대/일(2015) · 55,015(2025 AADT)","src_doc":"전략계획 p.48 · 경관계획 관문적 경관거점","geocode":"V-World 장소검색 '건천나들목' (인공지명 > 기간시설 > 교통)","lbl":"건천IC","source":"위치 V-World 장소검색(2026-09-21, IC는 나들목 지명점) · 관문 지정·규모 서술은 4개 문서(T1·T2) 전사"}},{"type":"Feature","geometry":{"type":"Point","coordinates":[129.315172,35.732524]},"properties":{"name":"남경주IC","kind":"고속도로 IC","note":"동해고속도로(울산~포항) · 범서~남경주 24,744대/일(2025 AADT)","src_doc":"전략계획 p.48 · 경관계획 관문적 경관거점(추가)","geocode":"V-World 장소검색 '남경주나들목' (인공지명 > 기간시설 > 교통)","lbl":"남경주IC","source":"위치 V-World 장소검색(2026-09-21, IC는 나들목 지명점) · 관문 지정·규모 서술은 4개 문서(T1·T2) 전사"}},{"type":"Feature","geometry":{"type":"Point","coordinates":[129.424383,35.782373]},"properties":{"name":"동경주IC","kind":"고속도로 IC","note":"동해고속도로 · 남경주~동경주 23,050대/일(2025 AADT)","src_doc":"전략계획 p.48","geocode":"V-World 장소검색 '동경주나들목' (인공지명 > 기간시설 > 교통)","lbl":"동경주IC","source":"위치 V-World 장소검색(2026-09-21, IC는 나들목 지명점) · 관문 지정·규모 서술은 4개 문서(T1·T2) 전사"}},{"type":"Feature","geometry":{"type":"Point","coordinates":[129.246808,35.936397]},"properties":{"name":"북경주IC","kind":"고속도로 IC","note":"새만금포항고속도로 · 임고~서포항 36,401대/일(2025 AADT) · 미래구상 p.30의 외곽순환 기점(남포항IC~)","src_doc":"미래구상 p.9·30","geocode":"V-World 장소검색 '북경주나들목' (인공지명 > 기간시설 > 교통)","lbl":"북경주IC","source":"위치 V-World 장소검색(2026-09-21, IC는 나들목 지명점) · 관문 지정·규모 서술은 4개 문서(T1·T2) 전사"}},{"type":"Feature","geometry":{"type":"Point","coordinates":[129.140977,35.797387]},"properties":{"name":"경주역(KTX, 구 신경주역)","kind":"고속철도역","note":"KTX 경부선·동해선 · 2013 승차 1,111,982명 · 원도심에서 약 9km(미래구상 p.30)","src_doc":"기본계획 p.201·208 · 경관계획 관문적 경관거점","geocode":"V-World 장소검색 '신경주역' (철도시설 > 철도/지하철 > 승강장)","lbl":"경주역(KTX, 구 신경주역)","source":"위치 V-World 장소검색(2026-09-21, IC는 나들목 지명점) · 관문 지정·규모 서술은 4개 문서(T1·T2) 전사"}},{"type":"Feature","geometry":{"type":"Point","coordinates":[129.201184,35.868814]},"properties":{"name":"서경주역(신)","kind":"일반철도역","note":"이설 동해선·중앙선 · 미래구상은 원도심의 기능적 관문으로 제안(p.31)","src_doc":"미래구상 p.31·74 · 경관계획 관문적 경관거점(추가)","geocode":"V-World 장소검색 '서경주역' (철도시설 > 철도/지하철 > 철도정거장)","lbl":"서경주역(신)","source":"위치 V-World 장소검색(2026-09-21, IC는 나들목 지명점) · 관문 지정·규모 서술은 4개 문서(T1·T2) 전사"}},{"type":"Feature","geometry":{"type":"Point","coordinates":[129.203596,35.838678]},"properties":{"name":"경주고속버스터미널","kind":"버스터미널","note":"노서동 243-5 · 1일 약 91회(서울 17·부산 40~41·대구 36·광주 2·대전 2, KOBUS 2015)","src_doc":"기본계획 p.202 · 전략계획 p.52","geocode":"V-World 장소검색 '경주고속버스터미널' (도로시설 > 버스터미널/정류장 > 고속버스터미널)","lbl":"경주고속버스터미널","source":"위치 V-World 장소검색(2026-09-21, IC는 나들목 지명점) · 관문 지정·규모 서술은 4개 문서(T1·T2) 전사"}},{"type":"Feature","geometry":{"type":"Point","coordinates":[129.202463,35.839758]},"properties":{"name":"경주시외버스터미널","kind":"버스터미널","note":"노서동 160-2 · 시민 설문에서 외부 이동수단 1위(30/49, 미래구상 p.68) · 실제 이용률 고속터미널보다 높음(현장관찰)","src_doc":"전략계획 p.52 · 미래구상 p.67–68","geocode":"V-World 장소검색 '경주시외버스터미널' (도로시설 > 버스터미널/정류장 > 시외버스터미널)","lbl":"경주시외버스터미널","source":"위치 V-World 장소검색(2026-09-21, IC는 나들목 지명점) · 관문 지정·규모 서술은 4개 문서(T1·T2) 전사"}},{"type":"Feature","geometry":{"type":"Point","coordinates":[129.21868,35.84499]},"properties":{"name":"(옛)경주역","kind":"폐역","note":"2021.12 폐역 · 2013 승차 560,123명 · 대상지","src_doc":"기본계획 p.208","geocode":"V-World 장소검색(경주역 철도시설)","lbl":"(옛)경주역","source":"위치 V-World 장소검색(2026-09-21, IC는 나들목 지명점) · 관문 지정·규모 서술은 4개 문서(T1·T2) 전사"}}]}