{"type":"FeatureCollection","features":[{"type":"Feature","geometry":{"type":"Point","coordinates":[129.21442461667613,35.84344828433872]},"properties":{"name":"모모제인","addr":"경상북도 경주시 동성로 129-7(황오동)","geocode":"ROAD","HMPG_NM":"http://www.momojein.co.kr","TELNO":null}},{"type":"Feature","geometry":{"type":"Point","coordinates":[129.21916845527056,35.855474320344726]},"properties":{"name":"Tavo House(타보게스트하우스)","addr":"경상북도 경주시 원화로 392번길8-2(동천동)","geocode":"ROAD","HMPG_NM":"https://blog.naver.com/ponat3","TELNO":null}},{"type":"Feature","geometry":{"type":"Point","coordinates":[129.21404250607713,35.84202534771218]},"properties":{"name":"산타 게스트하우스","addr":"경상북도 경주시 원효로 121(황오동, 3층)","geocode":"ROAD","HMPG_NM":null,"TELNO":"070-8922-6448"}},{"type":"Feature","geometry":{"type":"Point","coordinates":[129.20414752267286,35.837285553506234]},"properties":{"name":"유 게스트 하우스","addr":"경상북도 경주시 사정로 9(사정동)","geocode":"ROAD","HMPG_NM":"https://youguesthouse.modoo.at","TELNO":null}},{"type":"Feature","geometry":{"type":"Point","coordinates":[129.2051011108454,35.839281194998094]},"properties":{"name":"Be my guest apartment","addr":"경상북도 경주시 금성로 247번길 17-5(노서동) ","geocode":"ROAD","HMPG_NM":null,"TELNO":null}},{"type":"Feature","geometry":{"type":"Point","coordinates":[129.22335891004263,35.84225432163444]},"properties":{"name":"월지향","addr":"경상북도 경주시 양정로 74번길 5(황오동)","geocode":"ROAD","HMPG_NM":null,"TELNO":null}},{"type":"Feature","geometry":{"type":"Point","coordinates":[129.2060336196749,35.84055252035441]},"properties":{"name":"PICA PICA","addr":"경상북도 경주시 태종로711번길 20(노서동),301호","geocode":"ROAD","HMPG_NM":null,"TELNO":null}},{"type":"Feature","geometry":{"type":"Point","coordinates":[129.20896296520613,35.83507454353184]},"properties":{"name":"오가다게스트하우스","addr":"경상북도 경주시 금성로 196번길 15-3(사정동)","geocode":"ROAD","HMPG_NM":null,"TELNO":null}},{"type":"Feature","geometry":{"type":"Point","coordinates":[129.21109257383966,35.851662753395786]},"properties":{"name":"Walden, Golden city Gyeongju","addr":"경상북도 경주시 금성로 372번길 40 신흥그린시아 3차 302호","geocode":"ROAD","HMPG_NM":null,"TELNO":null}},{"type":"Feature","geometry":{"type":"Point","coordinates":[129.20624025562338,35.84029789337488]},"properties":{"name":"킴스홈","addr":"경상북도 경주시 원효로 52번길 24, 402호","geocode":"ROAD","HMPG_NM":null,"TELNO":null}},{"type":"Feature","geometry":{"type":"Point","coordinates":[129.20877555467766,35.84421508996566]},"properties":{"name":"KIM'S HOUSE","addr":"경상북도 경주시 봉황로51번길 11-1(사정동), 501호","geocode":"ROAD","HMPG_NM":null,"TELNO":null}},{"type":"Feature","geometry":{"type":"Point","coordinates":[129.26351567368954,35.80511914876938]},"properties":{"name":"포레스트","addr":"경상북도 경주시 동방중앙길 54-37, 401호(동방동, 비룡벨로스텔라 3차)","geocode":"ROAD","HMPG_NM":null,"TELNO":null}},{"type":"Feature","geometry":{"type":"Point","coordinates":[129.26351567368954,35.80511914876938]},"properties":{"name":"The zoom","addr":"경상북도 경주시 동방중앙길 54-37, 601호","geocode":"ROAD","HMPG_NM":null,"TELNO":null}},{"type":"Feature","geometry":{"type":"Point","coordinates":[129.51165866229223,35.81635563935784]},"properties":{"name":"비치힐","addr":"경상북도 경주시 감포읍 감포로 326, 202호","geocode":"ROAD","HMPG_NM":null,"TELNO":null}},{"type":"Feature","geometry":{"type":"Point","coordinates":[129.30380682220647,35.77741484075671]},"properties":{"name":"jw house","addr":"경상북도 경주시 시래둑길 55, 105동 401호 (구정동)","geocode":"ROAD","HMPG_NM":null,"TELNO":null}},{"type":"Feature","geometry":{"type":"Point","coordinates":[129.21397111588223,35.84356522072047]},"properties":{"name":"다온게스트하우스","addr":"경상북도 경주시 계림로106번길 4-2(황오동)","geocode":"ROAD","HMPG_NM":"daongh.com/","TELNO":"054-741-2821"}},{"type":"Feature","geometry":{"type":"Point","coordinates":[129.21912524626975,35.85434265150053]},"properties":{"name":"41번가 게스트하우스","addr":"경상북도 경주시 원화로386-11(동천동)","geocode":"ROAD","HMPG_NM":"http://41st.co.kr/","TELNO":null}},{"type":"Feature","geometry":{"type":"Point","coordinates":[129.21998810892597,35.83730718281633]},"properties":{"name":"경주파인데이 게스트하우스","addr":"경상북도 경주시 원화로 178-3(인왕동)","geocode":"ROAD","HMPG_NM":"http://cafe.naver.com/finedaygh","TELNO":null}},{"type":"Feature","geometry":{"type":"Point","coordinates":[129.20902768788216,35.83361788336494]},"properties":{"name":"모냥 게스트하우스","addr":"경상북도 경주시 첨성로 61-8(사정동)","geocode":"ROAD","HMPG_NM":"http://www.모냥게스트하우스.com","TELNO":null}},{"type":"Feature","geometry":{"type":"Point","coordinates":[129.20876950558176,35.84335624013491]},"properties":{"name":"다다맨션","addr":"경상북도 경주시 동성로 76-3","geocode":"ROAD","HMPG_NM":null,"TELNO":null}},{"type":"Feature","geometry":{"type":"Point","coordinates":[129.2061810252759,35.83458265323246]},"properties":{"name":"게스트하우스 고도","addr":"경상북도 경주시 첨성로39번길 15-4(사정동)","geocode":"ROAD","HMPG_NM":null,"TELNO":null}},{"type":"Feature","geometry":{"type":"Point","coordinates":[129.20767993992314,35.84192143914107]},"properties":{"name":"청춘 게스트하우스","addr":"경상북도 경주시 태종로727번길 31 (노서동)","geocode":"ROAD","HMPG_NM":"http://www.dreamer09.kr/","TELNO":"054-744-0909"}},{"type":"Feature","geometry":{"type":"Point","coordinates":[129.20822542570357,35.83676162184044]},"properties":{"name":"경주로 여행","addr":"경상북도 경주시 사정로 47-1(사정동)","geocode":"ROAD","HMPG_NM":null,"TELNO":null}},{"type":"Feature","geometry":{"type":"Point","coordinates":[129.25030249595517,35.840693726366155]},"properties":{"name":"숲머리 독채민박","addr":"경상북도 경주시 숲머리길 124-19 (보문동)","geocode":"ROAD","HMPG_NM":null,"TELNO":null}}]}