{"type":"FeatureCollection","features":[{"type":"Feature","geometry":{"type":"Point","coordinates":[129.219757438425,35.8476828736293]},"properties":{"name":"성동동 대구기관차승무분소 휴게실 신축부지 유적","kind":"발굴(정밀)","year":"2002","area_m2":540,"finds":"통일신라 유물포함층, 주혈 6","addr":"성동동 114 일원","source":"김권일(2026.02.27) 혁신포럼 발표자료 · 2022 성림문화재연구원 지표조사 (T2)"}},{"type":"Feature","geometry":{"type":"Point","coordinates":[129.2194,35.8472]},"properties":{"name":"성동동 경주차량분소 기관차검수고 신축부지 유적","kind":"시굴","year":"2003","area_m2":2331,"finds":"통일신라 적심석군 4·수혈 1·석열 1","addr":"성동동 117·118 (지오코딩 불가 → 114 인근 근사)","source":"김권일(2026.02.27) 혁신포럼 발표자료 · 2022 성림문화재연구원 지표조사 (T2)"}},{"type":"Feature","geometry":{"type":"Point","coordinates":[129.2193,35.847]},"properties":{"name":"성동동 경주차량분소 부지내 유적","kind":"발굴(정밀)","year":"2004","area_m2":525,"finds":"통일신라 건물지 1·우물 1·수혈 2·석열 1, 유물 8","addr":"성동동 118 (근사)","source":"김권일(2026.02.27) 혁신포럼 발표자료 · 2022 성림문화재연구원 지표조사 (T2)"}},{"type":"Feature","geometry":{"type":"Point","coordinates":[129.21762483532,35.8445327562747]},"properties":{"name":"경주 황오동 삼층석탑 (도 문화유산자료)","kind":"지정유산","year":"1936 이건","area_m2":null,"finds":"통일신라 말 양식, 남산 장창곡 사자사지 탑재 이건","addr":"성동동 40 (역전 광장 북)","source":"김권일(2026.02.27) 혁신포럼 발표자료 · 2022 성림문화재연구원 지표조사 (T2)"}},{"type":"Feature","geometry":{"type":"Point","coordinates":[129.217825940584,35.8450382225689]},"properties":{"name":"경주 성동동사지 Ⅱ (비지정, 유존지역)","kind":"유존지역","year":"2022 지표조사","area_m2":40882,"finds":"건물지 담장열·적심·석조유구 — 시굴 필요","addr":"성동동 40 일원 (구역 내)","source":"김권일(2026.02.27) 혁신포럼 발표자료 · 2022 성림문화재연구원 지표조사 (T2)"}}]}