{"type":"FeatureCollection","features":[{"type":"Feature","geometry":{"type":"Polygon","coordinates":[[[129.21514541423753,35.84049500218311],[129.2162522285029,35.84047919601852],[129.21627164734414,35.841380408735304],[129.21516482057046,35.8413962154205],[129.21514541423753,35.84049500218311]]]},"properties":{"no":1,"code":"마마549618","pop_2018":23,"pop_2019":18,"pop_2020":18,"pop_2021":18,"pop_2022":18,"pop_2023":18,"pop_chg":-5,"pop_chg_pct":-21.7,"hh_2018":11,"hh_2019":11,"hh_2020":8,"hh_2021":8,"hh_2022":14,"hh_2023":13,"hh_chg":2,"hh_chg_pct":18.2,"biz_2018":18,"biz_2019":18,"biz_2020":22,"biz_2021":21,"biz_2022":17,"biz_2023":20,"biz_chg":2,"biz_chg_pct":11.1,"emp_2018":43,"emp_2019":52,"emp_2020":62,"emp_2021":56,"emp_2022":48,"emp_2023":50,"emp_chg":7,"emp_chg_pct":16.3,"house_2018":5,"house_2019":8,"house_2020":5,"house_2021":8,"house_2022":5,"house_2023":5,"house_chg":0,"house_chg_pct":0.0,"emp_per_biz_2023":2.5,"lbl":"18","source":"2024년 황오동 원도심(중심시가지형) 도시재생뉴딜사업 성과지표 및 모니터링 용역 결과보고서(수정중) — 공공도시, 2025.09 (T2) 인쇄쪽 78–80 — 통계청 SGIS 100m 격자(인구주택총조사·전국사업체조사). 5명 미만은 비공개(–)"}},{"type":"Feature","geometry":{"type":"Polygon","coordinates":[[[129.2162522285029,35.84047919601852],[129.21735904190612,35.84046337966625],[129.21737847325562,35.841364591862074],[129.21627164734414,35.841380408735304],[129.2162522285029,35.84047919601852]]]},"properties":{"no":2,"code":"마마550618","pop_2018":8,"pop_2019":8,"pop_2020":8,"pop_2021":8,"pop_2022":5,"pop_2023":5,"pop_chg":-3,"pop_chg_pct":-37.5,"hh_2018":5,"hh_2019":5,"hh_2020":5,"hh_2021":5,"hh_2022":5,"hh_2023":5,"hh_chg":0,"hh_chg_pct":0.0,"biz_2018":10,"biz_2019":7,"biz_2020":6,"biz_2021":6,"biz_2022":6,"biz_2023":3,"biz_chg":-7,"biz_chg_pct":-70.0,"emp_2018":7,"emp_2019":7,"emp_2020":6,"emp_2021":6,"emp_2022":6,"emp_2023":3,"emp_chg":-4,"emp_chg_pct":-57.1,"house_2018":5,"house_2019":0,"house_2020":5,"house_2021":0,"house_2022":0,"house_2023":0,"house_chg":-5,"house_chg_pct":-100.0,"emp_per_biz_2023":1.0,"lbl":"5","source":"2024년 황오동 원도심(중심시가지형) 도시재생뉴딜사업 성과지표 및 모니터링 용역 결과보고서(수정중) — 공공도시, 2025.09 (T2) 인쇄쪽 78–80 — 통계청 SGIS 100m 격자(인구주택총조사·전국사업체조사). 5명 미만은 비공개(–)"}},{"type":"Feature","geometry":{"type":"Polygon","coordinates":[[[129.21735904190612,35.84046337966625],[129.21846585444666,35.84044755312632],[129.21848529830433,35.84134876480085],[129.21737847325562,35.841364591862074],[129.21735904190612,35.84046337966625]]]},"properties":{"no":3,"code":"마마551618","pop_2018":23,"pop_2019":18,"pop_2020":18,"pop_2021":13,"pop_2022":13,"pop_2023":13,"pop_chg":-10,"pop_chg_pct":-43.5,"hh_2018":14,"hh_2019":12,"hh_2020":7,"hh_2021":5,"hh_2022":5,"hh_2023":5,"hh_chg":-9,"hh_chg_pct":-64.3,"biz_2018":13,"biz_2019":14,"biz_2020":14,"biz_2021":16,"biz_2022":17,"biz_2023":15,"biz_chg":2,"biz_chg_pct":15.4,"emp_2018":43,"emp_2019":39,"emp_2020":37,"emp_2021":46,"emp_2022":40,"emp_2023":36,"emp_chg":-7,"emp_chg_pct":-16.3,"house_2018":8,"house_2019":8,"house_2020":5,"house_2021":5,"house_2022":5,"house_2023":5,"house_chg":-3,"house_chg_pct":-37.5,"emp_per_biz_2023":2.4,"lbl":"13","source":"2024년 황오동 원도심(중심시가지형) 도시재생뉴딜사업 성과지표 및 모니터링 용역 결과보고서(수정중) — 공공도시, 2025.09 (T2) 인쇄쪽 78–80 — 통계청 SGIS 100m 격자(인구주택총조사·전국사업체조사). 5명 미만은 비공개(–)"}},{"type":"Feature","geometry":{"type":"Polygon","coordinates":[[[129.21516482057046,35.8413962154205],[129.21627164734414,35.841380408735304],[129.21629106704756,35.84228162130751],[129.21518422776506,35.84229742851334],[129.21516482057046,35.8413962154205]]]},"properties":{"no":4,"code":"마마549619","pop_2018":102,"pop_2019":106,"pop_2020":109,"pop_2021":100,"pop_2022":104,"pop_2023":98,"pop_chg":-4,"pop_chg_pct":-3.9,"hh_2018":46,"hh_2019":44,"hh_2020":46,"hh_2021":42,"hh_2022":45,"hh_2023":44,"hh_chg":-2,"hh_chg_pct":-4.3,"biz_2018":31,"biz_2019":30,"biz_2020":33,"biz_2021":30,"biz_2022":31,"biz_2023":29,"biz_chg":-2,"biz_chg_pct":-6.5,"emp_2018":51,"emp_2019":61,"emp_2020":61,"emp_2021":51,"emp_2022":64,"emp_2023":57,"emp_chg":6,"emp_chg_pct":11.8,"house_2018":28,"house_2019":30,"house_2020":29,"house_2021":29,"house_2022":29,"house_2023":29,"house_chg":1,"house_chg_pct":3.6,"emp_per_biz_2023":2.0,"lbl":"98","source":"2024년 황오동 원도심(중심시가지형) 도시재생뉴딜사업 성과지표 및 모니터링 용역 결과보고서(수정중) — 공공도시, 2025.09 (T2) 인쇄쪽 78–80 — 통계청 SGIS 100m 격자(인구주택총조사·전국사업체조사). 5명 미만은 비공개(–)"}},{"type":"Feature","geometry":{"type":"Polygon","coordinates":[[[129.21627164734414,35.841380408735304],[129.21737847325562,35.841364591862074],[129.21739790546783,35.84226580391333],[129.21629106704756,35.84228162130751],[129.21627164734414,35.841380408735304]]]},"properties":{"no":5,"code":"마마550619","pop_2018":28,"pop_2019":28,"pop_2020":28,"pop_2021":23,"pop_2022":28,"pop_2023":33,"pop_chg":5,"pop_chg_pct":17.9,"hh_2018":22,"hh_2019":21,"hh_2020":20,"hh_2021":17,"hh_2022":20,"hh_2023":21,"hh_chg":-1,"hh_chg_pct":-4.5,"biz_2018":25,"biz_2019":21,"biz_2020":28,"biz_2021":24,"biz_2022":24,"biz_2023":27,"biz_chg":2,"biz_chg_pct":8.0,"emp_2018":62,"emp_2019":56,"emp_2020":56,"emp_2021":41,"emp_2022":46,"emp_2023":50,"emp_chg":-12,"emp_chg_pct":-19.4,"house_2018":5,"house_2019":5,"house_2020":5,"house_2021":8,"house_2022":5,"house_2023":8,"house_chg":3,"house_chg_pct":60.0,"emp_per_biz_2023":1.9,"lbl":"33","source":"2024년 황오동 원도심(중심시가지형) 도시재생뉴딜사업 성과지표 및 모니터링 용역 결과보고서(수정중) — 공공도시, 2025.09 (T2) 인쇄쪽 78–80 — 통계청 SGIS 100m 격자(인구주택총조사·전국사업체조사). 5명 미만은 비공개(–)"}},{"type":"Feature","geometry":{"type":"Polygon","coordinates":[[[129.21737847325562,35.841364591862074],[129.21848529830433,35.84134876480085],[129.2185047430253,35.8422499763308],[129.21739790546783,35.84226580391333],[129.21737847325562,35.841364591862074]]]},"properties":{"no":6,"code":"마마551619","pop_2018":68,"pop_2019":54,"pop_2020":65,"pop_2021":55,"pop_2022":55,"pop_2023":43,"pop_chg":-25,"pop_chg_pct":-36.8,"hh_2018":37,"hh_2019":32,"hh_2020":36,"hh_2021":35,"hh_2022":31,"hh_2023":23,"hh_chg":-14,"hh_chg_pct":-37.8,"biz_2018":22,"biz_2019":23,"biz_2020":24,"biz_2021":27,"biz_2022":25,"biz_2023":28,"biz_chg":6,"biz_chg_pct":27.3,"emp_2018":41,"emp_2019":39,"emp_2020":32,"emp_2021":41,"emp_2022":37,"emp_2023":36,"emp_chg":-5,"emp_chg_pct":-12.2,"house_2018":16,"house_2019":21,"house_2020":17,"house_2021":16,"house_2022":15,"house_2023":19,"house_chg":3,"house_chg_pct":18.8,"emp_per_biz_2023":1.3,"lbl":"43","source":"2024년 황오동 원도심(중심시가지형) 도시재생뉴딜사업 성과지표 및 모니터링 용역 결과보고서(수정중) — 공공도시, 2025.09 (T2) 인쇄쪽 78–80 — 통계청 SGIS 100m 격자(인구주택총조사·전국사업체조사). 5명 미만은 비공개(–)"}},{"type":"Feature","geometry":{"type":"Polygon","coordinates":[[[129.21518422776506,35.84229742851334],[129.21629106704756,35.84228162130751],[129.2163104876132,35.843182833735156],[129.21520363582135,35.84319864146163],[129.21518422776506,35.84229742851334]]]},"properties":{"no":7,"code":"마마549620","pop_2018":83,"pop_2019":68,"pop_2020":70,"pop_2021":61,"pop_2022":51,"pop_2023":45,"pop_chg":-38,"pop_chg_pct":-45.8,"hh_2018":31,"hh_2019":23,"hh_2020":26,"hh_2021":23,"hh_2022":22,"hh_2023":21,"hh_chg":-10,"hh_chg_pct":-32.3,"biz_2018":34,"biz_2019":33,"biz_2020":40,"biz_2021":34,"biz_2022":35,"biz_2023":35,"biz_chg":1,"biz_chg_pct":2.9,"emp_2018":48,"emp_2019":42,"emp_2020":47,"emp_2021":45,"emp_2022":52,"emp_2023":44,"emp_chg":-4,"emp_chg_pct":-8.3,"house_2018":21,"house_2019":15,"house_2020":17,"house_2021":16,"house_2022":14,"house_2023":11,"house_chg":-10,"house_chg_pct":-47.6,"emp_per_biz_2023":1.3,"lbl":"45","source":"2024년 황오동 원도심(중심시가지형) 도시재생뉴딜사업 성과지표 및 모니터링 용역 결과보고서(수정중) — 공공도시, 2025.09 (T2) 인쇄쪽 78–80 — 통계청 SGIS 100m 격자(인구주택총조사·전국사업체조사). 5명 미만은 비공개(–)"}},{"type":"Feature","geometry":{"type":"Polygon","coordinates":[[[129.21629106704756,35.84228162130751],[129.21739790546783,35.84226580391333],[129.21741733854282,35.84316701581998],[129.2163104876132,35.843182833735156],[129.21629106704756,35.84228162130751]]]},"properties":{"no":8,"code":"마마550620","pop_2018":69,"pop_2019":59,"pop_2020":62,"pop_2021":55,"pop_2022":54,"pop_2023":63,"pop_chg":-6,"pop_chg_pct":-8.7,"hh_2018":34,"hh_2019":33,"hh_2020":32,"hh_2021":30,"hh_2022":27,"hh_2023":27,"hh_chg":-7,"hh_chg_pct":-20.6,"biz_2018":37,"biz_2019":36,"biz_2020":32,"biz_2021":32,"biz_2022":32,"biz_2023":35,"biz_chg":-2,"biz_chg_pct":-5.4,"emp_2018":67,"emp_2019":70,"emp_2020":56,"emp_2021":54,"emp_2022":53,"emp_2023":61,"emp_chg":-6,"emp_chg_pct":-9.0,"house_2018":20,"house_2019":20,"house_2020":20,"house_2021":20,"house_2022":21,"house_2023":21,"house_chg":1,"house_chg_pct":5.0,"emp_per_biz_2023":1.7,"lbl":"63","source":"2024년 황오동 원도심(중심시가지형) 도시재생뉴딜사업 성과지표 및 모니터링 용역 결과보고서(수정중) — 공공도시, 2025.09 (T2) 인쇄쪽 78–80 — 통계청 SGIS 100m 격자(인구주택총조사·전국사업체조사). 5명 미만은 비공개(–)"}},{"type":"Feature","geometry":{"type":"Polygon","coordinates":[[[129.21739790546783,35.84226580391333],[129.2185047430253,35.8422499763308],[129.21852418860962,35.843151187716146],[129.21741733854282,35.84316701581998],[129.21739790546783,35.84226580391333]]]},"properties":{"no":9,"code":"마마551620","pop_2018":43,"pop_2019":45,"pop_2020":48,"pop_2021":43,"pop_2022":43,"pop_2023":39,"pop_chg":-4,"pop_chg_pct":-9.3,"hh_2018":27,"hh_2019":33,"hh_2020":31,"hh_2021":27,"hh_2022":24,"hh_2023":22,"hh_chg":-5,"hh_chg_pct":-18.5,"biz_2018":27,"biz_2019":25,"biz_2020":29,"biz_2021":27,"biz_2022":27,"biz_2023":29,"biz_chg":2,"biz_chg_pct":7.4,"emp_2018":62,"emp_2019":77,"emp_2020":56,"emp_2021":48,"emp_2022":46,"emp_2023":49,"emp_chg":-13,"emp_chg_pct":-21.0,"house_2018":10,"house_2019":15,"house_2020":9,"house_2021":15,"house_2022":15,"house_2023":9,"house_chg":-1,"house_chg_pct":-10.0,"emp_per_biz_2023":1.7,"lbl":"39","source":"2024년 황오동 원도심(중심시가지형) 도시재생뉴딜사업 성과지표 및 모니터링 용역 결과보고서(수정중) — 공공도시, 2025.09 (T2) 인쇄쪽 78–80 — 통계청 SGIS 100m 격자(인구주택총조사·전국사업체조사). 5명 미만은 비공개(–)"}},{"type":"Feature","geometry":{"type":"Polygon","coordinates":[[[129.21520363582135,35.84319864146163],[129.2163104876132,35.843182833735156],[129.21632990904112,35.844084046018224],[129.2152230447393,35.84409985426536],[129.21520363582135,35.84319864146163]]]},"properties":{"no":10,"code":"마마549621","pop_2018":38,"pop_2019":38,"pop_2020":43,"pop_2021":33,"pop_2022":33,"pop_2023":38,"pop_chg":0,"pop_chg_pct":0.0,"hh_2018":24,"hh_2019":23,"hh_2020":23,"hh_2021":17,"hh_2022":19,"hh_2023":19,"hh_chg":-5,"hh_chg_pct":-20.8,"biz_2018":44,"biz_2019":42,"biz_2020":46,"biz_2021":43,"biz_2022":45,"biz_2023":40,"biz_chg":-4,"biz_chg_pct":-9.1,"emp_2018":61,"emp_2019":63,"emp_2020":57,"emp_2021":61,"emp_2022":63,"emp_2023":51,"emp_chg":-10,"emp_chg_pct":-16.4,"house_2018":17,"house_2019":13,"house_2020":13,"house_2021":16,"house_2022":13,"house_2023":8,"house_chg":-9,"house_chg_pct":-52.9,"emp_per_biz_2023":1.3,"lbl":"38","source":"2024년 황오동 원도심(중심시가지형) 도시재생뉴딜사업 성과지표 및 모니터링 용역 결과보고서(수정중) — 공공도시, 2025.09 (T2) 인쇄쪽 78–80 — 통계청 SGIS 100m 격자(인구주택총조사·전국사업체조사). 5명 미만은 비공개(–)"}},{"type":"Feature","geometry":{"type":"Polygon","coordinates":[[[129.2163104876132,35.843182833735156],[129.21741733854282,35.84316701581998],[129.21743677248065,35.84406822758206],[129.21632990904112,35.844084046018224],[129.2163104876132,35.843182833735156]]]},"properties":{"no":11,"code":"마마550621","pop_2018":13,"pop_2019":13,"pop_2020":18,"pop_2021":18,"pop_2022":13,"pop_2023":18,"pop_chg":5,"pop_chg_pct":38.5,"hh_2018":12,"hh_2019":8,"hh_2020":14,"hh_2021":11,"hh_2022":12,"hh_2023":12,"hh_chg":0,"hh_chg_pct":0.0,"biz_2018":14,"biz_2019":11,"biz_2020":14,"biz_2021":11,"biz_2022":11,"biz_2023":11,"biz_chg":-3,"biz_chg_pct":-21.4,"emp_2018":81,"emp_2019":81,"emp_2020":59,"emp_2021":68,"emp_2022":60,"emp_2023":48,"emp_chg":-33,"emp_chg_pct":-40.7,"house_2018":8,"house_2019":8,"house_2020":8,"house_2021":8,"house_2022":5,"house_2023":5,"house_chg":-3,"house_chg_pct":-37.5,"emp_per_biz_2023":4.4,"lbl":"18","source":"2024년 황오동 원도심(중심시가지형) 도시재생뉴딜사업 성과지표 및 모니터링 용역 결과보고서(수정중) — 공공도시, 2025.09 (T2) 인쇄쪽 78–80 — 통계청 SGIS 100m 격자(인구주택총조사·전국사업체조사). 5명 미만은 비공개(–)"}},{"type":"Feature","geometry":{"type":"Polygon","coordinates":[[[129.21741733854282,35.84316701581998],[129.21852418860962,35.843151187716146],[129.2185436350573,35.84405239895692],[129.21743677248065,35.84406822758206],[129.21741733854282,35.84316701581998]]]},"properties":{"no":12,"code":"마마551621","pop_2018":8,"pop_2019":5,"pop_2020":8,"pop_2021":5,"pop_2022":5,"pop_2023":5,"pop_chg":-3,"pop_chg_pct":-37.5,"hh_2018":5,"hh_2019":5,"hh_2020":5,"hh_2021":0,"hh_2022":5,"hh_2023":5,"hh_chg":0,"hh_chg_pct":0.0,"biz_2018":10,"biz_2019":9,"biz_2020":15,"biz_2021":14,"biz_2022":12,"biz_2023":10,"biz_chg":0,"biz_chg_pct":0.0,"emp_2018":22,"emp_2019":16,"emp_2020":17,"emp_2021":20,"emp_2022":21,"emp_2023":10,"emp_chg":-12,"emp_chg_pct":-54.5,"house_2018":0,"house_2019":0,"house_2020":0,"house_2021":0,"house_2022":0,"house_2023":0,"house_chg":0,"house_chg_pct":null,"emp_per_biz_2023":1.0,"lbl":"5","source":"2024년 황오동 원도심(중심시가지형) 도시재생뉴딜사업 성과지표 및 모니터링 용역 결과보고서(수정중) — 공공도시, 2025.09 (T2) 인쇄쪽 78–80 — 통계청 SGIS 100m 격자(인구주택총조사·전국사업체조사). 5명 미만은 비공개(–)"}},{"type":"Feature","geometry":{"type":"Polygon","coordinates":[[[129.21411617957574,35.84411565232343],[129.2152230447393,35.84409985426536],[129.21524245451903,35.84500106692452],[129.21413557684494,35.84501686550293],[129.21411617957574,35.84411565232343]]]},"properties":{"no":13,"code":"마마548622","pop_2018":13,"pop_2019":18,"pop_2020":18,"pop_2021":13,"pop_2022":13,"pop_2023":23,"pop_chg":10,"pop_chg_pct":76.9,"hh_2018":13,"hh_2019":11,"hh_2020":8,"hh_2021":11,"hh_2022":8,"hh_2023":8,"hh_chg":-5,"hh_chg_pct":-38.5,"biz_2018":43,"biz_2019":41,"biz_2020":58,"biz_2021":57,"biz_2022":54,"biz_2023":52,"biz_chg":9,"biz_chg_pct":20.9,"emp_2018":816,"emp_2019":718,"emp_2020":649,"emp_2021":763,"emp_2022":821,"emp_2023":649,"emp_chg":-167,"emp_chg_pct":-20.5,"house_2018":5,"house_2019":5,"house_2020":5,"house_2021":5,"house_2022":5,"house_2023":5,"house_chg":0,"house_chg_pct":0.0,"emp_per_biz_2023":12.5,"lbl":"23","source":"2024년 황오동 원도심(중심시가지형) 도시재생뉴딜사업 성과지표 및 모니터링 용역 결과보고서(수정중) — 공공도시, 2025.09 (T2) 인쇄쪽 78–80 — 통계청 SGIS 100m 격자(인구주택총조사·전국사업체조사). 5명 미만은 비공개(–)"}},{"type":"Feature","geometry":{"type":"Polygon","coordinates":[[[129.2152230447393,35.84409985426536],[129.21632990904112,35.844084046018224],[129.21634933133134,35.844985258156726],[129.21524245451903,35.84500106692452],[129.2152230447393,35.84409985426536]]]},"properties":{"no":14,"code":"마마549622","pop_2018":50,"pop_2019":43,"pop_2020":38,"pop_2021":40,"pop_2022":37,"pop_2023":33,"pop_chg":-17,"pop_chg_pct":-34.0,"hh_2018":21,"hh_2019":18,"hh_2020":19,"hh_2021":21,"hh_2022":20,"hh_2023":19,"hh_chg":-2,"hh_chg_pct":-9.5,"biz_2018":41,"biz_2019":39,"biz_2020":39,"biz_2021":62,"biz_2022":58,"biz_2023":57,"biz_chg":16,"biz_chg_pct":39.0,"emp_2018":351,"emp_2019":355,"emp_2020":184,"emp_2021":215,"emp_2022":202,"emp_2023":214,"emp_chg":-137,"emp_chg_pct":-39.0,"house_2018":16,"house_2019":22,"house_2020":17,"house_2021":19,"house_2022":18,"house_2023":17,"house_chg":1,"house_chg_pct":6.2,"emp_per_biz_2023":3.8,"lbl":"33","source":"2024년 황오동 원도심(중심시가지형) 도시재생뉴딜사업 성과지표 및 모니터링 용역 결과보고서(수정중) — 공공도시, 2025.09 (T2) 인쇄쪽 78–80 — 통계청 SGIS 100m 격자(인구주택총조사·전국사업체조사). 5명 미만은 비공개(–)"}},{"type":"Feature","geometry":{"type":"Polygon","coordinates":[[[129.21632990904112,35.844084046018224],[129.21743677248065,35.84406822758206],[129.21745620728132,35.84496943919957],[129.21634933133134,35.844985258156726],[129.21632990904112,35.844084046018224]]]},"properties":{"no":15,"code":"마마550622","pop_2018":55,"pop_2019":54,"pop_2020":43,"pop_2021":38,"pop_2022":33,"pop_2023":28,"pop_chg":-27,"pop_chg_pct":-49.1,"hh_2018":19,"hh_2019":19,"hh_2020":20,"hh_2021":15,"hh_2022":17,"hh_2023":12,"hh_chg":-7,"hh_chg_pct":-36.8,"biz_2018":24,"biz_2019":24,"biz_2020":24,"biz_2021":48,"biz_2022":44,"biz_2023":37,"biz_chg":13,"biz_chg_pct":54.2,"emp_2018":140,"emp_2019":170,"emp_2020":121,"emp_2021":150,"emp_2022":158,"emp_2023":174,"emp_chg":34,"emp_chg_pct":24.3,"house_2018":20,"house_2019":20,"house_2020":19,"house_2021":19,"house_2022":19,"house_2023":17,"house_chg":-3,"house_chg_pct":-15.0,"emp_per_biz_2023":4.7,"lbl":"28","source":"2024년 황오동 원도심(중심시가지형) 도시재생뉴딜사업 성과지표 및 모니터링 용역 결과보고서(수정중) — 공공도시, 2025.09 (T2) 인쇄쪽 78–80 — 통계청 SGIS 100m 격자(인구주택총조사·전국사업체조사). 5명 미만은 비공개(–)"}},{"type":"Feature","geometry":{"type":"Polygon","coordinates":[[[129.21743677248065,35.84406822758206],[129.2185436350573,35.84405239895692],[129.2185630823684,35.84495361005308],[129.21745620728132,35.84496943919957],[129.21743677248065,35.84406822758206]]]},"properties":{"no":16,"code":"마마551622","pop_2018":null,"pop_2019":null,"pop_2020":null,"pop_2021":null,"pop_2022":null,"pop_2023":null,"pop_chg":0,"pop_chg_pct":null,"hh_2018":null,"hh_2019":null,"hh_2020":null,"hh_2021":null,"hh_2022":null,"hh_2023":null,"hh_chg":0,"hh_chg_pct":null,"biz_2018":5,"biz_2019":5,"biz_2020":8,"biz_2021":3,"biz_2022":3,"biz_2023":3,"biz_chg":-2,"biz_chg_pct":-40.0,"emp_2018":66,"emp_2019":67,"emp_2020":100,"emp_2021":58,"emp_2022":42,"emp_2023":16,"emp_chg":-50,"emp_chg_pct":-75.8,"house_2018":null,"house_2019":null,"house_2020":null,"house_2021":null,"house_2022":null,"house_2023":null,"house_chg":0,"house_chg_pct":null,"emp_per_biz_2023":5.3,"lbl":"–","source":"2024년 황오동 원도심(중심시가지형) 도시재생뉴딜사업 성과지표 및 모니터링 용역 결과보고서(수정중) — 공공도시, 2025.09 (T2) 인쇄쪽 78–80 — 통계청 SGIS 100m 격자(인구주택총조사·전국사업체조사). 5명 미만은 비공개(–)"}},{"type":"Feature","geometry":{"type":"Polygon","coordinates":[[[129.21413557684494,35.84501686550293],[129.21524245451903,35.84500106692452],[129.21526186516056,35.84590227943911],[129.21415497497537,35.84591807853786],[129.21413557684494,35.84501686550293]]]},"properties":{"no":17,"code":"마마548623","pop_2018":23,"pop_2019":28,"pop_2020":18,"pop_2021":18,"pop_2022":23,"pop_2023":18,"pop_chg":-5,"pop_chg_pct":-21.7,"hh_2018":19,"hh_2019":19,"hh_2020":15,"hh_2021":13,"hh_2022":14,"hh_2023":16,"hh_chg":-3,"hh_chg_pct":-15.8,"biz_2018":25,"biz_2019":24,"biz_2020":22,"biz_2021":19,"biz_2022":18,"biz_2023":22,"biz_chg":-3,"biz_chg_pct":-12.0,"emp_2018":100,"emp_2019":100,"emp_2020":90,"emp_2021":88,"emp_2022":76,"emp_2023":63,"emp_chg":-37,"emp_chg_pct":-37.0,"house_2018":5,"house_2019":5,"house_2020":5,"house_2021":8,"house_2022":5,"house_2023":5,"house_chg":0,"house_chg_pct":0.0,"emp_per_biz_2023":2.9,"lbl":"18","source":"2024년 황오동 원도심(중심시가지형) 도시재생뉴딜사업 성과지표 및 모니터링 용역 결과보고서(수정중) — 공공도시, 2025.09 (T2) 인쇄쪽 78–80 — 통계청 SGIS 100m 격자(인구주택총조사·전국사업체조사). 5명 미만은 비공개(–)"}},{"type":"Feature","geometry":{"type":"Polygon","coordinates":[[[129.21524245451903,35.84500106692452],[129.21634933133134,35.844985258156726],[129.2163687544839,35.84588647015065],[129.21526186516056,35.84590227943911],[129.21524245451903,35.84500106692452]]]},"properties":{"no":18,"code":"마마549623","pop_2018":33,"pop_2019":28,"pop_2020":23,"pop_2021":28,"pop_2022":18,"pop_2023":13,"pop_chg":-20,"pop_chg_pct":-60.6,"hh_2018":13,"hh_2019":11,"hh_2020":11,"hh_2021":13,"hh_2022":8,"hh_2023":8,"hh_chg":-5,"hh_chg_pct":-38.5,"biz_2018":264,"biz_2019":258,"biz_2020":255,"biz_2021":188,"biz_2022":183,"biz_2023":160,"biz_chg":-104,"biz_chg_pct":-39.4,"emp_2018":394,"emp_2019":391,"emp_2020":328,"emp_2021":237,"emp_2022":235,"emp_2023":194,"emp_chg":-200,"emp_chg_pct":-50.8,"house_2018":11,"house_2019":10,"house_2020":9,"house_2021":15,"house_2022":9,"house_2023":6,"house_chg":-5,"house_chg_pct":-45.5,"emp_per_biz_2023":1.2,"lbl":"13","source":"2024년 황오동 원도심(중심시가지형) 도시재생뉴딜사업 성과지표 및 모니터링 용역 결과보고서(수정중) — 공공도시, 2025.09 (T2) 인쇄쪽 78–80 — 통계청 SGIS 100m 격자(인구주택총조사·전국사업체조사). 5명 미만은 비공개(–)"}},{"type":"Feature","geometry":{"type":"Polygon","coordinates":[[[129.21634933133134,35.844985258156726],[129.21745620728132,35.84496943919957],[129.2174756429449,35.845870650672474],[129.2163687544839,35.84588647015065],[129.21634933133134,35.844985258156726]]]},"properties":{"no":19,"code":"마마550623","pop_2018":55,"pop_2019":54,"pop_2020":44,"pop_2021":43,"pop_2022":39,"pop_2023":33,"pop_chg":-22,"pop_chg_pct":-40.0,"hh_2018":22,"hh_2019":21,"hh_2020":20,"hh_2021":19,"hh_2022":18,"hh_2023":13,"hh_chg":-9,"hh_chg_pct":-40.9,"biz_2018":56,"biz_2019":48,"biz_2020":73,"biz_2021":87,"biz_2022":95,"biz_2023":91,"biz_chg":35,"biz_chg_pct":62.5,"emp_2018":162,"emp_2019":149,"emp_2020":153,"emp_2021":194,"emp_2022":169,"emp_2023":169,"emp_chg":7,"emp_chg_pct":4.3,"house_2018":18,"house_2019":14,"house_2020":19,"house_2021":14,"house_2022":14,"house_2023":10,"house_chg":-8,"house_chg_pct":-44.4,"emp_per_biz_2023":1.9,"lbl":"33","source":"2024년 황오동 원도심(중심시가지형) 도시재생뉴딜사업 성과지표 및 모니터링 용역 결과보고서(수정중) — 공공도시, 2025.09 (T2) 인쇄쪽 78–80 — 통계청 SGIS 100m 격자(인구주택총조사·전국사업체조사). 5명 미만은 비공개(–)"}},{"type":"Feature","geometry":{"type":"Polygon","coordinates":[[[129.21745620728132,35.84496943919957],[129.2185630823684,35.84495361005308],[129.21858253054293,35.84585482100464],[129.2174756429449,35.845870650672474],[129.21745620728132,35.84496943919957]]]},"properties":{"no":20,"code":"마마551623","pop_2018":5,"pop_2019":null,"pop_2020":null,"pop_2021":5,"pop_2022":5,"pop_2023":5,"pop_chg":0,"pop_chg_pct":0.0,"hh_2018":0,"hh_2019":null,"hh_2020":null,"hh_2021":5,"hh_2022":0,"hh_2023":0,"hh_chg":0,"hh_chg_pct":null,"biz_2018":15,"biz_2019":16,"biz_2020":19,"biz_2021":16,"biz_2022":16,"biz_2023":15,"biz_chg":0,"biz_chg_pct":0.0,"emp_2018":85,"emp_2019":71,"emp_2020":76,"emp_2021":68,"emp_2022":63,"emp_2023":66,"emp_chg":-19,"emp_chg_pct":-22.4,"house_2018":5,"house_2019":null,"house_2020":null,"house_2021":null,"house_2022":null,"house_2023":null,"house_chg":-5,"house_chg_pct":-100.0,"emp_per_biz_2023":4.4,"lbl":"5","source":"2024년 황오동 원도심(중심시가지형) 도시재생뉴딜사업 성과지표 및 모니터링 용역 결과보고서(수정중) — 공공도시, 2025.09 (T2) 인쇄쪽 78–80 — 통계청 SGIS 100m 격자(인구주택총조사·전국사업체조사). 5명 미만은 비공개(–)"}},{"type":"Feature","geometry":{"type":"Polygon","coordinates":[[[129.21415497497537,35.84591807853786],[129.21526186516056,35.84590227943911],[129.21528127666392,35.84680349180917],[129.21417437396707,35.84681929142826],[129.21415497497537,35.84591807853786]]]},"properties":{"no":21,"code":"마마548624","pop_2018":147,"pop_2019":151,"pop_2020":153,"pop_2021":151,"pop_2022":144,"pop_2023":165,"pop_chg":18,"pop_chg_pct":12.2,"hh_2018":84,"hh_2019":87,"hh_2020":86,"hh_2021":95,"hh_2022":92,"hh_2023":93,"hh_chg":9,"hh_chg_pct":10.7,"biz_2018":12,"biz_2019":13,"biz_2020":17,"biz_2021":12,"biz_2022":12,"biz_2023":13,"biz_chg":1,"biz_chg_pct":8.3,"emp_2018":30,"emp_2019":24,"emp_2020":25,"emp_2021":22,"emp_2022":26,"emp_2023":18,"emp_chg":-12,"emp_chg_pct":-40.0,"house_2018":38,"house_2019":38,"house_2020":38,"house_2021":38,"house_2022":38,"house_2023":38,"house_chg":0,"house_chg_pct":0.0,"emp_per_biz_2023":1.4,"lbl":"165","source":"2024년 황오동 원도심(중심시가지형) 도시재생뉴딜사업 성과지표 및 모니터링 용역 결과보고서(수정중) — 공공도시, 2025.09 (T2) 인쇄쪽 78–80 — 통계청 SGIS 100m 격자(인구주택총조사·전국사업체조사). 5명 미만은 비공개(–)"}},{"type":"Feature","geometry":{"type":"Polygon","coordinates":[[[129.21526186516056,35.84590227943911],[129.2163687544839,35.84588647015065],[129.21638817849885,35.846787682000006],[129.21528127666392,35.84680349180917],[129.21526186516056,35.84590227943911]]]},"properties":{"no":22,"code":"마마549624","pop_2018":59,"pop_2019":48,"pop_2020":48,"pop_2021":53,"pop_2022":56,"pop_2023":59,"pop_chg":0,"pop_chg_pct":0.0,"hh_2018":30,"hh_2019":26,"hh_2020":30,"hh_2021":32,"hh_2022":34,"hh_2023":34,"hh_chg":4,"hh_chg_pct":13.3,"biz_2018":39,"biz_2019":39,"biz_2020":46,"biz_2021":43,"biz_2022":38,"biz_2023":44,"biz_chg":5,"biz_chg_pct":12.8,"emp_2018":89,"emp_2019":90,"emp_2020":83,"emp_2021":89,"emp_2022":67,"emp_2023":68,"emp_chg":-21,"emp_chg_pct":-23.6,"house_2018":15,"house_2019":15,"house_2020":16,"house_2021":16,"house_2022":16,"house_2023":15,"house_chg":0,"house_chg_pct":0.0,"emp_per_biz_2023":1.5,"lbl":"59","source":"2024년 황오동 원도심(중심시가지형) 도시재생뉴딜사업 성과지표 및 모니터링 용역 결과보고서(수정중) — 공공도시, 2025.09 (T2) 인쇄쪽 78–80 — 통계청 SGIS 100m 격자(인구주택총조사·전국사업체조사). 5명 미만은 비공개(–)"}},{"type":"Feature","geometry":{"type":"Polygon","coordinates":[[[129.2163687544839,35.84588647015065],[129.2174756429449,35.845870650672474],[129.21749507947143,35.846771862000814],[129.21638817849885,35.846787682000006],[129.2163687544839,35.84588647015065]]]},"properties":{"no":23,"code":"마마550624","pop_2018":59,"pop_2019":60,"pop_2020":45,"pop_2021":48,"pop_2022":50,"pop_2023":50,"pop_chg":-9,"pop_chg_pct":-15.3,"hh_2018":25,"hh_2019":26,"hh_2020":24,"hh_2021":25,"hh_2022":21,"hh_2023":23,"hh_chg":-2,"hh_chg_pct":-8.0,"biz_2018":28,"biz_2019":29,"biz_2020":31,"biz_2021":32,"biz_2022":32,"biz_2023":28,"biz_chg":0,"biz_chg_pct":0.0,"emp_2018":73,"emp_2019":75,"emp_2020":74,"emp_2021":72,"emp_2022":75,"emp_2023":68,"emp_chg":-5,"emp_chg_pct":-6.8,"house_2018":21,"house_2019":20,"house_2020":19,"house_2021":21,"house_2022":21,"house_2023":21,"house_chg":0,"house_chg_pct":0.0,"emp_per_biz_2023":2.4,"lbl":"50","source":"2024년 황오동 원도심(중심시가지형) 도시재생뉴딜사업 성과지표 및 모니터링 용역 결과보고서(수정중) — 공공도시, 2025.09 (T2) 인쇄쪽 78–80 — 통계청 SGIS 100m 격자(인구주택총조사·전국사업체조사). 5명 미만은 비공개(–)"}},{"type":"Feature","geometry":{"type":"Polygon","coordinates":[[[129.2174756429449,35.845870650672474],[129.21858253054293,35.84585482100464],[129.218601979581,35.84675603181162],[129.21749507947143,35.846771862000814],[129.2174756429449,35.845870650672474]]]},"properties":{"no":24,"code":"마마551624","pop_2018":5,"pop_2019":8,"pop_2020":5,"pop_2021":5,"pop_2022":5,"pop_2023":5,"pop_chg":0,"pop_chg_pct":0.0,"hh_2018":0,"hh_2019":0,"hh_2020":0,"hh_2021":0,"hh_2022":0,"hh_2023":0,"hh_chg":0,"hh_chg_pct":null,"biz_2018":13,"biz_2019":11,"biz_2020":11,"biz_2021":11,"biz_2022":11,"biz_2023":11,"biz_chg":-2,"biz_chg_pct":-15.4,"emp_2018":28,"emp_2019":20,"emp_2020":24,"emp_2021":25,"emp_2022":24,"emp_2023":33,"emp_chg":5,"emp_chg_pct":17.9,"house_2018":null,"house_2019":null,"house_2020":null,"house_2021":null,"house_2022":null,"house_2023":null,"house_chg":0,"house_chg_pct":null,"emp_per_biz_2023":3.0,"lbl":"5","source":"2024년 황오동 원도심(중심시가지형) 도시재생뉴딜사업 성과지표 및 모니터링 용역 결과보고서(수정중) — 공공도시, 2025.09 (T2) 인쇄쪽 78–80 — 통계청 SGIS 100m 격자(인구주택총조사·전국사업체조사). 5명 미만은 비공개(–)"}},{"type":"Feature","geometry":{"type":"Polygon","coordinates":[[[129.21417437396707,35.84681929142826],[129.21528127666392,35.84680349180917],[129.2153006890291,35.84770470403463],[129.21419377382006,35.84772050417409],[129.21417437396707,35.84681929142826]]]},"properties":{"no":25,"code":"마마548625","pop_2018":196,"pop_2019":173,"pop_2020":168,"pop_2021":180,"pop_2022":177,"pop_2023":186,"pop_chg":-10,"pop_chg_pct":-5.1,"hh_2018":85,"hh_2019":79,"hh_2020":76,"hh_2021":84,"hh_2022":82,"hh_2023":88,"hh_chg":3,"hh_chg_pct":3.5,"biz_2018":17,"biz_2019":20,"biz_2020":24,"biz_2021":21,"biz_2022":21,"biz_2023":18,"biz_chg":1,"biz_chg_pct":5.9,"emp_2018":38,"emp_2019":57,"emp_2020":49,"emp_2021":41,"emp_2022":45,"emp_2023":41,"emp_chg":3,"emp_chg_pct":7.9,"house_2018":70,"house_2019":61,"house_2020":55,"house_2021":63,"house_2022":62,"house_2023":63,"house_chg":-7,"house_chg_pct":-10.0,"emp_per_biz_2023":2.3,"lbl":"186","source":"2024년 황오동 원도심(중심시가지형) 도시재생뉴딜사업 성과지표 및 모니터링 용역 결과보고서(수정중) — 공공도시, 2025.09 (T2) 인쇄쪽 78–80 — 통계청 SGIS 100m 격자(인구주택총조사·전국사업체조사). 5명 미만은 비공개(–)"}},{"type":"Feature","geometry":{"type":"Polygon","coordinates":[[[129.21528127666392,35.84680349180917],[129.21638817849885,35.846787682000006],[129.21640760337624,35.84768889370478],[129.2153006890291,35.84770470403463],[129.21528127666392,35.84680349180917]]]},"properties":{"no":26,"code":"마마549625","pop_2018":112,"pop_2019":97,"pop_2020":90,"pop_2021":87,"pop_2022":83,"pop_2023":78,"pop_chg":-34,"pop_chg_pct":-30.4,"hh_2018":55,"hh_2019":54,"hh_2020":48,"hh_2021":45,"hh_2022":44,"hh_2023":44,"hh_chg":-11,"hh_chg_pct":-20.0,"biz_2018":21,"biz_2019":20,"biz_2020":25,"biz_2021":25,"biz_2022":24,"biz_2023":18,"biz_chg":-3,"biz_chg_pct":-14.3,"emp_2018":62,"emp_2019":80,"emp_2020":86,"emp_2021":81,"emp_2022":63,"emp_2023":51,"emp_chg":-11,"emp_chg_pct":-17.7,"house_2018":35,"house_2019":34,"house_2020":34,"house_2021":34,"house_2022":34,"house_2023":34,"house_chg":-1,"house_chg_pct":-2.9,"emp_per_biz_2023":2.8,"lbl":"78","source":"2024년 황오동 원도심(중심시가지형) 도시재생뉴딜사업 성과지표 및 모니터링 용역 결과보고서(수정중) — 공공도시, 2025.09 (T2) 인쇄쪽 78–80 — 통계청 SGIS 100m 격자(인구주택총조사·전국사업체조사). 5명 미만은 비공개(–)"}},{"type":"Feature","geometry":{"type":"Polygon","coordinates":[[[129.21638817849885,35.846787682000006],[129.21749507947143,35.846771862000814],[129.2175145168609,35.84767307318456],[129.21640760337624,35.84768889370478],[129.21638817849885,35.846787682000006]]]},"properties":{"no":27,"code":"마마550625","pop_2018":63,"pop_2019":70,"pop_2020":63,"pop_2021":58,"pop_2022":45,"pop_2023":48,"pop_chg":-15,"pop_chg_pct":-23.8,"hh_2018":36,"hh_2019":31,"hh_2020":35,"hh_2021":35,"hh_2022":31,"hh_2023":32,"hh_chg":-4,"hh_chg_pct":-11.1,"biz_2018":25,"biz_2019":25,"biz_2020":30,"biz_2021":28,"biz_2022":26,"biz_2023":26,"biz_chg":1,"biz_chg_pct":4.0,"emp_2018":147,"emp_2019":150,"emp_2020":208,"emp_2021":158,"emp_2022":127,"emp_2023":124,"emp_chg":-23,"emp_chg_pct":-15.6,"house_2018":16,"house_2019":15,"house_2020":15,"house_2021":15,"house_2022":15,"house_2023":14,"house_chg":-2,"house_chg_pct":-12.5,"emp_per_biz_2023":4.8,"lbl":"48","source":"2024년 황오동 원도심(중심시가지형) 도시재생뉴딜사업 성과지표 및 모니터링 용역 결과보고서(수정중) — 공공도시, 2025.09 (T2) 인쇄쪽 78–80 — 통계청 SGIS 100m 격자(인구주택총조사·전국사업체조사). 5명 미만은 비공개(–)"}},{"type":"Feature","geometry":{"type":"Polygon","coordinates":[[[129.21749507947143,35.846771862000814],[129.218601979581,35.84675603181162],[129.21862142948257,35.847657242473986],[129.2175145168609,35.84767307318456],[129.21749507947143,35.846771862000814]]]},"properties":{"no":28,"code":"마마551625","pop_2018":13,"pop_2019":13,"pop_2020":13,"pop_2021":8,"pop_2022":8,"pop_2023":13,"pop_chg":0,"pop_chg_pct":0.0,"hh_2018":8,"hh_2019":5,"hh_2020":8,"hh_2021":8,"hh_2022":5,"hh_2023":5,"hh_chg":-3,"hh_chg_pct":-37.5,"biz_2018":12,"biz_2019":11,"biz_2020":10,"biz_2021":9,"biz_2022":10,"biz_2023":13,"biz_chg":1,"biz_chg_pct":8.3,"emp_2018":25,"emp_2019":27,"emp_2020":23,"emp_2021":20,"emp_2022":37,"emp_2023":45,"emp_chg":20,"emp_chg_pct":80.0,"house_2018":5,"house_2019":5,"house_2020":5,"house_2021":5,"house_2022":5,"house_2023":5,"house_chg":0,"house_chg_pct":0.0,"emp_per_biz_2023":3.5,"lbl":"13","source":"2024년 황오동 원도심(중심시가지형) 도시재생뉴딜사업 성과지표 및 모니터링 용역 결과보고서(수정중) — 공공도시, 2025.09 (T2) 인쇄쪽 78–80 — 통계청 SGIS 100m 격자(인구주택총조사·전국사업체조사). 5명 미만은 비공개(–)"}},{"type":"Feature","geometry":{"type":"Polygon","coordinates":[[[129.21419377382006,35.84772050417409],[129.2153006890291,35.84770470403463],[129.21532010225621,35.84860591611554],[129.21421317453442,35.848621716775384],[129.21419377382006,35.84772050417409]]]},"properties":{"no":29,"code":"마마548626","pop_2018":100,"pop_2019":109,"pop_2020":104,"pop_2021":91,"pop_2022":100,"pop_2023":89,"pop_chg":-11,"pop_chg_pct":-11.0,"hh_2018":56,"hh_2019":56,"hh_2020":55,"hh_2021":55,"hh_2022":59,"hh_2023":54,"hh_chg":-2,"hh_chg_pct":-3.6,"biz_2018":3,"biz_2019":3,"biz_2020":3,"biz_2021":5,"biz_2022":5,"biz_2023":5,"biz_chg":2,"biz_chg_pct":66.7,"emp_2018":8,"emp_2019":10,"emp_2020":5,"emp_2021":5,"emp_2022":9,"emp_2023":9,"emp_chg":1,"emp_chg_pct":12.5,"house_2018":31,"house_2019":30,"house_2020":28,"house_2021":28,"house_2022":29,"house_2023":28,"house_chg":-3,"house_chg_pct":-9.7,"emp_per_biz_2023":1.8,"lbl":"89","source":"2024년 황오동 원도심(중심시가지형) 도시재생뉴딜사업 성과지표 및 모니터링 용역 결과보고서(수정중) — 공공도시, 2025.09 (T2) 인쇄쪽 78–80 — 통계청 SGIS 100m 격자(인구주택총조사·전국사업체조사). 5명 미만은 비공개(–)"}},{"type":"Feature","geometry":{"type":"Polygon","coordinates":[[[129.2153006890291,35.84770470403463],[129.21640760337624,35.84768889370478],[129.21642702911606,35.848590105264975],[129.21532010225621,35.84860591611554],[129.2153006890291,35.84770470403463]]]},"properties":{"no":30,"code":"마마549626","pop_2018":119,"pop_2019":117,"pop_2020":121,"pop_2021":118,"pop_2022":108,"pop_2023":115,"pop_chg":-4,"pop_chg_pct":-3.4,"hh_2018":65,"hh_2019":69,"hh_2020":74,"hh_2021":72,"hh_2022":63,"hh_2023":66,"hh_chg":1,"hh_chg_pct":1.5,"biz_2018":3,"biz_2019":3,"biz_2020":5,"biz_2021":8,"biz_2022":8,"biz_2023":8,"biz_chg":5,"biz_chg_pct":166.7,"emp_2018":5,"emp_2019":4,"emp_2020":5,"emp_2021":8,"emp_2022":8,"emp_2023":9,"emp_chg":4,"emp_chg_pct":80.0,"house_2018":27,"house_2019":26,"house_2020":26,"house_2021":26,"house_2022":26,"house_2023":25,"house_chg":-2,"house_chg_pct":-7.4,"emp_per_biz_2023":1.1,"lbl":"115","source":"2024년 황오동 원도심(중심시가지형) 도시재생뉴딜사업 성과지표 및 모니터링 용역 결과보고서(수정중) — 공공도시, 2025.09 (T2) 인쇄쪽 78–80 — 통계청 SGIS 100m 격자(인구주택총조사·전국사업체조사). 5명 미만은 비공개(–)"}},{"type":"Feature","geometry":{"type":"Polygon","coordinates":[[[129.21640760337624,35.84768889370478],[129.2175145168609,35.84767307318456],[129.21753395511342,35.84857428422371],[129.21642702911606,35.848590105264975],[129.21640760337624,35.84768889370478]]]},"properties":{"no":31,"code":"마마550626","pop_2018":38,"pop_2019":43,"pop_2020":33,"pop_2021":33,"pop_2022":33,"pop_2023":28,"pop_chg":-10,"pop_chg_pct":-26.3,"hh_2018":18,"hh_2019":20,"hh_2020":16,"hh_2021":17,"hh_2022":15,"hh_2023":15,"hh_chg":-3,"hh_chg_pct":-16.7,"biz_2018":16,"biz_2019":17,"biz_2020":16,"biz_2021":18,"biz_2022":18,"biz_2023":16,"biz_chg":0,"biz_chg_pct":0.0,"emp_2018":44,"emp_2019":61,"emp_2020":60,"emp_2021":57,"emp_2022":57,"emp_2023":37,"emp_chg":-7,"emp_chg_pct":-15.9,"house_2018":13,"house_2019":13,"house_2020":13,"house_2021":8,"house_2022":8,"house_2023":8,"house_chg":-5,"house_chg_pct":-38.5,"emp_per_biz_2023":2.3,"lbl":"28","source":"2024년 황오동 원도심(중심시가지형) 도시재생뉴딜사업 성과지표 및 모니터링 용역 결과보고서(수정중) — 공공도시, 2025.09 (T2) 인쇄쪽 78–80 — 통계청 SGIS 100m 격자(인구주택총조사·전국사업체조사). 5명 미만은 비공개(–)"}},{"type":"Feature","geometry":{"type":"Polygon","coordinates":[[[129.2175145168609,35.84767307318456],[129.21862142948257,35.847657242473986],[129.21864088024768,35.84855845299176],[129.21753395511342,35.84857428422371],[129.2175145168609,35.84767307318456]]]},"properties":{"no":32,"code":"마마551626","pop_2018":33,"pop_2019":34,"pop_2020":34,"pop_2021":28,"pop_2022":29,"pop_2023":34,"pop_chg":1,"pop_chg_pct":3.0,"hh_2018":17,"hh_2019":15,"hh_2020":20,"hh_2021":17,"hh_2022":18,"hh_2023":15,"hh_chg":-2,"hh_chg_pct":-11.8,"biz_2018":8,"biz_2019":9,"biz_2020":9,"biz_2021":8,"biz_2022":8,"biz_2023":8,"biz_chg":0,"biz_chg_pct":0.0,"emp_2018":106,"emp_2019":49,"emp_2020":48,"emp_2021":43,"emp_2022":44,"emp_2023":37,"emp_chg":-69,"emp_chg_pct":-65.1,"house_2018":14,"house_2019":14,"house_2020":14,"house_2021":13,"house_2022":8,"house_2023":13,"house_chg":-1,"house_chg_pct":-7.1,"emp_per_biz_2023":4.6,"lbl":"34","source":"2024년 황오동 원도심(중심시가지형) 도시재생뉴딜사업 성과지표 및 모니터링 용역 결과보고서(수정중) — 공공도시, 2025.09 (T2) 인쇄쪽 78–80 — 통계청 SGIS 100m 격자(인구주택총조사·전국사업체조사). 5명 미만은 비공개(–)"}}]}