{"type":"FeatureCollection","features":[{"type":"Feature","geometry":{"type":"Point","coordinates":[129.217632,35.847383]},"properties":{"kind":"창업","name":"블리비의원","upjong":"의원","uptae":"의원","group":"생활서비스·의료","lic_date":"2024.11.05","close_date":null,"status":"영업","addr":"성동동 129-1","dur_days":null,"age_at_close":null,"popup":false,"popup_site":null,"cls":"창업(영업 중)","lbl":"블리비의원","geocode":"V-World PARCEL","source":"2024년 황오동 원도심(중심시가지형) 도시재생뉴딜사업 성과지표 및 모니터링 용역 결과보고서(수정중) — 공공도시, 2025.09 (T2) 인쇄쪽 82–85 (행정안전부 지방행정인허가데이터 2025.05.31 기준)"}},{"type":"Feature","geometry":{"type":"Point","coordinates":[129.217005,35.84618]},"properties":{"kind":"창업","name":"우리들온누리약국","upjong":"동물약국","uptae":"-","group":"생활서비스·의료","lic_date":"2024.04.09","close_date":null,"status":"영업","addr":"성동동 73-2","dur_days":null,"age_at_close":null,"popup":false,"popup_site":null,"cls":"창업(영업 중)","lbl":"우리들온누리약국","geocode":"V-World PARCEL","source":"2024년 황오동 원도심(중심시가지형) 도시재생뉴딜사업 성과지표 및 모니터링 용역 결과보고서(수정중) — 공공도시, 2025.09 (T2) 인쇄쪽 82–85 (행정안전부 지방행정인허가데이터 2025.05.31 기준)"}},{"type":"Feature","geometry":{"type":"Point","coordinates":[129.21435,35.84794]},"properties":{"kind":"창업","name":"스테이가온 2호점(사랑채)","upjong":"한옥체험업","uptae":"-","group":"숙박·체류","lic_date":"2024.05.31","close_date":null,"status":"영업","addr":"성동동 254-23","dur_days":null,"age_at_close":null,"popup":false,"popup_site":null,"cls":"창업(영업 중)","lbl":"스테이가온 2호점(사랑채)","geocode":"V-World PARCEL","source":"2024년 황오동 원도심(중심시가지형) 도시재생뉴딜사업 성과지표 및 모니터링 용역 결과보고서(수정중) — 공공도시, 2025.09 (T2) 인쇄쪽 82–85 (행정안전부 지방행정인허가데이터 2025.05.31 기준)"}},{"type":"Feature","geometry":{"type":"Point","coordinates":[129.215633,35.847871]},"properties":{"kind":"창업","name":"황오스테이","upjong":"숙박업","uptae":"숙박업 기타","group":"숙박·체류","lic_date":"2024.09.20","close_date":null,"status":"영업","addr":"성동동 284","dur_days":null,"age_at_close":null,"popup":false,"popup_site":null,"cls":"창업(영업 중)","lbl":"황오스테이","geocode":"V-World PARCEL","source":"2024년 황오동 원도심(중심시가지형) 도시재생뉴딜사업 성과지표 및 모니터링 용역 결과보고서(수정중) — 공공도시, 2025.09 (T2) 인쇄쪽 82–85 (행정안전부 지방행정인허가데이터 2025.05.31 기준)"}},{"type":"Feature","geometry":{"type":"Point","coordinates":[129.21478,35.847963]},"properties":{"kind":"창업","name":"드림스테이","upjong":"숙박업","uptae":"숙박업(생활)","group":"숙박·체류","lic_date":"2024.06.20","close_date":null,"status":"영업","addr":"성동동 260","dur_days":null,"age_at_close":null,"popup":false,"popup_site":null,"cls":"창업(영업 중)","lbl":"드림스테이","geocode":"V-World PARCEL","source":"2024년 황오동 원도심(중심시가지형) 도시재생뉴딜사업 성과지표 및 모니터링 용역 결과보고서(수정중) — 공공도시, 2025.09 (T2) 인쇄쪽 82–85 (행정안전부 지방행정인허가데이터 2025.05.31 기준)"}},{"type":"Feature","geometry":{"type":"Point","coordinates":[129.214261,35.847859]},"properties":{"kind":"창업","name":"스테이 로피(읍성점)","upjong":"숙박업","uptae":"숙박업 기타","group":"숙박·체류","lic_date":"2024.07.05","close_date":null,"status":"영업","addr":"성동동 256-1","dur_days":null,"age_at_close":null,"popup":false,"popup_site":null,"cls":"창업(영업 중)","lbl":"스테이 로피(읍성점)","geocode":"V-World PARCEL","source":"2024년 황오동 원도심(중심시가지형) 도시재생뉴딜사업 성과지표 및 모니터링 용역 결과보고서(수정중) — 공공도시, 2025.09 (T2) 인쇄쪽 82–85 (행정안전부 지방행정인허가데이터 2025.05.31 기준)"}},{"type":"Feature","geometry":{"type":"Point","coordinates":[129.217079,35.84661]},"properties":{"kind":"창업","name":"카라반PC","upjong":"인터넷컴퓨터게임시설제공업","uptae":"-","group":"유흥·오락","lic_date":"2024.06.18","close_date":null,"status":"영업","addr":"성동동 79-2","dur_days":null,"age_at_close":null,"popup":false,"popup_site":null,"cls":"창업(영업 중)","lbl":"카라반PC","geocode":"V-World PARCEL","source":"2024년 황오동 원도심(중심시가지형) 도시재생뉴딜사업 성과지표 및 모니터링 용역 결과보고서(수정중) — 공공도시, 2025.09 (T2) 인쇄쪽 82–85 (행정안전부 지방행정인허가데이터 2025.05.31 기준)"}},{"type":"Feature","geometry":{"type":"Point","coordinates":[129.217487,35.842306]},"properties":{"kind":"창업","name":"네일졔졔","upjong":"미용업","uptae":"네일아트업","group":"생활서비스·의료","lic_date":"2024.07.04","close_date":null,"status":"영업","addr":"황오동 124-14","dur_days":null,"age_at_close":null,"popup":false,"popup_site":null,"cls":"창업(영업 중)","lbl":"네일졔졔","geocode":"V-World PARCEL","source":"2024년 황오동 원도심(중심시가지형) 도시재생뉴딜사업 성과지표 및 모니터링 용역 결과보고서(수정중) — 공공도시, 2025.09 (T2) 인쇄쪽 82–85 (행정안전부 지방행정인허가데이터 2025.05.31 기준)"}},{"type":"Feature","geometry":{"type":"Point","coordinates":[129.214684,35.845526]},"properties":{"kind":"창업","name":"언디베","upjong":"미용업","uptae":"일반미용업","group":"생활서비스·의료","lic_date":"2024.01.12","close_date":null,"status":"영업","addr":"성동동 386-1","dur_days":null,"age_at_close":null,"popup":false,"popup_site":null,"cls":"창업(영업 중)","lbl":"언디베","geocode":"V-World PARCEL","source":"2024년 황오동 원도심(중심시가지형) 도시재생뉴딜사업 성과지표 및 모니터링 용역 결과보고서(수정중) — 공공도시, 2025.09 (T2) 인쇄쪽 82–85 (행정안전부 지방행정인허가데이터 2025.05.31 기준)"}},{"type":"Feature","geometry":{"type":"Point","coordinates":[129.217071,35.843312]},"properties":{"kind":"창업","name":"카페선","upjong":"휴게음식점","uptae":"커피숍","group":"카페·휴게음식","lic_date":"2024.03.04","close_date":"2025.05.30","status":"폐업","addr":"황오동 131-1","dur_days":452,"age_at_close":1.2,"popup":false,"popup_site":null,"cls":"창업 후 폐업","lbl":"카페선","geocode":"V-World PARCEL","source":"2024년 황오동 원도심(중심시가지형) 도시재생뉴딜사업 성과지표 및 모니터링 용역 결과보고서(수정중) — 공공도시, 2025.09 (T2) 인쇄쪽 82–85 (행정안전부 지방행정인허가데이터 2025.05.31 기준)"}},{"type":"Feature","geometry":{"type":"Point","coordinates":[129.217834,35.845107]},"properties":{"kind":"창업","name":"쿠마카롱","upjong":"휴게음식점","uptae":"기타 휴게음식점","group":"카페·휴게음식","lic_date":"2024.05.03","close_date":"2024.05.26","status":"폐업","addr":"성동동 40","dur_days":23,"age_at_close":0.1,"popup":true,"popup_site":"구 경주역 부지(성동동 40)","cls":"임시영업(창업·폐업 중복)","lbl":"쿠마카롱","geocode":"V-World PARCEL","source":"2024년 황오동 원도심(중심시가지형) 도시재생뉴딜사업 성과지표 및 모니터링 용역 결과보고서(수정중) — 공공도시, 2025.09 (T2) 인쇄쪽 82–85 (행정안전부 지방행정인허가데이터 2025.05.31 기준)"}},{"type":"Feature","geometry":{"type":"Point","coordinates":[129.21789,35.845107]},"properties":{"kind":"창업","name":"지니 샌드위치","upjong":"휴게음식점","uptae":"기타 휴게음식점","group":"카페·휴게음식","lic_date":"2024.05.03","close_date":"2024.05.05","status":"폐업","addr":"성동동 40","dur_days":2,"age_at_close":0.0,"popup":true,"popup_site":"구 경주역 부지(성동동 40)","cls":"임시영업(창업·폐업 중복)","lbl":"지니 샌드위치","geocode":"V-World PARCEL","source":"2024년 황오동 원도심(중심시가지형) 도시재생뉴딜사업 성과지표 및 모니터링 용역 결과보고서(수정중) — 공공도시, 2025.09 (T2) 인쇄쪽 82–85 (행정안전부 지방행정인허가데이터 2025.05.31 기준)"}},{"type":"Feature","geometry":{"type":"Point","coordinates":[129.217874,35.845139]},"properties":{"kind":"창업","name":"도너츠","upjong":"휴게음식점","uptae":"기타 휴게음식점","group":"카페·휴게음식","lic_date":"2024.05.03","close_date":"2024.05.05","status":"폐업","addr":"성동동 40","dur_days":2,"age_at_close":0.0,"popup":true,"popup_site":"구 경주역 부지(성동동 40)","cls":"임시영업(창업·폐업 중복)","lbl":"도너츠","geocode":"V-World PARCEL","source":"2024년 황오동 원도심(중심시가지형) 도시재생뉴딜사업 성과지표 및 모니터링 용역 결과보고서(수정중) — 공공도시, 2025.09 (T2) 인쇄쪽 82–85 (행정안전부 지방행정인허가데이터 2025.05.31 기준)"}},{"type":"Feature","geometry":{"type":"Point","coordinates":[129.217834,35.845152]},"properties":{"kind":"창업","name":"오물오물건어물","upjong":"휴게음식점","uptae":"기타 휴게음식점","group":"카페·휴게음식","lic_date":"2024.06.13","close_date":"2024.06.15","status":"폐업","addr":"성동동 40","dur_days":2,"age_at_close":0.0,"popup":true,"popup_site":"구 경주역 부지(성동동 40)","cls":"임시영업(창업·폐업 중복)","lbl":"오물오물건어물","geocode":"V-World PARCEL","source":"2024년 황오동 원도심(중심시가지형) 도시재생뉴딜사업 성과지표 및 모니터링 용역 결과보고서(수정중) — 공공도시, 2025.09 (T2) 인쇄쪽 82–85 (행정안전부 지방행정인허가데이터 2025.05.31 기준)"}},{"type":"Feature","geometry":{"type":"Point","coordinates":[129.217794,35.845139]},"properties":{"kind":"창업","name":"하율","upjong":"휴게음식점","uptae":"기타 휴게음식점","group":"카페·휴게음식","lic_date":"2024.06.13","close_date":"2024.06.15","status":"폐업","addr":"성동동 40","dur_days":2,"age_at_close":0.0,"popup":true,"popup_site":"구 경주역 부지(성동동 40)","cls":"임시영업(창업·폐업 중복)","lbl":"하율","geocode":"V-World PARCEL","source":"2024년 황오동 원도심(중심시가지형) 도시재생뉴딜사업 성과지표 및 모니터링 용역 결과보고서(수정중) — 공공도시, 2025.09 (T2) 인쇄쪽 82–85 (행정안전부 지방행정인허가데이터 2025.05.31 기준)"}},{"type":"Feature","geometry":{"type":"Point","coordinates":[129.217778,35.845107]},"properties":{"kind":"창업","name":"어향원","upjong":"휴게음식점","uptae":"기타 휴게음식점","group":"카페·휴게음식","lic_date":"2024.11.11","close_date":"2024.11.24","status":"폐업","addr":"성동동 40","dur_days":13,"age_at_close":0.0,"popup":true,"popup_site":"구 경주역 부지(성동동 40)","cls":"임시영업(창업·폐업 중복)","lbl":"어향원","geocode":"V-World PARCEL","source":"2024년 황오동 원도심(중심시가지형) 도시재생뉴딜사업 성과지표 및 모니터링 용역 결과보고서(수정중) — 공공도시, 2025.09 (T2) 인쇄쪽 82–85 (행정안전부 지방행정인허가데이터 2025.05.31 기준)"}},{"type":"Feature","geometry":{"type":"Point","coordinates":[129.217794,35.845075]},"properties":{"kind":"창업","name":"경주 읍성 간식","upjong":"휴게음식점","uptae":"기타 휴게음식점","group":"카페·휴게음식","lic_date":"2024.11.11","close_date":"2024.11.24","status":"폐업","addr":"성동동 40","dur_days":13,"age_at_close":0.0,"popup":true,"popup_site":"구 경주역 부지(성동동 40)","cls":"임시영업(창업·폐업 중복)","lbl":"경주 읍성 간식","geocode":"V-World PARCEL","source":"2024년 황오동 원도심(중심시가지형) 도시재생뉴딜사업 성과지표 및 모니터링 용역 결과보고서(수정중) — 공공도시, 2025.09 (T2) 인쇄쪽 82–85 (행정안전부 지방행정인허가데이터 2025.05.31 기준)"}},{"type":"Feature","geometry":{"type":"Point","coordinates":[129.215351,35.847234]},"properties":{"kind":"창업","name":"이마트24R 경주대원점","upjong":"휴게음식점","uptae":"편의점","group":"카페·휴게음식","lic_date":"2024.03.29","close_date":null,"status":"영업","addr":"성동동 270-3","dur_days":null,"age_at_close":null,"popup":false,"popup_site":null,"cls":"창업(영업 중)","lbl":"이마트24R 경주대원점","geocode":"V-World PARCEL","source":"2024년 황오동 원도심(중심시가지형) 도시재생뉴딜사업 성과지표 및 모니터링 용역 결과보고서(수정중) — 공공도시, 2025.09 (T2) 인쇄쪽 82–85 (행정안전부 지방행정인허가데이터 2025.05.31 기준)"}},{"type":"Feature","geometry":{"type":"Point","coordinates":[129.217854,35.841648]},"properties":{"kind":"창업","name":"오트(ODTT)","upjong":"휴게음식점","uptae":"기타 휴게음식점","group":"카페·휴게음식","lic_date":"2024.07.10","close_date":null,"status":"영업","addr":"황오동 114-5","dur_days":null,"age_at_close":null,"popup":false,"popup_site":null,"cls":"창업(영업 중)","lbl":"오트(ODTT)","geocode":"V-World PARCEL","source":"2024년 황오동 원도심(중심시가지형) 도시재생뉴딜사업 성과지표 및 모니터링 용역 결과보고서(수정중) — 공공도시, 2025.09 (T2) 인쇄쪽 82–85 (행정안전부 지방행정인허가데이터 2025.05.31 기준)"}},{"type":"Feature","geometry":{"type":"Point","coordinates":[129.218205,35.841629]},"properties":{"kind":"창업","name":"경주앙주","upjong":"휴게음식점","uptae":"기타 휴게음식점","group":"카페·휴게음식","lic_date":"2024.07.30","close_date":null,"status":"영업","addr":"황오동 113-7","dur_days":null,"age_at_close":null,"popup":false,"popup_site":null,"cls":"창업(영업 중)","lbl":"경주앙주","geocode":"V-World PARCEL","source":"2024년 황오동 원도심(중심시가지형) 도시재생뉴딜사업 성과지표 및 모니터링 용역 결과보고서(수정중) — 공공도시, 2025.09 (T2) 인쇄쪽 82–85 (행정안전부 지방행정인허가데이터 2025.05.31 기준)"}},{"type":"Feature","geometry":{"type":"Point","coordinates":[129.217074,35.845703]},"properties":{"kind":"창업","name":"손이가꽈배기","upjong":"휴게음식점","uptae":"기타 휴게음식점","group":"카페·휴게음식","lic_date":"2024.10.17","close_date":null,"status":"영업","addr":"성동동 62-2","dur_days":null,"age_at_close":null,"popup":false,"popup_site":null,"cls":"창업(영업 중)","lbl":"손이가꽈배기","geocode":"V-World PARCEL","source":"2024년 황오동 원도심(중심시가지형) 도시재생뉴딜사업 성과지표 및 모니터링 용역 결과보고서(수정중) — 공공도시, 2025.09 (T2) 인쇄쪽 82–85 (행정안전부 지방행정인허가데이터 2025.05.31 기준)"}},{"type":"Feature","geometry":{"type":"Point","coordinates":[129.217834,35.845062]},"properties":{"kind":"창업","name":"장푸드","upjong":"일반음식점","uptae":"분식","group":"음식점·제과","lic_date":"2024.11.15","close_date":"2024.11.24","status":"폐업","addr":"성동동 40","dur_days":9,"age_at_close":0.0,"popup":true,"popup_site":"구 경주역 부지(성동동 40)","cls":"임시영업(창업·폐업 중복)","lbl":"장푸드","geocode":"V-World PARCEL","source":"2024년 황오동 원도심(중심시가지형) 도시재생뉴딜사업 성과지표 및 모니터링 용역 결과보고서(수정중) — 공공도시, 2025.09 (T2) 인쇄쪽 82–85 (행정안전부 지방행정인허가데이터 2025.05.31 기준)"}},{"type":"Feature","geometry":{"type":"Point","coordinates":[129.217874,35.845075]},"properties":{"kind":"창업","name":"대승 참숯불뒷고기","upjong":"일반음식점","uptae":"한식","group":"음식점·제과","lic_date":"2024.11.15","close_date":"2024.11.24","status":"폐업","addr":"성동동 40","dur_days":9,"age_at_close":0.0,"popup":true,"popup_site":"구 경주역 부지(성동동 40)","cls":"임시영업(창업·폐업 중복)","lbl":"대승 참숯불뒷고기","geocode":"V-World PARCEL","source":"2024년 황오동 원도심(중심시가지형) 도시재생뉴딜사업 성과지표 및 모니터링 용역 결과보고서(수정중) — 공공도시, 2025.09 (T2) 인쇄쪽 82–85 (행정안전부 지방행정인허가데이터 2025.05.31 기준)"}},{"type":"Feature","geometry":{"type":"Point","coordinates":[129.217947,35.845107]},"properties":{"kind":"창업","name":"고마움: 하루시작","upjong":"일반음식점","uptae":"기타","group":"음식점·제과","lic_date":"2024.05.03","close_date":"2024.05.26","status":"폐업","addr":"성동동 40","dur_days":23,"age_at_close":0.1,"popup":true,"popup_site":"구 경주역 부지(성동동 40)","cls":"임시영업(창업·폐업 중복)","lbl":"고마움: 하루시작","geocode":"V-World PARCEL","source":"2024년 황오동 원도심(중심시가지형) 도시재생뉴딜사업 성과지표 및 모니터링 용역 결과보고서(수정중) — 공공도시, 2025.09 (T2) 인쇄쪽 82–85 (행정안전부 지방행정인허가데이터 2025.05.31 기준)"}},{"type":"Feature","geometry":{"type":"Point","coordinates":[129.217914,35.845171]},"properties":{"kind":"창업","name":"태종기획","upjong":"일반음식점","uptae":"기타","group":"음식점·제과","lic_date":"2024.06.13","close_date":"2024.06.15","status":"폐업","addr":"성동동 40","dur_days":2,"age_at_close":0.0,"popup":true,"popup_site":"구 경주역 부지(성동동 40)","cls":"임시영업(창업·폐업 중복)","lbl":"태종기획","geocode":"V-World PARCEL","source":"2024년 황오동 원도심(중심시가지형) 도시재생뉴딜사업 성과지표 및 모니터링 용역 결과보고서(수정중) — 공공도시, 2025.09 (T2) 인쇄쪽 82–85 (행정안전부 지방행정인허가데이터 2025.05.31 기준)"}},{"type":"Feature","geometry":{"type":"Point","coordinates":[129.215681,35.845444]},"properties":{"kind":"창업","name":"카네","upjong":"일반음식점","uptae":"기타","group":"음식점·제과","lic_date":"2024.10.31","close_date":"2024.11.08","status":"폐업","addr":"성동동 396-4","dur_days":8,"age_at_close":0.0,"popup":true,"popup_site":"성동시장 상인회(396-4)","cls":"임시영업(창업·폐업 중복)","lbl":"카네","geocode":"V-World PARCEL","source":"2024년 황오동 원도심(중심시가지형) 도시재생뉴딜사업 성과지표 및 모니터링 용역 결과보고서(수정중) — 공공도시, 2025.09 (T2) 인쇄쪽 82–85 (행정안전부 지방행정인허가데이터 2025.05.31 기준)"}},{"type":"Feature","geometry":{"type":"Point","coordinates":[129.215737,35.845444]},"properties":{"kind":"창업","name":"성동시장 상인회","upjong":"일반음식점","uptae":"기타","group":"음식점·제과","lic_date":"2024.10.31","close_date":"2024.11.08","status":"폐업","addr":"성동동 396-4","dur_days":8,"age_at_close":0.0,"popup":true,"popup_site":"성동시장 상인회(396-4)","cls":"임시영업(창업·폐업 중복)","lbl":"성동시장 상인회","geocode":"V-World PARCEL","source":"2024년 황오동 원도심(중심시가지형) 도시재생뉴딜사업 성과지표 및 모니터링 용역 결과보고서(수정중) — 공공도시, 2025.09 (T2) 인쇄쪽 82–85 (행정안전부 지방행정인허가데이터 2025.05.31 기준)"}},{"type":"Feature","geometry":{"type":"Point","coordinates":[129.217834,35.845197]},"properties":{"kind":"창업","name":"놀부보쌈&부대찌개","upjong":"일반음식점","uptae":"한식","group":"음식점·제과","lic_date":"2024.11.11","close_date":"2024.11.24","status":"폐업","addr":"성동동 40","dur_days":13,"age_at_close":0.0,"popup":true,"popup_site":"구 경주역 부지(성동동 40)","cls":"임시영업(창업·폐업 중복)","lbl":"놀부보쌈&부대찌개","geocode":"V-World PARCEL","source":"2024년 황오동 원도심(중심시가지형) 도시재생뉴딜사업 성과지표 및 모니터링 용역 결과보고서(수정중) — 공공도시, 2025.09 (T2) 인쇄쪽 82–85 (행정안전부 지방행정인허가데이터 2025.05.31 기준)"}},{"type":"Feature","geometry":{"type":"Point","coordinates":[129.217754,35.845171]},"properties":{"kind":"창업","name":"둥지타코 엔 커피","upjong":"일반음식점","uptae":"기타","group":"음식점·제과","lic_date":"2024.11.11","close_date":"2024.11.24","status":"폐업","addr":"성동동 40","dur_days":13,"age_at_close":0.0,"popup":true,"popup_site":"구 경주역 부지(성동동 40)","cls":"임시영업(창업·폐업 중복)","lbl":"둥지타코 엔 커피","geocode":"V-World PARCEL","source":"2024년 황오동 원도심(중심시가지형) 도시재생뉴딜사업 성과지표 및 모니터링 용역 결과보고서(수정중) — 공공도시, 2025.09 (T2) 인쇄쪽 82–85 (행정안전부 지방행정인허가데이터 2025.05.31 기준)"}},{"type":"Feature","geometry":{"type":"Point","coordinates":[129.217722,35.845107]},"properties":{"kind":"창업","name":"진성FNC","upjong":"일반음식점","uptae":"분식","group":"음식점·제과","lic_date":"2024.11.11","close_date":"2024.11.24","status":"폐업","addr":"성동동 40","dur_days":13,"age_at_close":0.0,"popup":true,"popup_site":"구 경주역 부지(성동동 40)","cls":"임시영업(창업·폐업 중복)","lbl":"진성FNC","geocode":"V-World PARCEL","source":"2024년 황오동 원도심(중심시가지형) 도시재생뉴딜사업 성과지표 및 모니터링 용역 결과보고서(수정중) — 공공도시, 2025.09 (T2) 인쇄쪽 82–85 (행정안전부 지방행정인허가데이터 2025.05.31 기준)"}},{"type":"Feature","geometry":{"type":"Point","coordinates":[129.217754,35.845043]},"properties":{"kind":"창업","name":"경주한우천국","upjong":"일반음식점","uptae":"기타","group":"음식점·제과","lic_date":"2024.11.11","close_date":"2024.11.24","status":"폐업","addr":"성동동 40","dur_days":13,"age_at_close":0.0,"popup":true,"popup_site":"구 경주역 부지(성동동 40)","cls":"임시영업(창업·폐업 중복)","lbl":"경주한우천국","geocode":"V-World PARCEL","source":"2024년 황오동 원도심(중심시가지형) 도시재생뉴딜사업 성과지표 및 모니터링 용역 결과보고서(수정중) — 공공도시, 2025.09 (T2) 인쇄쪽 82–85 (행정안전부 지방행정인허가데이터 2025.05.31 기준)"}},{"type":"Feature","geometry":{"type":"Point","coordinates":[129.217834,35.845017]},"properties":{"kind":"창업","name":"유빈식당","upjong":"일반음식점","uptae":"한식","group":"음식점·제과","lic_date":"2024.11.11","close_date":"2024.11.24","status":"폐업","addr":"성동동 40","dur_days":13,"age_at_close":0.0,"popup":true,"popup_site":"구 경주역 부지(성동동 40)","cls":"임시영업(창업·폐업 중복)","lbl":"유빈식당","geocode":"V-World PARCEL","source":"2024년 황오동 원도심(중심시가지형) 도시재생뉴딜사업 성과지표 및 모니터링 용역 결과보고서(수정중) — 공공도시, 2025.09 (T2) 인쇄쪽 82–85 (행정안전부 지방행정인허가데이터 2025.05.31 기준)"}},{"type":"Feature","geometry":{"type":"Point","coordinates":[129.217914,35.845043]},"properties":{"kind":"창업","name":"임선생반찬","upjong":"일반음식점","uptae":"기타","group":"음식점·제과","lic_date":"2024.11.11","close_date":"2024.11.24","status":"폐업","addr":"성동동 40","dur_days":13,"age_at_close":0.0,"popup":true,"popup_site":"구 경주역 부지(성동동 40)","cls":"임시영업(창업·폐업 중복)","lbl":"임선생반찬","geocode":"V-World PARCEL","source":"2024년 황오동 원도심(중심시가지형) 도시재생뉴딜사업 성과지표 및 모니터링 용역 결과보고서(수정중) — 공공도시, 2025.09 (T2) 인쇄쪽 82–85 (행정안전부 지방행정인허가데이터 2025.05.31 기준)"}},{"type":"Feature","geometry":{"type":"Point","coordinates":[129.218003,35.845107]},"properties":{"kind":"창업","name":"떡갈비당","upjong":"일반음식점","uptae":"기타","group":"음식점·제과","lic_date":"2024.11.13","close_date":"2024.11.24","status":"폐업","addr":"성동동 40","dur_days":11,"age_at_close":0.0,"popup":true,"popup_site":"구 경주역 부지(성동동 40)","cls":"임시영업(창업·폐업 중복)","lbl":"떡갈비당","geocode":"V-World PARCEL","source":"2024년 황오동 원도심(중심시가지형) 도시재생뉴딜사업 성과지표 및 모니터링 용역 결과보고서(수정중) — 공공도시, 2025.09 (T2) 인쇄쪽 82–85 (행정안전부 지방행정인허가데이터 2025.05.31 기준)"}},{"type":"Feature","geometry":{"type":"Point","coordinates":[129.215721,35.845476]},"properties":{"kind":"창업","name":"성동시장 상인회","upjong":"일반음식점","uptae":"기타","group":"음식점·제과","lic_date":"2024.10.18","close_date":"2024.10.26","status":"폐업","addr":"성동동 396-4","dur_days":8,"age_at_close":0.0,"popup":true,"popup_site":"성동시장 상인회(396-4)","cls":"임시영업(창업·폐업 중복)","lbl":"성동시장 상인회","geocode":"V-World PARCEL","source":"2024년 황오동 원도심(중심시가지형) 도시재생뉴딜사업 성과지표 및 모니터링 용역 결과보고서(수정중) — 공공도시, 2025.09 (T2) 인쇄쪽 82–85 (행정안전부 지방행정인허가데이터 2025.05.31 기준)"}},{"type":"Feature","geometry":{"type":"Point","coordinates":[129.215681,35.845489]},"properties":{"kind":"창업","name":"카네","upjong":"일반음식점","uptae":"일식","group":"음식점·제과","lic_date":"2024.10.18","close_date":"2024.10.26","status":"폐업","addr":"성동동 396-4","dur_days":8,"age_at_close":0.0,"popup":true,"popup_site":"성동시장 상인회(396-4)","cls":"임시영업(창업·폐업 중복)","lbl":"카네","geocode":"V-World PARCEL","source":"2024년 황오동 원도심(중심시가지형) 도시재생뉴딜사업 성과지표 및 모니터링 용역 결과보고서(수정중) — 공공도시, 2025.09 (T2) 인쇄쪽 82–85 (행정안전부 지방행정인허가데이터 2025.05.31 기준)"}},{"type":"Feature","geometry":{"type":"Point","coordinates":[129.217953,35.845202]},"properties":{"kind":"창업","name":"오륙돈","upjong":"일반음식점","uptae":"식육(숯불구이)","group":"음식점·제과","lic_date":"2024.09.06","close_date":"2024.09.08","status":"폐업","addr":"성동동 40","dur_days":2,"age_at_close":0.0,"popup":true,"popup_site":"구 경주역 부지(성동동 40)","cls":"임시영업(창업·폐업 중복)","lbl":"오륙돈","geocode":"V-World PARCEL","source":"2024년 황오동 원도심(중심시가지형) 도시재생뉴딜사업 성과지표 및 모니터링 용역 결과보고서(수정중) — 공공도시, 2025.09 (T2) 인쇄쪽 82–85 (행정안전부 지방행정인허가데이터 2025.05.31 기준)"}},{"type":"Feature","geometry":{"type":"Point","coordinates":[129.217834,35.845242]},"properties":{"kind":"창업","name":"불레(bulle)","upjong":"일반음식점","uptae":"기타","group":"음식점·제과","lic_date":"2024.09.06","close_date":"2024.09.08","status":"폐업","addr":"성동동 40","dur_days":2,"age_at_close":0.0,"popup":true,"popup_site":"구 경주역 부지(성동동 40)","cls":"임시영업(창업·폐업 중복)","lbl":"불레(bulle)","geocode":"V-World PARCEL","source":"2024년 황오동 원도심(중심시가지형) 도시재생뉴딜사업 성과지표 및 모니터링 용역 결과보고서(수정중) — 공공도시, 2025.09 (T2) 인쇄쪽 82–85 (행정안전부 지방행정인허가데이터 2025.05.31 기준)"}},{"type":"Feature","geometry":{"type":"Point","coordinates":[129.217632,35.847383]},"properties":{"kind":"창업","name":"오륙돈","upjong":"일반음식점","uptae":"식육(숯불구이)","group":"음식점·제과","lic_date":"2024.09.24","close_date":"2024.09.28","status":"폐업","addr":"황오동 129-1","dur_days":4,"age_at_close":0.0,"popup":false,"popup_site":null,"cls":"창업 후 폐업","lbl":"오륙돈","geocode":"V-World PARCEL","source":"2024년 황오동 원도심(중심시가지형) 도시재생뉴딜사업 성과지표 및 모니터링 용역 결과보고서(수정중) — 공공도시, 2025.09 (T2) 인쇄쪽 82–85 (행정안전부 지방행정인허가데이터 2025.05.31 기준)"}},{"type":"Feature","geometry":{"type":"Point","coordinates":[129.217054,35.845596]},"properties":{"kind":"창업","name":"오늘의 술집","upjong":"일반음식점","uptae":"정종/대포집/소주방","group":"음식점·제과","lic_date":"2024.11.15","close_date":null,"status":"영업","addr":"성동동 61-2","dur_days":null,"age_at_close":null,"popup":false,"popup_site":null,"cls":"창업(영업 중)","lbl":"오늘의 술집","geocode":"V-World PARCEL","source":"2024년 황오동 원도심(중심시가지형) 도시재생뉴딜사업 성과지표 및 모니터링 용역 결과보고서(수정중) — 공공도시, 2025.09 (T2) 인쇄쪽 82–85 (행정안전부 지방행정인허가데이터 2025.05.31 기준)"}},{"type":"Feature","geometry":{"type":"Point","coordinates":[129.215395,35.841683]},"properties":{"kind":"창업","name":"황오바오","upjong":"일반음식점","uptae":"중국식","group":"음식점·제과","lic_date":"2024.11.28","close_date":null,"status":"영업","addr":"황오동 305-1","dur_days":null,"age_at_close":null,"popup":false,"popup_site":null,"cls":"창업(영업 중)","lbl":"황오바오","geocode":"V-World PARCEL","source":"2024년 황오동 원도심(중심시가지형) 도시재생뉴딜사업 성과지표 및 모니터링 용역 결과보고서(수정중) — 공공도시, 2025.09 (T2) 인쇄쪽 82–85 (행정안전부 지방행정인허가데이터 2025.05.31 기준)"}},{"type":"Feature","geometry":{"type":"Point","coordinates":[129.215415,35.841975]},"properties":{"kind":"창업","name":"활화산","upjong":"일반음식점","uptae":"한식","group":"음식점·제과","lic_date":"2024.08.19","close_date":null,"status":"영업","addr":"황오동 282-5","dur_days":null,"age_at_close":null,"popup":false,"popup_site":null,"cls":"창업(영업 중)","lbl":"활화산","geocode":"V-World PARCEL","source":"2024년 황오동 원도심(중심시가지형) 도시재생뉴딜사업 성과지표 및 모니터링 용역 결과보고서(수정중) — 공공도시, 2025.09 (T2) 인쇄쪽 82–85 (행정안전부 지방행정인허가데이터 2025.05.31 기준)"}},{"type":"Feature","geometry":{"type":"Point","coordinates":[129.217493,35.841686]},"properties":{"kind":"창업","name":"리리관","upjong":"일반음식점","uptae":"기타","group":"음식점·제과","lic_date":"2024.06.21","close_date":null,"status":"영업","addr":"황오동 115-13","dur_days":null,"age_at_close":null,"popup":false,"popup_site":null,"cls":"창업(영업 중)","lbl":"리리관","geocode":"V-World PARCEL","source":"2024년 황오동 원도심(중심시가지형) 도시재생뉴딜사업 성과지표 및 모니터링 용역 결과보고서(수정중) — 공공도시, 2025.09 (T2) 인쇄쪽 82–85 (행정안전부 지방행정인허가데이터 2025.05.31 기준)"}},{"type":"Feature","geometry":{"type":"Point","coordinates":[129.217847,35.841291]},"properties":{"kind":"창업","name":"황오부엌 케이터링","upjong":"일반음식점","uptae":"기타","group":"음식점·제과","lic_date":"2024.06.24","close_date":null,"status":"영업","addr":"황오동 111-4","dur_days":null,"age_at_close":null,"popup":false,"popup_site":null,"cls":"창업(영업 중)","lbl":"황오부엌 케이터링","geocode":"V-World PARCEL","source":"2024년 황오동 원도심(중심시가지형) 도시재생뉴딜사업 성과지표 및 모니터링 용역 결과보고서(수정중) — 공공도시, 2025.09 (T2) 인쇄쪽 82–85 (행정안전부 지방행정인허가데이터 2025.05.31 기준)"}},{"type":"Feature","geometry":{"type":"Point","coordinates":[129.216965,35.845689]},"properties":{"kind":"창업","name":"경주제1국수","upjong":"일반음식점","uptae":"기타","group":"음식점·제과","lic_date":"2024.11.14","close_date":null,"status":"영업","addr":"성동동 63","dur_days":null,"age_at_close":null,"popup":false,"popup_site":null,"cls":"창업(영업 중)","lbl":"경주제1국수","geocode":"V-World PARCEL","source":"2024년 황오동 원도심(중심시가지형) 도시재생뉴딜사업 성과지표 및 모니터링 용역 결과보고서(수정중) — 공공도시, 2025.09 (T2) 인쇄쪽 82–85 (행정안전부 지방행정인허가데이터 2025.05.31 기준)"}},{"type":"Feature","geometry":{"type":"Point","coordinates":[129.217498,35.845471]},"properties":{"kind":"창업","name":"진삼영농조합","upjong":"즉석판매제조가공업","uptae":"즉석판매제조가공업","group":"생활소매·식품제조","lic_date":"2024.01.10","close_date":"2024.01.25","status":"폐업","addr":"성동동 43-5","dur_days":15,"age_at_close":0.0,"popup":true,"popup_site":"성동동 43-5","cls":"임시영업(창업·폐업 중복)","lbl":"진삼영농조합","geocode":"V-World PARCEL","source":"2024년 황오동 원도심(중심시가지형) 도시재생뉴딜사업 성과지표 및 모니터링 용역 결과보고서(수정중) — 공공도시, 2025.09 (T2) 인쇄쪽 82–85 (행정안전부 지방행정인허가데이터 2025.05.31 기준)"}},{"type":"Feature","geometry":{"type":"Point","coordinates":[129.217554,35.845471]},"properties":{"kind":"창업","name":"백두산천지인","upjong":"즉석판매제조가공업","uptae":"즉석판매제조가공업","group":"생활소매·식품제조","lic_date":"2024.05.16","close_date":"2024.05.25","status":"폐업","addr":"성동동 43-5","dur_days":9,"age_at_close":0.0,"popup":true,"popup_site":"성동동 43-5","cls":"임시영업(창업·폐업 중복)","lbl":"백두산천지인","geocode":"V-World PARCEL","source":"2024년 황오동 원도심(중심시가지형) 도시재생뉴딜사업 성과지표 및 모니터링 용역 결과보고서(수정중) — 공공도시, 2025.09 (T2) 인쇄쪽 82–85 (행정안전부 지방행정인허가데이터 2025.05.31 기준)"}},{"type":"Feature","geometry":{"type":"Point","coordinates":[129.217499,35.842005]},"properties":{"kind":"창업","name":"에이치에이엔(HAN)","upjong":"즉석판매제조가공업","uptae":"즉석판매제조가공업","group":"생활소매·식품제조","lic_date":"2024.07.29","close_date":"2025.04.09","status":"폐업","addr":"황오동 124-19","dur_days":254,"age_at_close":0.7,"popup":false,"popup_site":null,"cls":"창업 후 폐업","lbl":"에이치에이엔(HAN)","geocode":"V-World PARCEL","source":"2024년 황오동 원도심(중심시가지형) 도시재생뉴딜사업 성과지표 및 모니터링 용역 결과보고서(수정중) — 공공도시, 2025.09 (T2) 인쇄쪽 82–85 (행정안전부 지방행정인허가데이터 2025.05.31 기준)"}},{"type":"Feature","geometry":{"type":"Point","coordinates":[129.218261,35.841629]},"properties":{"kind":"창업","name":"경주 앙주","upjong":"즉석판매제조가공업","uptae":"즉석판매제조가공업","group":"생활소매·식품제조","lic_date":"2024.07.03","close_date":null,"status":"영업","addr":"황오동 113-7","dur_days":null,"age_at_close":null,"popup":false,"popup_site":null,"cls":"창업(영업 중)","lbl":"경주 앙주","geocode":"V-World PARCEL","source":"2024년 황오동 원도심(중심시가지형) 도시재생뉴딜사업 성과지표 및 모니터링 용역 결과보고서(수정중) — 공공도시, 2025.09 (T2) 인쇄쪽 82–85 (행정안전부 지방행정인허가데이터 2025.05.31 기준)"}},{"type":"Feature","geometry":{"type":"Point","coordinates":[129.217715,35.845202]},"properties":{"kind":"창업","name":"베리데이지 경주점","upjong":"제과점영업","uptae":"제과점영업","group":"음식점·제과","lic_date":"2024.05.03","close_date":"2024.05.26","status":"폐업","addr":"성동동 40","dur_days":23,"age_at_close":0.1,"popup":true,"popup_site":"구 경주역 부지(성동동 40)","cls":"임시영업(창업·폐업 중복)","lbl":"베리데이지 경주점","geocode":"V-World PARCEL","source":"2024년 황오동 원도심(중심시가지형) 도시재생뉴딜사업 성과지표 및 모니터링 용역 결과보고서(수정중) — 공공도시, 2025.09 (T2) 인쇄쪽 82–85 (행정안전부 지방행정인허가데이터 2025.05.31 기준)"}},{"type":"Feature","geometry":{"type":"Point","coordinates":[129.216651,35.844584]},"properties":{"kind":"창업","name":"삼촌축산","upjong":"축산판매업","uptae":"식육판매업","group":"생활소매·식품제조","lic_date":"2024.07.16","close_date":null,"status":"영업","addr":"성동동 51-53","dur_days":null,"age_at_close":null,"popup":false,"popup_site":null,"cls":"창업(영업 중)","lbl":"삼촌축산","geocode":"V-World PARCEL","source":"2024년 황오동 원도심(중심시가지형) 도시재생뉴딜사업 성과지표 및 모니터링 용역 결과보고서(수정중) — 공공도시, 2025.09 (T2) 인쇄쪽 82–85 (행정안전부 지방행정인허가데이터 2025.05.31 기준)"}},{"type":"Feature","geometry":{"type":"Point","coordinates":[129.216936,35.843591]},"properties":{"kind":"창업","name":"용인내과의원","upjong":"수질오염원설치시설(기타)","uptae":"-","group":"생활서비스·의료","lic_date":"2024.08.05","close_date":"2024.08.05","status":"취소/말소/만료/정지/중지","addr":"황오동 175-1","dur_days":0,"age_at_close":0.0,"popup":false,"popup_site":null,"cls":"창업 후 폐업","lbl":"용인내과의원","geocode":"V-World PARCEL","source":"2024년 황오동 원도심(중심시가지형) 도시재생뉴딜사업 성과지표 및 모니터링 용역 결과보고서(수정중) — 공공도시, 2025.09 (T2) 인쇄쪽 82–85 (행정안전부 지방행정인허가데이터 2025.05.31 기준)"}},{"type":"Feature","geometry":{"type":"Point","coordinates":[129.215407,35.847234]},"properties":{"kind":"창업","name":"이마트24 R경주대원점","upjong":"쓰레기종량제봉투판매업","uptae":"-","group":"생활소매·식품제조","lic_date":"2024.04.01","close_date":null,"status":"영업","addr":"성동동 270-3","dur_days":null,"age_at_close":null,"popup":false,"popup_site":null,"cls":"창업(영업 중)","lbl":"이마트24 R경주대원점","geocode":"V-World PARCEL","source":"2024년 황오동 원도심(중심시가지형) 도시재생뉴딜사업 성과지표 및 모니터링 용역 결과보고서(수정중) — 공공도시, 2025.09 (T2) 인쇄쪽 82–85 (행정안전부 지방행정인허가데이터 2025.05.31 기준)"}},{"type":"Feature","geometry":{"type":"Point","coordinates":[129.215391,35.847266]},"properties":{"kind":"창업","name":"이마트24 R경주대원점","upjong":"담배소매업","uptae":"-","group":"생활소매·식품제조","lic_date":"2024.04.11","close_date":null,"status":"영업","addr":"성동동 270-3","dur_days":null,"age_at_close":null,"popup":false,"popup_site":null,"cls":"창업(영업 중)","lbl":"이마트24 R경주대원점","geocode":"V-World PARCEL","source":"2024년 황오동 원도심(중심시가지형) 도시재생뉴딜사업 성과지표 및 모니터링 용역 결과보고서(수정중) — 공공도시, 2025.09 (T2) 인쇄쪽 82–85 (행정안전부 지방행정인허가데이터 2025.05.31 기준)"}},{"type":"Feature","geometry":{"type":"Point","coordinates":[129.21549,35.844773]},"properties":{"kind":"폐업","name":"척바른신경외과의원","upjong":"의원","uptae":"의원","group":"생활서비스·의료","lic_date":"2020.05.20","close_date":"2024.02.29","status":"폐업","addr":"성동동 396-12","dur_days":1380,"age_at_close":3.8,"popup":false,"popup_site":null,"cls":"폐업","lbl":"척바른신경외과의원","geocode":"V-World PARCEL","source":"2024년 황오동 원도심(중심시가지형) 도시재생뉴딜사업 성과지표 및 모니터링 용역 결과보고서(수정중) — 공공도시, 2025.09 (T2) 인쇄쪽 82–85 (행정안전부 지방행정인허가데이터 2025.05.31 기준)"}},{"type":"Feature","geometry":{"type":"Point","coordinates":[129.217788,35.842338]},"properties":{"kind":"폐업","name":"계림여인숙","upjong":"숙박업","uptae":"여인숙업","group":"숙박·체류","lic_date":"1961.05.31","close_date":"2024.02.14","status":"폐업","addr":"황오동 137-10","dur_days":22904,"age_at_close":62.7,"popup":false,"popup_site":null,"cls":"폐업 (업력 10년+)","lbl":"계림여인숙","geocode":"V-World PARCEL","source":"2024년 황오동 원도심(중심시가지형) 도시재생뉴딜사업 성과지표 및 모니터링 용역 결과보고서(수정중) — 공공도시, 2025.09 (T2) 인쇄쪽 82–85 (행정안전부 지방행정인허가데이터 2025.05.31 기준)"}},{"type":"Feature","geometry":{"type":"Point","coordinates":[129.216891,35.845232]},"properties":{"kind":"폐업","name":"물라PC","upjong":"인터넷컴퓨터게임시설제공업","uptae":"-","group":"유흥·오락","lic_date":"2022.03.25","close_date":"2024.01.22","status":"폐업","addr":"성동동 273-1","dur_days":668,"age_at_close":1.8,"popup":false,"popup_site":null,"cls":"폐업","lbl":"물라PC","geocode":"V-World ROAD","source":"2024년 황오동 원도심(중심시가지형) 도시재생뉴딜사업 성과지표 및 모니터링 용역 결과보고서(수정중) — 공공도시, 2025.09 (T2) 인쇄쪽 82–85 (행정안전부 지방행정인허가데이터 2025.05.31 기준)"}},{"type":"Feature","geometry":{"type":"Point","coordinates":[129.21588,35.841343]},"properties":{"kind":"폐업","name":"동영PC","upjong":"인터넷컴퓨터게임시설제공업","uptae":"-","group":"유흥·오락","lic_date":"2021.12.08","close_date":"2024.08.27","status":"폐업","addr":"황오동 313-1","dur_days":993,"age_at_close":2.7,"popup":false,"popup_site":null,"cls":"폐업","lbl":"동영PC","geocode":"V-World PARCEL","source":"2024년 황오동 원도심(중심시가지형) 도시재생뉴딜사업 성과지표 및 모니터링 용역 결과보고서(수정중) — 공공도시, 2025.09 (T2) 인쇄쪽 82–85 (행정안전부 지방행정인허가데이터 2025.05.31 기준)"}},{"type":"Feature","geometry":{"type":"Point","coordinates":[129.216079,35.841164]},"properties":{"kind":"폐업","name":"이화순미용실","upjong":"미용업","uptae":"미용업 기타","group":"생활서비스·의료","lic_date":"1984.12.07","close_date":"2024.12.20","status":"폐업","addr":"황오동 109-17","dur_days":14623,"age_at_close":40.0,"popup":false,"popup_site":null,"cls":"폐업 (업력 10년+)","lbl":"이화순미용실","geocode":"V-World PARCEL","source":"2024년 황오동 원도심(중심시가지형) 도시재생뉴딜사업 성과지표 및 모니터링 용역 결과보고서(수정중) — 공공도시, 2025.09 (T2) 인쇄쪽 82–85 (행정안전부 지방행정인허가데이터 2025.05.31 기준)"}},{"type":"Feature","geometry":{"type":"Point","coordinates":[129.217512,35.843029]},"properties":{"kind":"폐업","name":"천궁이용소","upjong":"이용업","uptae":"일반이용업","group":"생활서비스·의료","lic_date":"2002.10.24","close_date":"2024.06.14","status":"폐업","addr":"황오동 125-2","dur_days":7904,"age_at_close":21.6,"popup":false,"popup_site":null,"cls":"폐업 (업력 10년+)","lbl":"천궁이용소","geocode":"V-World PARCEL","source":"2024년 황오동 원도심(중심시가지형) 도시재생뉴딜사업 성과지표 및 모니터링 용역 결과보고서(수정중) — 공공도시, 2025.09 (T2) 인쇄쪽 82–85 (행정안전부 지방행정인허가데이터 2025.05.31 기준)"}},{"type":"Feature","geometry":{"type":"Point","coordinates":[129.216947,35.845232]},"properties":{"kind":"폐업","name":"다담골","upjong":"휴게음식점","uptae":"커피숍","group":"카페·휴게음식","lic_date":"2022.06.22","close_date":"2024.12.31","status":"폐업","addr":"성동동 273-1","dur_days":923,"age_at_close":2.5,"popup":false,"popup_site":null,"cls":"폐업","lbl":"다담골","geocode":"V-World ROAD","source":"2024년 황오동 원도심(중심시가지형) 도시재생뉴딜사업 성과지표 및 모니터링 용역 결과보고서(수정중) — 공공도시, 2025.09 (T2) 인쇄쪽 82–85 (행정안전부 지방행정인허가데이터 2025.05.31 기준)"}},{"type":"Feature","geometry":{"type":"Point","coordinates":[129.216287,35.845664]},"properties":{"kind":"폐업","name":"노랑기린","upjong":"휴게음식점","uptae":"기타 휴게음식점","group":"카페·휴게음식","lic_date":"2020.12.04","close_date":"2024.12.26","status":"폐업","addr":"성동동 57-80","dur_days":1483,"age_at_close":4.1,"popup":false,"popup_site":null,"cls":"폐업","lbl":"노랑기린","geocode":"V-World PARCEL","source":"2024년 황오동 원도심(중심시가지형) 도시재생뉴딜사업 성과지표 및 모니터링 용역 결과보고서(수정중) — 공공도시, 2025.09 (T2) 인쇄쪽 82–85 (행정안전부 지방행정인허가데이터 2025.05.31 기준)"}},{"type":"Feature","geometry":{"type":"Point","coordinates":[129.215577,35.84178]},"properties":{"kind":"폐업","name":"주식회사경주시공간","upjong":"휴게음식점","uptae":"기타 휴게음식점","group":"카페·휴게음식","lic_date":"2020.05.20","close_date":"2024.11.01","status":"폐업","addr":"황오동 303","dur_days":1626,"age_at_close":4.5,"popup":false,"popup_site":null,"cls":"폐업","lbl":"주식회사경주시공간","geocode":"V-World PARCEL","source":"2024년 황오동 원도심(중심시가지형) 도시재생뉴딜사업 성과지표 및 모니터링 용역 결과보고서(수정중) — 공공도시, 2025.09 (T2) 인쇄쪽 82–85 (행정안전부 지방행정인허가데이터 2025.05.31 기준)"}},{"type":"Feature","geometry":{"type":"Point","coordinates":[129.217665,35.845107]},"properties":{"kind":"폐업","name":"쿠마카롱","upjong":"휴게음식점","uptae":"기타 휴게음식점","group":"카페·휴게음식","lic_date":"2024.05.03","close_date":"2024.05.26","status":"폐업","addr":"성동동 40","dur_days":23,"age_at_close":0.1,"popup":true,"popup_site":"구 경주역 부지(성동동 40)","cls":"임시영업(창업·폐업 중복)","lbl":"쿠마카롱","geocode":"V-World PARCEL","source":"2024년 황오동 원도심(중심시가지형) 도시재생뉴딜사업 성과지표 및 모니터링 용역 결과보고서(수정중) — 공공도시, 2025.09 (T2) 인쇄쪽 82–85 (행정안전부 지방행정인허가데이터 2025.05.31 기준)"}},{"type":"Feature","geometry":{"type":"Point","coordinates":[129.217715,35.845012]},"properties":{"kind":"폐업","name":"지니 샌드위치","upjong":"휴게음식점","uptae":"기타 휴게음식점","group":"카페·휴게음식","lic_date":"2024.05.03","close_date":"2024.05.05","status":"폐업","addr":"성동동 40","dur_days":2,"age_at_close":0.0,"popup":true,"popup_site":"구 경주역 부지(성동동 40)","cls":"임시영업(창업·폐업 중복)","lbl":"지니 샌드위치","geocode":"V-World PARCEL","source":"2024년 황오동 원도심(중심시가지형) 도시재생뉴딜사업 성과지표 및 모니터링 용역 결과보고서(수정중) — 공공도시, 2025.09 (T2) 인쇄쪽 82–85 (행정안전부 지방행정인허가데이터 2025.05.31 기준)"}},{"type":"Feature","geometry":{"type":"Point","coordinates":[129.217834,35.844972]},"properties":{"kind":"폐업","name":"도너츠","upjong":"휴게음식점","uptae":"기타 휴게음식점","group":"카페·휴게음식","lic_date":"2024.05.03","close_date":"2024.05.05","status":"폐업","addr":"성동동 40","dur_days":2,"age_at_close":0.0,"popup":true,"popup_site":"구 경주역 부지(성동동 40)","cls":"임시영업(창업·폐업 중복)","lbl":"도너츠","geocode":"V-World PARCEL","source":"2024년 황오동 원도심(중심시가지형) 도시재생뉴딜사업 성과지표 및 모니터링 용역 결과보고서(수정중) — 공공도시, 2025.09 (T2) 인쇄쪽 82–85 (행정안전부 지방행정인허가데이터 2025.05.31 기준)"}},{"type":"Feature","geometry":{"type":"Point","coordinates":[129.217543,35.842306]},"properties":{"kind":"폐업","name":"아이엠 공방","upjong":"휴게음식점","uptae":"커피숍","group":"카페·휴게음식","lic_date":"2023.04.25","close_date":"2024.07.04","status":"폐업","addr":"황오동 124-14","dur_days":436,"age_at_close":1.2,"popup":false,"popup_site":null,"cls":"폐업","lbl":"아이엠 공방","geocode":"V-World PARCEL","source":"2024년 황오동 원도심(중심시가지형) 도시재생뉴딜사업 성과지표 및 모니터링 용역 결과보고서(수정중) — 공공도시, 2025.09 (T2) 인쇄쪽 82–85 (행정안전부 지방행정인허가데이터 2025.05.31 기준)"}},{"type":"Feature","geometry":{"type":"Point","coordinates":[129.214135,35.846307]},"properties":{"kind":"폐업","name":"This is for you(디스이즈포유)","upjong":"휴게음식점","uptae":"커피숍","group":"카페·휴게음식","lic_date":"2018.02.14","close_date":"2024.12.30","status":"폐업","addr":"성동동 361-3","dur_days":2511,"age_at_close":6.9,"popup":false,"popup_site":null,"cls":"폐업","lbl":"This is for you(디스이즈포유)","geocode":"V-World PARCEL","source":"2024년 황오동 원도심(중심시가지형) 도시재생뉴딜사업 성과지표 및 모니터링 용역 결과보고서(수정중) — 공공도시, 2025.09 (T2) 인쇄쪽 82–85 (행정안전부 지방행정인허가데이터 2025.05.31 기준)"}},{"type":"Feature","geometry":{"type":"Point","coordinates":[129.217953,35.845012]},"properties":{"kind":"폐업","name":"오물오물건어물","upjong":"휴게음식점","uptae":"기타 휴게음식점","group":"카페·휴게음식","lic_date":"2024.06.13","close_date":"2024.06.15","status":"폐업","addr":"성동동 40","dur_days":2,"age_at_close":0.0,"popup":true,"popup_site":"구 경주역 부지(성동동 40)","cls":"임시영업(창업·폐업 중복)","lbl":"오물오물건어물","geocode":"V-World PARCEL","source":"2024년 황오동 원도심(중심시가지형) 도시재생뉴딜사업 성과지표 및 모니터링 용역 결과보고서(수정중) — 공공도시, 2025.09 (T2) 인쇄쪽 82–85 (행정안전부 지방행정인허가데이터 2025.05.31 기준)"}},{"type":"Feature","geometry":{"type":"Point","coordinates":[129.218059,35.845107]},"properties":{"kind":"폐업","name":"하율","upjong":"휴게음식점","uptae":"기타 휴게음식점","group":"카페·휴게음식","lic_date":"2024.06.13","close_date":"2024.06.15","status":"폐업","addr":"성동동 40","dur_days":2,"age_at_close":0.0,"popup":true,"popup_site":"구 경주역 부지(성동동 40)","cls":"임시영업(창업·폐업 중복)","lbl":"하율","geocode":"V-World PARCEL","source":"2024년 황오동 원도심(중심시가지형) 도시재생뉴딜사업 성과지표 및 모니터링 용역 결과보고서(수정중) — 공공도시, 2025.09 (T2) 인쇄쪽 82–85 (행정안전부 지방행정인허가데이터 2025.05.31 기준)"}},{"type":"Feature","geometry":{"type":"Point","coordinates":[129.217993,35.845234]},"properties":{"kind":"폐업","name":"어향원","upjong":"휴게음식점","uptae":"기타 휴게음식점","group":"카페·휴게음식","lic_date":"2024.11.11","close_date":"2024.11.24","status":"폐업","addr":"성동동 40","dur_days":13,"age_at_close":0.0,"popup":true,"popup_site":"구 경주역 부지(성동동 40)","cls":"임시영업(창업·폐업 중복)","lbl":"어향원","geocode":"V-World PARCEL","source":"2024년 황오동 원도심(중심시가지형) 도시재생뉴딜사업 성과지표 및 모니터링 용역 결과보고서(수정중) — 공공도시, 2025.09 (T2) 인쇄쪽 82–85 (행정안전부 지방행정인허가데이터 2025.05.31 기준)"}},{"type":"Feature","geometry":{"type":"Point","coordinates":[129.217834,35.845287]},"properties":{"kind":"폐업","name":"경주 읍성 간식","upjong":"휴게음식점","uptae":"기타 휴게음식점","group":"카페·휴게음식","lic_date":"2024.11.11","close_date":"2024.11.24","status":"폐업","addr":"성동동 40","dur_days":13,"age_at_close":0.0,"popup":true,"popup_site":"구 경주역 부지(성동동 40)","cls":"임시영업(창업·폐업 중복)","lbl":"경주 읍성 간식","geocode":"V-World PARCEL","source":"2024년 황오동 원도심(중심시가지형) 도시재생뉴딜사업 성과지표 및 모니터링 용역 결과보고서(수정중) — 공공도시, 2025.09 (T2) 인쇄쪽 82–85 (행정안전부 지방행정인허가데이터 2025.05.31 기준)"}},{"type":"Feature","geometry":{"type":"Point","coordinates":[129.217675,35.845234]},"properties":{"kind":"폐업","name":"장푸드","upjong":"일반음식점","uptae":"분식","group":"음식점·제과","lic_date":"2024.11.15","close_date":"2024.11.24","status":"폐업","addr":"성동동 40","dur_days":9,"age_at_close":0.0,"popup":true,"popup_site":"구 경주역 부지(성동동 40)","cls":"임시영업(창업·폐업 중복)","lbl":"장푸드","geocode":"V-World PARCEL","source":"2024년 황오동 원도심(중심시가지형) 도시재생뉴딜사업 성과지표 및 모니터링 용역 결과보고서(수정중) — 공공도시, 2025.09 (T2) 인쇄쪽 82–85 (행정안전부 지방행정인허가데이터 2025.05.31 기준)"}},{"type":"Feature","geometry":{"type":"Point","coordinates":[129.217609,35.845107]},"properties":{"kind":"폐업","name":"대승 참숯불뒷고기","upjong":"일반음식점","uptae":"한식","group":"음식점·제과","lic_date":"2024.11.15","close_date":"2024.11.24","status":"폐업","addr":"성동동 40","dur_days":9,"age_at_close":0.0,"popup":true,"popup_site":"구 경주역 부지(성동동 40)","cls":"임시영업(창업·폐업 중복)","lbl":"대승 참숯불뒷고기","geocode":"V-World PARCEL","source":"2024년 황오동 원도심(중심시가지형) 도시재생뉴딜사업 성과지표 및 모니터링 용역 결과보고서(수정중) — 공공도시, 2025.09 (T2) 인쇄쪽 82–85 (행정안전부 지방행정인허가데이터 2025.05.31 기준)"}},{"type":"Feature","geometry":{"type":"Point","coordinates":[129.2163,35.844584]},"properties":{"kind":"폐업","name":"전통콩국,콩국수","upjong":"일반음식점","uptae":"분식","group":"음식점·제과","lic_date":"2021.01.08","close_date":"2024.01.22","status":"폐업","addr":"성동동 399-65","dur_days":1109,"age_at_close":3.0,"popup":false,"popup_site":null,"cls":"폐업","lbl":"전통콩국,콩국수","geocode":"V-World PARCEL","source":"2024년 황오동 원도심(중심시가지형) 도시재생뉴딜사업 성과지표 및 모니터링 용역 결과보고서(수정중) — 공공도시, 2025.09 (T2) 인쇄쪽 82–85 (행정안전부 지방행정인허가데이터 2025.05.31 기준)"}},{"type":"Feature","geometry":{"type":"Point","coordinates":[129.215399,35.841366]},"properties":{"kind":"폐업","name":"경주사진다방","upjong":"일반음식점","uptae":"기타","group":"음식점·제과","lic_date":"2022.09.14","close_date":"2024.12.31","status":"폐업","addr":"황오동 308-1","dur_days":839,"age_at_close":2.3,"popup":false,"popup_site":null,"cls":"폐업","lbl":"경주사진다방","geocode":"V-World PARCEL","source":"2024년 황오동 원도심(중심시가지형) 도시재생뉴딜사업 성과지표 및 모니터링 용역 결과보고서(수정중) — 공공도시, 2025.09 (T2) 인쇄쪽 82–85 (행정안전부 지방행정인허가데이터 2025.05.31 기준)"}},{"type":"Feature","geometry":{"type":"Point","coordinates":[129.215415,35.842042]},"properties":{"kind":"폐업","name":"고도삼계탕","upjong":"일반음식점","uptae":"탕류(보신용)","group":"음식점·제과","lic_date":"1982.04.27","close_date":"2024.05.10","status":"폐업","addr":"황오동 282-7","dur_days":15354,"age_at_close":42.0,"popup":false,"popup_site":null,"cls":"폐업 (업력 10년+)","lbl":"고도삼계탕","geocode":"V-World PARCEL","source":"2024년 황오동 원도심(중심시가지형) 도시재생뉴딜사업 성과지표 및 모니터링 용역 결과보고서(수정중) — 공공도시, 2025.09 (T2) 인쇄쪽 82–85 (행정안전부 지방행정인허가데이터 2025.05.31 기준)"}},{"type":"Feature","geometry":{"type":"Point","coordinates":[129.217675,35.84498]},"properties":{"kind":"폐업","name":"고마움: 하루시작","upjong":"일반음식점","uptae":"기타","group":"음식점·제과","lic_date":"2024.05.03","close_date":"2024.05.26","status":"폐업","addr":"성동동 40","dur_days":23,"age_at_close":0.1,"popup":true,"popup_site":"구 경주역 부지(성동동 40)","cls":"임시영업(창업·폐업 중복)","lbl":"고마움: 하루시작","geocode":"V-World PARCEL","source":"2024년 황오동 원도심(중심시가지형) 도시재생뉴딜사업 성과지표 및 모니터링 용역 결과보고서(수정중) — 공공도시, 2025.09 (T2) 인쇄쪽 82–85 (행정안전부 지방행정인허가데이터 2025.05.31 기준)"}},{"type":"Feature","geometry":{"type":"Point","coordinates":[129.214415,35.846968]},"properties":{"kind":"폐업","name":"아라정원 경주곰탕","upjong":"일반음식점","uptae":"한식","group":"음식점·제과","lic_date":"2023.04.24","close_date":"2024.03.25","status":"폐업","addr":"성동동 351","dur_days":336,"age_at_close":0.9,"popup":false,"popup_site":null,"cls":"폐업","lbl":"아라정원 경주곰탕","geocode":"V-World PARCEL","source":"2024년 황오동 원도심(중심시가지형) 도시재생뉴딜사업 성과지표 및 모니터링 용역 결과보고서(수정중) — 공공도시, 2025.09 (T2) 인쇄쪽 82–85 (행정안전부 지방행정인허가데이터 2025.05.31 기준)"}},{"type":"Feature","geometry":{"type":"Point","coordinates":[129.217834,35.844927]},"properties":{"kind":"폐업","name":"태종기획","upjong":"일반음식점","uptae":"기타","group":"음식점·제과","lic_date":"2024.06.13","close_date":"2024.06.15","status":"폐업","addr":"성동동 40","dur_days":2,"age_at_close":0.0,"popup":true,"popup_site":"구 경주역 부지(성동동 40)","cls":"임시영업(창업·폐업 중복)","lbl":"태종기획","geocode":"V-World PARCEL","source":"2024년 황오동 원도심(중심시가지형) 도시재생뉴딜사업 성과지표 및 모니터링 용역 결과보고서(수정중) — 공공도시, 2025.09 (T2) 인쇄쪽 82–85 (행정안전부 지방행정인허가데이터 2025.05.31 기준)"}},{"type":"Feature","geometry":{"type":"Point","coordinates":[129.217759,35.841662]},"properties":{"kind":"폐업","name":"어제아래","upjong":"일반음식점","uptae":"호프/통닭","group":"음식점·제과","lic_date":"2017.07.31","close_date":"2024.12.25","status":"폐업","addr":"황오동 114-6","dur_days":2704,"age_at_close":7.4,"popup":false,"popup_site":null,"cls":"폐업","lbl":"어제아래","geocode":"V-World PARCEL","source":"2024년 황오동 원도심(중심시가지형) 도시재생뉴딜사업 성과지표 및 모니터링 용역 결과보고서(수정중) — 공공도시, 2025.09 (T2) 인쇄쪽 82–85 (행정안전부 지방행정인허가데이터 2025.05.31 기준)"}},{"type":"Feature","geometry":{"type":"Point","coordinates":[129.215641,35.845476]},"properties":{"kind":"폐업","name":"카네","upjong":"일반음식점","uptae":"기타","group":"음식점·제과","lic_date":"2024.10.31","close_date":"2024.11.08","status":"폐업","addr":"성동동 396-4","dur_days":8,"age_at_close":0.0,"popup":true,"popup_site":"성동시장 상인회(396-4)","cls":"임시영업(창업·폐업 중복)","lbl":"카네","geocode":"V-World PARCEL","source":"2024년 황오동 원도심(중심시가지형) 도시재생뉴딜사업 성과지표 및 모니터링 용역 결과보고서(수정중) — 공공도시, 2025.09 (T2) 인쇄쪽 82–85 (행정안전부 지방행정인허가데이터 2025.05.31 기준)"}},{"type":"Feature","geometry":{"type":"Point","coordinates":[129.215625,35.845444]},"properties":{"kind":"폐업","name":"성동시장 상인회","upjong":"일반음식점","uptae":"기타","group":"음식점·제과","lic_date":"2024.10.31","close_date":"2024.11.08","status":"폐업","addr":"성동동 396-4","dur_days":8,"age_at_close":0.0,"popup":true,"popup_site":"성동시장 상인회(396-4)","cls":"임시영업(창업·폐업 중복)","lbl":"성동시장 상인회","geocode":"V-World PARCEL","source":"2024년 황오동 원도심(중심시가지형) 도시재생뉴딜사업 성과지표 및 모니터링 용역 결과보고서(수정중) — 공공도시, 2025.09 (T2) 인쇄쪽 82–85 (행정안전부 지방행정인허가데이터 2025.05.31 기준)"}},{"type":"Feature","geometry":{"type":"Point","coordinates":[129.217993,35.84498]},"properties":{"kind":"폐업","name":"놀부보쌈&부대찌개 경주황오점","upjong":"일반음식점","uptae":"한식","group":"음식점·제과","lic_date":"2024.11.11","close_date":"2024.11.24","status":"폐업","addr":"성동동 40","dur_days":13,"age_at_close":0.0,"popup":true,"popup_site":"구 경주역 부지(성동동 40)","cls":"임시영업(창업·폐업 중복)","lbl":"놀부보쌈&부대찌개 경주황오점","geocode":"V-World PARCEL","source":"2024년 황오동 원도심(중심시가지형) 도시재생뉴딜사업 성과지표 및 모니터링 용역 결과보고서(수정중) — 공공도시, 2025.09 (T2) 인쇄쪽 82–85 (행정안전부 지방행정인허가데이터 2025.05.31 기준)"}},{"type":"Feature","geometry":{"type":"Point","coordinates":[129.218115,35.845107]},"properties":{"kind":"폐업","name":"둥지타코 엔 커피 경주황성점","upjong":"일반음식점","uptae":"기타","group":"음식점·제과","lic_date":"2024.11.11","close_date":"2024.11.24","status":"폐업","addr":"성동동 40","dur_days":13,"age_at_close":0.0,"popup":true,"popup_site":"구 경주역 부지(성동동 40)","cls":"임시영업(창업·폐업 중복)","lbl":"둥지타코 엔 커피 경주황성점","geocode":"V-World PARCEL","source":"2024년 황오동 원도심(중심시가지형) 도시재생뉴딜사업 성과지표 및 모니터링 용역 결과보고서(수정중) — 공공도시, 2025.09 (T2) 인쇄쪽 82–85 (행정안전부 지방행정인허가데이터 2025.05.31 기준)"}},{"type":"Feature","geometry":{"type":"Point","coordinates":[129.218033,35.845266]},"properties":{"kind":"폐업","name":"진성FNC","upjong":"일반음식점","uptae":"분식","group":"음식점·제과","lic_date":"2024.11.11","close_date":"2024.11.24","status":"폐업","addr":"성동동 40","dur_days":13,"age_at_close":0.0,"popup":true,"popup_site":"구 경주역 부지(성동동 40)","cls":"임시영업(창업·폐업 중복)","lbl":"진성FNC","geocode":"V-World PARCEL","source":"2024년 황오동 원도심(중심시가지형) 도시재생뉴딜사업 성과지표 및 모니터링 용역 결과보고서(수정중) — 공공도시, 2025.09 (T2) 인쇄쪽 82–85 (행정안전부 지방행정인허가데이터 2025.05.31 기준)"}},{"type":"Feature","geometry":{"type":"Point","coordinates":[129.217834,35.845332]},"properties":{"kind":"폐업","name":"경주한우천국","upjong":"일반음식점","uptae":"기타","group":"음식점·제과","lic_date":"2024.11.11","close_date":"2024.11.24","status":"폐업","addr":"성동동 40","dur_days":13,"age_at_close":0.0,"popup":true,"popup_site":"구 경주역 부지(성동동 40)","cls":"임시영업(창업·폐업 중복)","lbl":"경주한우천국","geocode":"V-World PARCEL","source":"2024년 황오동 원도심(중심시가지형) 도시재생뉴딜사업 성과지표 및 모니터링 용역 결과보고서(수정중) — 공공도시, 2025.09 (T2) 인쇄쪽 82–85 (행정안전부 지방행정인허가데이터 2025.05.31 기준)"}},{"type":"Feature","geometry":{"type":"Point","coordinates":[129.217635,35.845266]},"properties":{"kind":"폐업","name":"유빈식당","upjong":"일반음식점","uptae":"한식","group":"음식점·제과","lic_date":"2024.11.11","close_date":"2024.11.24","status":"폐업","addr":"성동동 40","dur_days":13,"age_at_close":0.0,"popup":true,"popup_site":"구 경주역 부지(성동동 40)","cls":"임시영업(창업·폐업 중복)","lbl":"유빈식당","geocode":"V-World PARCEL","source":"2024년 황오동 원도심(중심시가지형) 도시재생뉴딜사업 성과지표 및 모니터링 용역 결과보고서(수정중) — 공공도시, 2025.09 (T2) 인쇄쪽 82–85 (행정안전부 지방행정인허가데이터 2025.05.31 기준)"}},{"type":"Feature","geometry":{"type":"Point","coordinates":[129.217553,35.845107]},"properties":{"kind":"폐업","name":"임선생반찬","upjong":"일반음식점","uptae":"기타","group":"음식점·제과","lic_date":"2024.11.11","close_date":"2024.11.24","status":"폐업","addr":"성동동 40","dur_days":13,"age_at_close":0.0,"popup":true,"popup_site":"구 경주역 부지(성동동 40)","cls":"임시영업(창업·폐업 중복)","lbl":"임선생반찬","geocode":"V-World PARCEL","source":"2024년 황오동 원도심(중심시가지형) 도시재생뉴딜사업 성과지표 및 모니터링 용역 결과보고서(수정중) — 공공도시, 2025.09 (T2) 인쇄쪽 82–85 (행정안전부 지방행정인허가데이터 2025.05.31 기준)"}},{"type":"Feature","geometry":{"type":"Point","coordinates":[129.217635,35.844948]},"properties":{"kind":"폐업","name":"떡갈비당","upjong":"일반음식점","uptae":"기타","group":"음식점·제과","lic_date":"2024.11.13","close_date":"2024.11.24","status":"폐업","addr":"성동동 40","dur_days":11,"age_at_close":0.0,"popup":true,"popup_site":"구 경주역 부지(성동동 40)","cls":"임시영업(창업·폐업 중복)","lbl":"떡갈비당","geocode":"V-World PARCEL","source":"2024년 황오동 원도심(중심시가지형) 도시재생뉴딜사업 성과지표 및 모니터링 용역 결과보고서(수정중) — 공공도시, 2025.09 (T2) 인쇄쪽 82–85 (행정안전부 지방행정인허가데이터 2025.05.31 기준)"}},{"type":"Feature","geometry":{"type":"Point","coordinates":[129.215641,35.845412]},"properties":{"kind":"폐업","name":"성동시장 상인회","upjong":"일반음식점","uptae":"기타","group":"음식점·제과","lic_date":"2024.10.18","close_date":"2024.10.26","status":"폐업","addr":"성동동 396-4","dur_days":8,"age_at_close":0.0,"popup":true,"popup_site":"성동시장 상인회(396-4)","cls":"임시영업(창업·폐업 중복)","lbl":"성동시장 상인회","geocode":"V-World PARCEL","source":"2024년 황오동 원도심(중심시가지형) 도시재생뉴딜사업 성과지표 및 모니터링 용역 결과보고서(수정중) — 공공도시, 2025.09 (T2) 인쇄쪽 82–85 (행정안전부 지방행정인허가데이터 2025.05.31 기준)"}},{"type":"Feature","geometry":{"type":"Point","coordinates":[129.215681,35.845399]},"properties":{"kind":"폐업","name":"카네","upjong":"일반음식점","uptae":"일식","group":"음식점·제과","lic_date":"2024.10.18","close_date":"2024.10.26","status":"폐업","addr":"성동동 396-4","dur_days":8,"age_at_close":0.0,"popup":true,"popup_site":"성동시장 상인회(396-4)","cls":"임시영업(창업·폐업 중복)","lbl":"카네","geocode":"V-World PARCEL","source":"2024년 황오동 원도심(중심시가지형) 도시재생뉴딜사업 성과지표 및 모니터링 용역 결과보고서(수정중) — 공공도시, 2025.09 (T2) 인쇄쪽 82–85 (행정안전부 지방행정인허가데이터 2025.05.31 기준)"}},{"type":"Feature","geometry":{"type":"Point","coordinates":[129.217834,35.844882]},"properties":{"kind":"폐업","name":"오륙돈","upjong":"일반음식점","uptae":"식육(숯불구이)","group":"음식점·제과","lic_date":"2024.09.06","close_date":"2024.09.08","status":"폐업","addr":"성동동 40","dur_days":2,"age_at_close":0.0,"popup":true,"popup_site":"구 경주역 부지(성동동 40)","cls":"임시영업(창업·폐업 중복)","lbl":"오륙돈","geocode":"V-World PARCEL","source":"2024년 황오동 원도심(중심시가지형) 도시재생뉴딜사업 성과지표 및 모니터링 용역 결과보고서(수정중) — 공공도시, 2025.09 (T2) 인쇄쪽 82–85 (행정안전부 지방행정인허가데이터 2025.05.31 기준)"}},{"type":"Feature","geometry":{"type":"Point","coordinates":[129.218033,35.844948]},"properties":{"kind":"폐업","name":"불레(bulle)","upjong":"일반음식점","uptae":"기타","group":"음식점·제과","lic_date":"2024.09.06","close_date":"2024.09.08","status":"폐업","addr":"성동동 40","dur_days":2,"age_at_close":0.0,"popup":true,"popup_site":"구 경주역 부지(성동동 40)","cls":"임시영업(창업·폐업 중복)","lbl":"불레(bulle)","geocode":"V-World PARCEL","source":"2024년 황오동 원도심(중심시가지형) 도시재생뉴딜사업 성과지표 및 모니터링 용역 결과보고서(수정중) — 공공도시, 2025.09 (T2) 인쇄쪽 82–85 (행정안전부 지방행정인허가데이터 2025.05.31 기준)"}},{"type":"Feature","geometry":{"type":"Point","coordinates":[129.217688,35.847383]},"properties":{"kind":"폐업","name":"오륙돈","upjong":"일반음식점","uptae":"식육(숯불구이)","group":"음식점·제과","lic_date":"2024.09.24","close_date":"2024.09.28","status":"폐업","addr":"황오동 129-1","dur_days":4,"age_at_close":0.0,"popup":false,"popup_site":null,"cls":"폐업","lbl":"오륙돈","geocode":"V-World PARCEL","source":"2024년 황오동 원도심(중심시가지형) 도시재생뉴딜사업 성과지표 및 모니터링 용역 결과보고서(수정중) — 공공도시, 2025.09 (T2) 인쇄쪽 82–85 (행정안전부 지방행정인허가데이터 2025.05.31 기준)"}},{"type":"Feature","geometry":{"type":"Point","coordinates":[129.214234,35.847734]},"properties":{"kind":"폐업","name":"로피(roffi)","upjong":"일반음식점","uptae":"기타","group":"음식점·제과","lic_date":"2019.01.07","close_date":"2024.07.05","status":"폐업","addr":"성동동 256","dur_days":2006,"age_at_close":5.5,"popup":false,"popup_site":null,"cls":"폐업","lbl":"로피(roffi)","geocode":"V-World PARCEL","source":"2024년 황오동 원도심(중심시가지형) 도시재생뉴딜사업 성과지표 및 모니터링 용역 결과보고서(수정중) — 공공도시, 2025.09 (T2) 인쇄쪽 82–85 (행정안전부 지방행정인허가데이터 2025.05.31 기준)"}},{"type":"Feature","geometry":{"type":"Point","coordinates":[129.216044,35.843233]},"properties":{"kind":"폐업","name":"이브노래궁","upjong":"유흥주점영업","uptae":"간이주점","group":"유흥·오락","lic_date":"2012.05.15","close_date":"2024.05.30","status":"폐업","addr":"황오동 258-2","dur_days":4398,"age_at_close":12.0,"popup":false,"popup_site":null,"cls":"폐업 (업력 10년+)","lbl":"이브노래궁","geocode":"V-World PARCEL","source":"2024년 황오동 원도심(중심시가지형) 도시재생뉴딜사업 성과지표 및 모니터링 용역 결과보고서(수정중) — 공공도시, 2025.09 (T2) 인쇄쪽 82–85 (행정안전부 지방행정인허가데이터 2025.05.31 기준)"}},{"type":"Feature","geometry":{"type":"Point","coordinates":[129.21417,35.847384]},"properties":{"kind":"폐업","name":"세이크래프트","upjong":"즉석판매제조가공업","uptae":"즉석판매제조가공업","group":"생활소매·식품제조","lic_date":"2022.05.31","close_date":"2024.12.30","status":"폐업","addr":"성동동 258-2","dur_days":944,"age_at_close":2.6,"popup":false,"popup_site":null,"cls":"폐업","lbl":"세이크래프트","geocode":"V-World PARCEL","source":"2024년 황오동 원도심(중심시가지형) 도시재생뉴딜사업 성과지표 및 모니터링 용역 결과보고서(수정중) — 공공도시, 2025.09 (T2) 인쇄쪽 82–85 (행정안전부 지방행정인허가데이터 2025.05.31 기준)"}},{"type":"Feature","geometry":{"type":"Point","coordinates":[129.216861,35.845715]},"properties":{"kind":"폐업","name":"금산인삼제탕원","upjong":"즉석판매제조가공업","uptae":"즉석판매제조가공업","group":"생활소매·식품제조","lic_date":"2016.08.19","close_date":"2024.11.25","status":"폐업","addr":"성동동 57-21","dur_days":3020,"age_at_close":8.3,"popup":false,"popup_site":null,"cls":"폐업","lbl":"금산인삼제탕원","geocode":"V-World PARCEL","source":"2024년 황오동 원도심(중심시가지형) 도시재생뉴딜사업 성과지표 및 모니터링 용역 결과보고서(수정중) — 공공도시, 2025.09 (T2) 인쇄쪽 82–85 (행정안전부 지방행정인허가데이터 2025.05.31 기준)"}},{"type":"Feature","geometry":{"type":"Point","coordinates":[129.217538,35.845503]},"properties":{"kind":"폐업","name":"진삼영농조합","upjong":"즉석판매제조가공업","uptae":"즉석판매제조가공업","group":"생활소매·식품제조","lic_date":"2024.01.10","close_date":"2024.01.25","status":"폐업","addr":"성동동 43-5","dur_days":15,"age_at_close":0.0,"popup":true,"popup_site":"성동동 43-5","cls":"임시영업(창업·폐업 중복)","lbl":"진삼영농조합","geocode":"V-World PARCEL","source":"2024년 황오동 원도심(중심시가지형) 도시재생뉴딜사업 성과지표 및 모니터링 용역 결과보고서(수정중) — 공공도시, 2025.09 (T2) 인쇄쪽 82–85 (행정안전부 지방행정인허가데이터 2025.05.31 기준)"}},{"type":"Feature","geometry":{"type":"Point","coordinates":[129.216934,35.845057]},"properties":{"kind":"폐업","name":"호호네보리밥한식뷔페 반찬가게","upjong":"즉석판매제조가공업","uptae":"즉석판매제조가공업","group":"생활소매·식품제조","lic_date":"2021.05.04","close_date":"2024.04.17","status":"폐업","addr":"성동동 50-1","dur_days":1079,"age_at_close":3.0,"popup":false,"popup_site":null,"cls":"폐업","lbl":"호호네보리밥한식뷔페 반찬가게","geocode":"V-World PARCEL","source":"2024년 황오동 원도심(중심시가지형) 도시재생뉴딜사업 성과지표 및 모니터링 용역 결과보고서(수정중) — 공공도시, 2025.09 (T2) 인쇄쪽 82–85 (행정안전부 지방행정인허가데이터 2025.05.31 기준)"}},{"type":"Feature","geometry":{"type":"Point","coordinates":[129.214925,35.847246]},"properties":{"kind":"폐업","name":"쌤떡볶이","upjong":"즉석판매제조가공업","uptae":"즉석판매제조가공업","group":"생활소매·식품제조","lic_date":"2021.05.06","close_date":"2024.01.05","status":"폐업","addr":"성동동 259-8","dur_days":974,"age_at_close":2.7,"popup":false,"popup_site":null,"cls":"폐업","lbl":"쌤떡볶이","geocode":"V-World PARCEL","source":"2024년 황오동 원도심(중심시가지형) 도시재생뉴딜사업 성과지표 및 모니터링 용역 결과보고서(수정중) — 공공도시, 2025.09 (T2) 인쇄쪽 82–85 (행정안전부 지방행정인허가데이터 2025.05.31 기준)"}},{"type":"Feature","geometry":{"type":"Point","coordinates":[129.217498,35.845516]},"properties":{"kind":"폐업","name":"백두산천지인","upjong":"즉석판매제조가공업","uptae":"즉석판매제조가공업","group":"생활소매·식품제조","lic_date":"2024.05.16","close_date":"2024.05.25","status":"폐업","addr":"성동동 43-5","dur_days":9,"age_at_close":0.0,"popup":true,"popup_site":"성동동 43-5","cls":"임시영업(창업·폐업 중복)","lbl":"백두산천지인","geocode":"V-World PARCEL","source":"2024년 황오동 원도심(중심시가지형) 도시재생뉴딜사업 성과지표 및 모니터링 용역 결과보고서(수정중) — 공공도시, 2025.09 (T2) 인쇄쪽 82–85 (행정안전부 지방행정인허가데이터 2025.05.31 기준)"}},{"type":"Feature","geometry":{"type":"Point","coordinates":[129.214471,35.846968]},"properties":{"kind":"폐업","name":"아라정원 경주곰탕","upjong":"즉석판매제조가공업","uptae":"즉석판매제조가공업","group":"생활소매·식품제조","lic_date":"2023.05.08","close_date":"2024.03.25","status":"폐업","addr":"성동동 351","dur_days":322,"age_at_close":0.9,"popup":false,"popup_site":null,"cls":"폐업","lbl":"아라정원 경주곰탕","geocode":"V-World PARCEL","source":"2024년 황오동 원도심(중심시가지형) 도시재생뉴딜사업 성과지표 및 모니터링 용역 결과보고서(수정중) — 공공도시, 2025.09 (T2) 인쇄쪽 82–85 (행정안전부 지방행정인허가데이터 2025.05.31 기준)"}},{"type":"Feature","geometry":{"type":"Point","coordinates":[129.218245,35.841661]},"properties":{"kind":"폐업","name":"신라당 경주양갱","upjong":"즉석판매제조가공업","uptae":"즉석판매제조가공업","group":"생활소매·식품제조","lic_date":"2023.09.04","close_date":"2024.06.17","status":"폐업","addr":"황오동 113-7","dur_days":287,"age_at_close":0.8,"popup":false,"popup_site":null,"cls":"폐업","lbl":"신라당 경주양갱","geocode":"V-World PARCEL","source":"2024년 황오동 원도심(중심시가지형) 도시재생뉴딜사업 성과지표 및 모니터링 용역 결과보고서(수정중) — 공공도시, 2025.09 (T2) 인쇄쪽 82–85 (행정안전부 지방행정인허가데이터 2025.05.31 기준)"}},{"type":"Feature","geometry":{"type":"Point","coordinates":[129.215384,35.84155]},"properties":{"kind":"폐업","name":"경주황남빵","upjong":"제과점영업","uptae":"제과점영업","group":"음식점·제과","lic_date":"2003.07.08","close_date":"2024.03.08","status":"폐업","addr":"황오동 307-2","dur_days":7549,"age_at_close":20.7,"popup":false,"popup_site":null,"cls":"폐업 (업력 10년+)","lbl":"경주황남빵","geocode":"V-World PARCEL","source":"2024년 황오동 원도심(중심시가지형) 도시재생뉴딜사업 성과지표 및 모니터링 용역 결과보고서(수정중) — 공공도시, 2025.09 (T2) 인쇄쪽 82–85 (행정안전부 지방행정인허가데이터 2025.05.31 기준)"}},{"type":"Feature","geometry":{"type":"Point","coordinates":[129.218172,35.845107]},"properties":{"kind":"폐업","name":"베리데이지 경주점","upjong":"제과점영업","uptae":"제과점영업","group":"음식점·제과","lic_date":"2024.05.03","close_date":"2024.05.26","status":"폐업","addr":"성동동 40","dur_days":23,"age_at_close":0.1,"popup":true,"popup_site":"구 경주역 부지(성동동 40)","cls":"임시영업(창업·폐업 중복)","lbl":"베리데이지 경주점","geocode":"V-World PARCEL","source":"2024년 황오동 원도심(중심시가지형) 도시재생뉴딜사업 성과지표 및 모니터링 용역 결과보고서(수정중) — 공공도시, 2025.09 (T2) 인쇄쪽 82–85 (행정안전부 지방행정인허가데이터 2025.05.31 기준)"}},{"type":"Feature","geometry":{"type":"Point","coordinates":[129.21634,35.845628]},"properties":{"kind":"폐업","name":"남산닭집","upjong":"축산판매업","uptae":"식육판매업","group":"생활소매·식품제조","lic_date":"2004.11.18","close_date":"2024.03.22","status":"폐업","addr":"성동동 57-73","dur_days":7064,"age_at_close":19.3,"popup":false,"popup_site":null,"cls":"폐업 (업력 10년+)","lbl":"남산닭집","geocode":"V-World PARCEL","source":"2024년 황오동 원도심(중심시가지형) 도시재생뉴딜사업 성과지표 및 모니터링 용역 결과보고서(수정중) — 공공도시, 2025.09 (T2) 인쇄쪽 82–85 (행정안전부 지방행정인허가데이터 2025.05.31 기준)"}},{"type":"Feature","geometry":{"type":"Point","coordinates":[129.216931,35.845264]},"properties":{"kind":"폐업","name":"성주유통","upjong":"집단급식소식품판매업","uptae":"집단급식소 식품판매업","group":"생활소매·식품제조","lic_date":"2008.08.12","close_date":"2024.04.17","status":"폐업","addr":"성동동 273-1","dur_days":5727,"age_at_close":15.7,"popup":false,"popup_site":null,"cls":"폐업 (업력 10년+)","lbl":"성주유통","geocode":"V-World ROAD","source":"2024년 황오동 원도심(중심시가지형) 도시재생뉴딜사업 성과지표 및 모니터링 용역 결과보고서(수정중) — 공공도시, 2025.09 (T2) 인쇄쪽 82–85 (행정안전부 지방행정인허가데이터 2025.05.31 기준)"}},{"type":"Feature","geometry":{"type":"Point","coordinates":[129.21713,35.845703]},"properties":{"kind":"폐업","name":"대양상회","upjong":"집단급식소식품판매업","uptae":"집단급식소 식품판매업","group":"생활소매·식품제조","lic_date":"2008.10.13","close_date":"2024.04.04","status":"폐업","addr":"성동동 62-2","dur_days":5652,"age_at_close":15.5,"popup":false,"popup_site":null,"cls":"폐업 (업력 10년+)","lbl":"대양상회","geocode":"V-World PARCEL","source":"2024년 황오동 원도심(중심시가지형) 도시재생뉴딜사업 성과지표 및 모니터링 용역 결과보고서(수정중) — 공공도시, 2025.09 (T2) 인쇄쪽 82–85 (행정안전부 지방행정인허가데이터 2025.05.31 기준)"}},{"type":"Feature","geometry":{"type":"Point","coordinates":[129.216987,35.845967]},"properties":{"kind":"폐업","name":"연승유통","upjong":"집단급식소식품판매업","uptae":"집단급식소 식품판매업","group":"생활소매·식품제조","lic_date":"2017.09.04","close_date":"2024.04.17","status":"폐업","addr":"성동동 70-2","dur_days":2417,"age_at_close":6.6,"popup":false,"popup_site":null,"cls":"폐업","lbl":"연승유통","geocode":"V-World PARCEL","source":"2024년 황오동 원도심(중심시가지형) 도시재생뉴딜사업 성과지표 및 모니터링 용역 결과보고서(수정중) — 공공도시, 2025.09 (T2) 인쇄쪽 82–85 (행정안전부 지방행정인허가데이터 2025.05.31 기준)"}},{"type":"Feature","geometry":{"type":"Point","coordinates":[129.216992,35.843591]},"properties":{"kind":"폐업","name":"용인내과의원","upjong":"수질오염원설치시설(기타)","uptae":"-","group":"생활서비스·의료","lic_date":"2024.08.05","close_date":"2024.08.05","status":"취소/말소/만료/정지/중지","addr":"황오동 175-1","dur_days":0,"age_at_close":0.0,"popup":false,"popup_site":null,"cls":"폐업","lbl":"용인내과의원","geocode":"V-World PARCEL","source":"2024년 황오동 원도심(중심시가지형) 도시재생뉴딜사업 성과지표 및 모니터링 용역 결과보고서(수정중) — 공공도시, 2025.09 (T2) 인쇄쪽 82–85 (행정안전부 지방행정인허가데이터 2025.05.31 기준)"}},{"type":"Feature","geometry":{"type":"Point","coordinates":[129.217529,35.846537]},"properties":{"kind":"폐업","name":"세아상사","upjong":"담배소매업","uptae":"-","group":"생활소매·식품제조","lic_date":"2020.12.18","close_date":"2024.03.19","status":"폐업","addr":"성동동 91-10","dur_days":1187,"age_at_close":3.2,"popup":false,"popup_site":null,"cls":"폐업","lbl":"세아상사","geocode":"V-World PARCEL","source":"2024년 황오동 원도심(중심시가지형) 도시재생뉴딜사업 성과지표 및 모니터링 용역 결과보고서(수정중) — 공공도시, 2025.09 (T2) 인쇄쪽 82–85 (행정안전부 지방행정인허가데이터 2025.05.31 기준)"}},{"type":"Feature","geometry":{"type":"Point","coordinates":[129.215351,35.847279]},"properties":{"kind":"폐업","name":"대원슈퍼","upjong":"담배소매업","uptae":"-","group":"생활소매·식품제조","lic_date":"1980.07.01","close_date":"2024.04.01","status":"폐업","addr":"성동동 270-3","dur_days":15980,"age_at_close":43.8,"popup":false,"popup_site":null,"cls":"폐업 (업력 10년+)","lbl":"대원슈퍼","geocode":"V-World PARCEL","source":"2024년 황오동 원도심(중심시가지형) 도시재생뉴딜사업 성과지표 및 모니터링 용역 결과보고서(수정중) — 공공도시, 2025.09 (T2) 인쇄쪽 82–85 (행정안전부 지방행정인허가데이터 2025.05.31 기준)"}},{"type":"Feature","geometry":{"type":"Point","coordinates":[129.214158,35.847718]},"properties":{"kind":"사회적경제조직","cls":"사회적경제조직","name":"주식회사 사이시옷","upjong":"사회적기업","uptae":"지역사회공헌형 · 관광,운동","group":"사회적경제","lic_date":"2023","addr":"동문로 38 1층","lbl":"주식회사 사이시옷","geocode":"V-World ROAD","source":"2024년 황오동 원도심(중심시가지형) 도시재생뉴딜사업 성과지표 및 모니터링 용역 결과보고서(수정중) — 공공도시, 2025.09 (T2) 인쇄쪽 86 (사회적기업포털·협동조합 2025.08.15)"}},{"type":"Feature","geometry":{"type":"Point","coordinates":[129.217027,35.845255]},"properties":{"kind":"사회적경제조직","cls":"사회적경제조직","name":"특농경주 협동조합","upjong":"일반협동조합","uptae":"농업,어업 및 임업","group":"사회적경제","lic_date":"2014.01.20","addr":"원화로 275 (성동동)","lbl":"특농경주 협동조합","geocode":"V-World ROAD","source":"2024년 황오동 원도심(중심시가지형) 도시재생뉴딜사업 성과지표 및 모니터링 용역 결과보고서(수정중) — 공공도시, 2025.09 (T2) 인쇄쪽 86 (사회적기업포털·협동조합 2025.08.15)"}},{"type":"Feature","geometry":{"type":"Point","coordinates":[129.216,35.846484]},"properties":{"kind":"사회적경제조직","cls":"사회적경제조직","name":"경주학교급식유통협동조합","upjong":"일반협동조합","uptae":"도매 및 소매업","group":"사회적경제","lic_date":"2014.04.14","addr":"북성로130번길 8 (성동동)","lbl":"경주학교급식유통협동조합","geocode":"V-World ROAD","source":"2024년 황오동 원도심(중심시가지형) 도시재생뉴딜사업 성과지표 및 모니터링 용역 결과보고서(수정중) — 공공도시, 2025.09 (T2) 인쇄쪽 86 (사회적기업포털·협동조합 2025.08.15)"}},{"type":"Feature","geometry":{"type":"Point","coordinates":[129.215414,35.842056]},"properties":{"kind":"사회적경제조직","cls":"사회적경제조직","name":"나풀나풀협동조합","upjong":"일반협동조합","uptae":"도매 및 소매업","group":"사회적경제","lic_date":"2020.07.07","addr":"북정로 12 (황오동)","lbl":"나풀나풀협동조합","geocode":"V-World ROAD","source":"2024년 황오동 원도심(중심시가지형) 도시재생뉴딜사업 성과지표 및 모니터링 용역 결과보고서(수정중) — 공공도시, 2025.09 (T2) 인쇄쪽 86 (사회적기업포털·협동조합 2025.08.15)"}},{"type":"Feature","geometry":{"type":"Point","coordinates":[129.215377,35.84273]},"properties":{"kind":"사회적경제조직","cls":"사회적경제조직","name":"성림조형원 사회적협동조합","upjong":"사회적협동조합","uptae":"예술,스포츠 및 여가관련 서비스업","group":"사회적경제","lic_date":"2020.12.30","addr":"황오동 274-9","lbl":"성림조형원 사회적협동조합","geocode":"V-World PARCEL","source":"2024년 황오동 원도심(중심시가지형) 도시재생뉴딜사업 성과지표 및 모니터링 용역 결과보고서(수정중) — 공공도시, 2025.09 (T2) 인쇄쪽 86 (사회적기업포털·협동조합 2025.08.15)"}},{"type":"Feature","geometry":{"type":"Point","coordinates":[129.215942,35.842378]},"properties":{"kind":"사회적경제조직","cls":"사회적경제조직","name":"코리아 심포닉 브라스 사회적협동조합","upjong":"사회적협동조합","uptae":"예술,스포츠 및 여가관련 서비스업","group":"사회적경제","lic_date":"2021.06.30","addr":"북정로 16-7","lbl":"코리아 심포닉 브라스 사회적협동조합","geocode":"V-World ROAD","source":"2024년 황오동 원도심(중심시가지형) 도시재생뉴딜사업 성과지표 및 모니터링 용역 결과보고서(수정중) — 공공도시, 2025.09 (T2) 인쇄쪽 86 (사회적기업포털·협동조합 2025.08.15)"}},{"type":"Feature","geometry":{"type":"Point","coordinates":[129.217495,35.848038]},"properties":{"kind":"사회적경제조직","cls":"사회적경제조직","name":"디지털콘텐츠 협동조합","upjong":"일반협동조합","uptae":"출판,영상,방송통신 및 정보서비스업","group":"사회적경제","lic_date":"2022.03.25","addr":"원화로 308-1 (성동동)","lbl":"디지털콘텐츠 협동조합","geocode":"V-World ROAD","source":"2024년 황오동 원도심(중심시가지형) 도시재생뉴딜사업 성과지표 및 모니터링 용역 결과보고서(수정중) — 공공도시, 2025.09 (T2) 인쇄쪽 86 (사회적기업포털·협동조합 2025.08.15)"}},{"type":"Feature","geometry":{"type":"Point","coordinates":[129.21685,35.843422]},"properties":{"kind":"사회적경제조직","cls":"사회적경제조직","name":"황오 마을관리 사회적협동조합","upjong":"사회적협동조합","uptae":"사업시설관리 및 사업지원 서비스업","group":"사회적경제","lic_date":"2022.09.27","addr":"원화로 255 6층","lbl":"황오 마을관리 사회적협동조합","geocode":"V-World ROAD","source":"2024년 황오동 원도심(중심시가지형) 도시재생뉴딜사업 성과지표 및 모니터링 용역 결과보고서(수정중) — 공공도시, 2025.09 (T2) 인쇄쪽 86 (사회적기업포털·협동조합 2025.08.15)"}}]}