{"type":"FeatureCollection","features":[{"type":"Feature","geometry":{"type":"Point","coordinates":[129.216410228231,35.8456244439158]},"properties":{"addr":"원화로281번길 9-7","jiga_2018":3021000.0,"jiga_2022":3412000.0,"jiga_2025":3184000.0,"chg_18_25_pct":5.4,"chg_21_22_pct":4.4,"series":"{\"2018\": 3021000.0, \"2019\": 3052000.0, \"2020\": 3048000.0, \"2021\": 3268000.0, \"2022\": 3412000.0, \"2023\": 3145000.0, \"2024\": 3152000.0, \"2025\": 3184000.0}","lbl":"+5%","source":"황오동 원도심 모니터링 2025.09 인쇄쪽 60 (토지이음 개별공시지가, T2 전사) · 좌표 카카오 주소검색","note":""}},{"type":"Feature","geometry":{"type":"Point","coordinates":[129.216311960953,35.8453940583343]},"properties":{"addr":"원화로281번길 11","jiga_2018":2070000.0,"jiga_2022":3181000.0,"jiga_2025":3013000.0,"chg_18_25_pct":45.6,"chg_21_22_pct":6.3,"series":"{\"2018\": 2070000.0, \"2019\": 2070000.0, \"2020\": 2961000.0, \"2021\": 2992000.0, \"2022\": 3181000.0, \"2023\": 2931000.0, \"2024\": 2937000.0, \"2025\": 3013000.0}","lbl":"+46%","source":"황오동 원도심 모니터링 2025.09 인쇄쪽 60 (토지이음 개별공시지가, T2 전사) · 좌표 카카오 주소검색","note":""}},{"type":"Feature","geometry":{"type":"Point","coordinates":[129.216248008075,35.8446947671706]},"properties":{"addr":"화랑로 139-8","jiga_2018":2989000.0,"jiga_2022":3385000.0,"jiga_2025":3162000.0,"chg_18_25_pct":5.8,"chg_21_22_pct":3.9,"series":"{\"2018\": 2989000.0, \"2019\": 3021000.0, \"2020\": 3083000.0, \"2021\": 3257000.0, \"2022\": 3385000.0, \"2023\": 3123000.0, \"2024\": 3130000.0, \"2025\": 3162000.0}","lbl":"+6%","source":"황오동 원도심 모니터링 2025.09 인쇄쪽 60 (토지이음 개별공시지가, T2 전사) · 좌표 카카오 주소검색","note":""}},{"type":"Feature","geometry":{"type":"Point","coordinates":[129.216238086161,35.8445967364973]},"properties":{"addr":"화랑로 139-2","jiga_2018":7570000.0,"jiga_2022":8530000.0,"jiga_2025":7950000.0,"chg_18_25_pct":5.0,"chg_21_22_pct":4.7,"series":"{\"2018\": 7570000.0, \"2019\": 7570000.0, \"2020\": 7570000.0, \"2021\": 8150000.0, \"2022\": 8530000.0, \"2023\": 7881000.0, \"2024\": 7888000.0, \"2025\": 7950000.0}","lbl":"+5%","source":"황오동 원도심 모니터링 2025.09 인쇄쪽 60 (토지이음 개별공시지가, T2 전사) · 좌표 카카오 주소검색","note":""}},{"type":"Feature","geometry":{"type":"Point","coordinates":[129.21637318404,35.8446156884795]},"properties":{"addr":"화랑로 141-1","jiga_2018":7494000.0,"jiga_2022":8530000.0,"jiga_2025":7950000.0,"chg_18_25_pct":6.1,"chg_21_22_pct":5.7,"series":"{\"2018\": 7494000.0, \"2019\": 7494000.0, \"2020\": 7494000.0, \"2021\": 8068000.0, \"2022\": 8530000.0, \"2023\": 7881000.0, \"2024\": 7888000.0, \"2025\": 7950000.0}","lbl":"+6%","source":"황오동 원도심 모니터링 2025.09 인쇄쪽 60 (토지이음 개별공시지가, T2 전사) · 좌표 카카오 주소검색","note":""}},{"type":"Feature","geometry":{"type":"Point","coordinates":[129.216323411403,35.8448512386518]},"properties":{"addr":"화랑로 139-28","jiga_2018":2570000.0,"jiga_2022":3175000.0,"jiga_2025":2966000.0,"chg_18_25_pct":15.4,"chg_21_22_pct":4.3,"series":"{\"2018\": 2570000.0, \"2019\": 2570000.0, \"2020\": 2845000.0, \"2021\": 3045000.0, \"2022\": 3175000.0, \"2023\": 2929000.0, \"2024\": 2936000.0, \"2025\": 2966000.0}","lbl":"+15%","source":"황오동 원도심 모니터링 2025.09 인쇄쪽 60 (토지이음 개별공시지가, T2 전사) · 좌표 카카오 주소검색","note":""}},{"type":"Feature","geometry":{"type":"Point","coordinates":[129.216398892915,35.8451059223748]},"properties":{"addr":"화랑로 139-64","jiga_2018":3021000.0,"jiga_2022":3385000.0,"jiga_2025":3162000.0,"chg_18_25_pct":4.7,"chg_21_22_pct":2.9,"series":"{\"2018\": 3021000.0, \"2019\": 3052000.0, \"2020\": 3115000.0, \"2021\": 3290000.0, \"2022\": 3385000.0, \"2023\": 3123000.0, \"2024\": 3130000.0, \"2025\": 3162000.0}","lbl":"+5%","source":"황오동 원도심 모니터링 2025.09 인쇄쪽 60 (토지이음 개별공시지가, T2 전사) · 좌표 카카오 주소검색","note":""}},{"type":"Feature","geometry":{"type":"Point","coordinates":[129.216388410687,35.8449360888962]},"properties":{"addr":"화랑로 139-32","jiga_2018":3021000.0,"jiga_2022":3385000.0,"jiga_2025":3162000.0,"chg_18_25_pct":4.7,"chg_21_22_pct":2.9,"series":"{\"2018\": 3021000.0, \"2019\": 3052000.0, \"2020\": 3115000.0, \"2021\": 3290000.0, \"2022\": 3385000.0, \"2023\": 3123000.0, \"2024\": 3130000.0, \"2025\": 3162000.0}","lbl":"+5%","source":"황오동 원도심 모니터링 2025.09 인쇄쪽 60 (토지이음 개별공시지가, T2 전사) · 좌표 카카오 주소검색","note":""}},{"type":"Feature","geometry":{"type":"Point","coordinates":[129.216379076312,35.8447796597792]},"properties":{"addr":"화랑로 139-14","jiga_2018":2989000.0,"jiga_2022":3385000.0,"jiga_2025":3162000.0,"chg_18_25_pct":5.8,"chg_21_22_pct":3.9,"series":"{\"2018\": 2989000.0, \"2019\": 3021000.0, \"2020\": 3083000.0, \"2021\": 3257000.0, \"2022\": 3385000.0, \"2023\": 3123000.0, \"2024\": 3130000.0, \"2025\": 3162000.0}","lbl":"+6%","source":"황오동 원도심 모니터링 2025.09 인쇄쪽 60 (토지이음 개별공시지가, T2 전사) · 좌표 카카오 주소검색","note":""}},{"type":"Feature","geometry":{"type":"Point","coordinates":[129.216547424466,35.8447765531561]},"properties":{"addr":"화랑로 141-20","jiga_2018":2570000.0,"jiga_2022":3175000.0,"jiga_2025":2966000.0,"chg_18_25_pct":15.4,"chg_21_22_pct":4.3,"series":"{\"2018\": 2570000.0, \"2019\": 2570000.0, \"2020\": 2845000.0, \"2021\": 3045000.0, \"2022\": 3175000.0, \"2023\": 2929000.0, \"2024\": 2936000.0, \"2025\": 2966000.0}","lbl":"+15%","source":"황오동 원도심 모니터링 2025.09 인쇄쪽 60 (토지이음 개별공시지가, T2 전사) · 좌표 카카오 주소검색","note":""}},{"type":"Feature","geometry":{"type":"Point","coordinates":[129.216753372524,35.8446333609355]},"properties":{"addr":"화랑로 143-4","jiga_2018":3860000.0,"jiga_2022":4505000.0,"jiga_2025":4199000.0,"chg_18_25_pct":8.8,"chg_21_22_pct":5.5,"series":"{\"2018\": 3860000.0, \"2019\": 3940000.0, \"2020\": 3940000.0, \"2021\": 4270000.0, \"2022\": 4505000.0, \"2023\": 4153000.0, \"2024\": 4160000.0, \"2025\": 4199000.0}","lbl":"+9%","source":"황오동 원도심 모니터링 2025.09 인쇄쪽 60 (토지이음 개별공시지가, T2 전사) · 좌표 카카오 주소검색","note":""}},{"type":"Feature","geometry":{"type":"Point","coordinates":[129.216756538824,35.8446834906198]},"properties":{"addr":"화랑로 143-6","jiga_2018":3860000.0,"jiga_2022":4505000.0,"jiga_2025":4199000.0,"chg_18_25_pct":8.8,"chg_21_22_pct":5.5,"series":"{\"2018\": 3860000.0, \"2019\": 3940000.0, \"2020\": 3940000.0, \"2021\": 4270000.0, \"2022\": 4505000.0, \"2023\": 4153000.0, \"2024\": 4160000.0, \"2025\": 4199000.0}","lbl":"+9%","source":"황오동 원도심 모니터링 2025.09 인쇄쪽 60 (토지이음 개별공시지가, T2 전사) · 좌표 카카오 주소검색","note":""}},{"type":"Feature","geometry":{"type":"Point","coordinates":[129.216686007799,35.84505584202]},"properties":{"addr":"성동동 51-4","jiga_2018":3782000.0,"jiga_2022":4369000.0,"jiga_2025":4073000.0,"chg_18_25_pct":7.7,"chg_21_22_pct":5.5,"series":"{\"2018\": 3782000.0, \"2019\": 3821000.0, \"2020\": 3821000.0, \"2021\": 4141000.0, \"2022\": 4369000.0, \"2023\": 4028000.0, \"2024\": 4035000.0, \"2025\": 4073000.0}","lbl":"+8%","source":"황오동 원도심 모니터링 2025.09 인쇄쪽 60 (토지이음 개별공시지가, T2 전사) · 좌표 카카오 주소검색","note":""}},{"type":"Feature","geometry":{"type":"Point","coordinates":[129.216673332111,35.8449304704938]},"properties":{"addr":"화랑로 141-38","jiga_2018":3860000.0,"jiga_2022":4505000.0,"jiga_2025":4199000.0,"chg_18_25_pct":8.8,"chg_21_22_pct":5.5,"series":"{\"2018\": 3860000.0, \"2019\": 3940000.0, \"2020\": 3940000.0, \"2021\": 4270000.0, \"2022\": 4505000.0, \"2023\": 4153000.0, \"2024\": 4160000.0, \"2025\": 4199000.0}","lbl":"+9%","source":"황오동 원도심 모니터링 2025.09 인쇄쪽 60 (토지이음 개별공시지가, T2 전사) · 좌표 카카오 주소검색","note":""}},{"type":"Feature","geometry":{"type":"Point","coordinates":[129.21659724046,35.8450593724168]},"properties":{"addr":"화랑로 141-62","jiga_2018":2544000.0,"jiga_2022":3079000.0,"jiga_2025":2877000.0,"chg_18_25_pct":13.1,"chg_21_22_pct":3.2,"series":"{\"2018\": 2544000.0, \"2019\": 2518000.0, \"2020\": 2788000.0, \"2021\": 2984000.0, \"2022\": 3079000.0, \"2023\": 2841000.0, \"2024\": 2847000.0, \"2025\": 2877000.0}","lbl":"+13%","source":"황오동 원도심 모니터링 2025.09 인쇄쪽 60 (토지이음 개별공시지가, T2 전사) · 좌표 카카오 주소검색","note":""}},{"type":"Feature","geometry":{"type":"Point","coordinates":[129.216772429749,35.8450515438952]},"properties":{"addr":"화랑로 143-20","jiga_2018":3782000.0,"jiga_2022":4369000.0,"jiga_2025":4073000.0,"chg_18_25_pct":7.7,"chg_21_22_pct":5.5,"series":"{\"2018\": 3782000.0, \"2019\": 3821000.0, \"2020\": 3821000.0, \"2021\": 4141000.0, \"2022\": 4369000.0, \"2023\": 4028000.0, \"2024\": 4035000.0, \"2025\": 4073000.0}","lbl":"+8%","source":"황오동 원도심 모니터링 2025.09 인쇄쪽 60 (토지이음 개별공시지가, T2 전사) · 좌표 카카오 주소검색","note":""}},{"type":"Feature","geometry":{"type":"Point","coordinates":[129.216758221079,35.8453322108447]},"properties":{"addr":"성동동 57-3","jiga_2018":1194000.0,"jiga_2022":1270000.0,"jiga_2025":1185000.0,"chg_18_25_pct":-0.8,"chg_21_22_pct":2.8,"series":"{\"2018\": 1194000.0, \"2019\": 1194000.0, \"2020\": 1171000.0, \"2021\": 1235000.0, \"2022\": 1270000.0, \"2023\": 1171000.0, \"2024\": 1173000.0, \"2025\": 1185000.0}","lbl":"-1%","source":"황오동 원도심 모니터링 2025.09 인쇄쪽 60 (토지이음 개별공시지가, T2 전사) · 좌표 카카오 주소검색","note":""}},{"type":"Feature","geometry":{"type":"Point","coordinates":[129.216823070296,35.8455587076126]},"properties":{"addr":"원화로281번길 3-11","jiga_2018":3511000.0,"jiga_2022":3696000.0,"jiga_2025":3448000.0,"chg_18_25_pct":-1.8,"chg_21_22_pct":1.8,"series":"{\"2018\": 3511000.0, \"2019\": 3511000.0, \"2020\": 3443000.0, \"2021\": 3632000.0, \"2022\": 3696000.0, \"2023\": 3407000.0, \"2024\": 3413000.0, \"2025\": 3448000.0}","lbl":"-2%","source":"황오동 원도심 모니터링 2025.09 인쇄쪽 60 (토지이음 개별공시지가, T2 전사) · 좌표 카카오 주소검색","note":""}},{"type":"Feature","geometry":{"type":"Point","coordinates":[129.2167322008,35.8455622769278]},"properties":{"addr":"성동동 57-35","jiga_2018":3620000.0,"jiga_2022":3850000.0,"jiga_2025":3592000.0,"chg_18_25_pct":-0.8,"chg_21_22_pct":2.8,"series":"{\"2018\": 3620000.0, \"2019\": 3620000.0, \"2020\": 3550000.0, \"2021\": 3745000.0, \"2022\": 3850000.0, \"2023\": 3549000.0, \"2024\": 3556000.0, \"2025\": 3592000.0}","lbl":"-1%","source":"황오동 원도심 모니터링 2025.09 인쇄쪽 60 (토지이음 개별공시지가, T2 전사) · 좌표 카카오 주소검색","note":""}},{"type":"Feature","geometry":{"type":"Point","coordinates":[129.216732850684,35.8456134441963]},"properties":{"addr":"성동동 57-34","jiga_2018":3620000.0,"jiga_2022":3850000.0,"jiga_2025":3592000.0,"chg_18_25_pct":-0.8,"chg_21_22_pct":2.8,"series":"{\"2018\": 3620000.0, \"2019\": 3620000.0, \"2020\": 3550000.0, \"2021\": 3745000.0, \"2022\": 3850000.0, \"2023\": 3549000.0, \"2024\": 3556000.0, \"2025\": 3592000.0}","lbl":"-1%","source":"황오동 원도심 모니터링 2025.09 인쇄쪽 60 (토지이음 개별공시지가, T2 전사) · 좌표 카카오 주소검색","note":""}},{"type":"Feature","geometry":{"type":"Point","coordinates":[129.21674050959,35.8457295374349]},"properties":{"addr":"성동동 57-27","jiga_2018":3297000.0,"jiga_2022":3434000.0,"jiga_2025":3204000.0,"chg_18_25_pct":-2.8,"chg_21_22_pct":1.7,"series":"{\"2018\": 3297000.0, \"2019\": 3334000.0, \"2020\": 3202000.0, \"2021\": 3377000.0, \"2022\": 3434000.0, \"2023\": 3165000.0, \"2024\": 3171000.0, \"2025\": 3204000.0}","lbl":"-3%","source":"황오동 원도심 모니터링 2025.09 인쇄쪽 60 (토지이음 개별공시지가, T2 전사) · 좌표 카카오 주소검색","note":""}},{"type":"Feature","geometry":{"type":"Point","coordinates":[129.216280807037,35.8455470897543]},"properties":{"addr":"성동동 57-38","jiga_2018":3180000.0,"jiga_2022":3555000.0,"jiga_2025":3317000.0,"chg_18_25_pct":4.3,"chg_21_22_pct":4.4,"series":"{\"2018\": 3180000.0, \"2019\": 3180000.0, \"2020\": 3175000.0, \"2021\": 3405000.0, \"2022\": 3555000.0, \"2023\": 3277000.0, \"2024\": 3284000.0, \"2025\": 3317000.0}","lbl":"+4%","source":"황오동 원도심 모니터링 2025.09 인쇄쪽 60 (토지이음 개별공시지가, T2 전사) · 좌표 카카오 주소검색","note":""}},{"type":"Feature","geometry":{"type":"Point","coordinates":[129.216265926496,35.845111890018]},"properties":{"addr":"성동동 399-10","jiga_2018":3021000.0,"jiga_2022":3385000.0,"jiga_2025":3162000.0,"chg_18_25_pct":4.7,"chg_21_22_pct":2.9,"series":"{\"2018\": 3021000.0, \"2019\": 3052000.0, \"2020\": 3115000.0, \"2021\": 3290000.0, \"2022\": 3385000.0, \"2023\": 3123000.0, \"2024\": 3130000.0, \"2025\": 3162000.0}","lbl":"+5%","source":"황오동 원도심 모니터링 2025.09 인쇄쪽 60 (토지이음 개별공시지가, T2 전사) · 좌표 카카오 주소검색","note":""}},{"type":"Feature","geometry":{"type":"Point","coordinates":[129.215977743466,35.8464994079122]},"properties":{"addr":"성동동 307-1","jiga_2018":1075000.0,"jiga_2022":1267000.0,"jiga_2025":1137000.0,"chg_18_25_pct":5.8,"chg_21_22_pct":6.0,"series":"{\"2018\": 1075000.0, \"2019\": 1084000.0, \"2020\": 1099000.0, \"2021\": 1195000.0, \"2022\": 1267000.0, \"2023\": 1167000.0, \"2024\": 1173000.0, \"2025\": 1137000.0}","lbl":"+6%","source":"황오동 원도심 모니터링 2025.09 인쇄쪽 60 (토지이음 개별공시지가, T2 전사) · 좌표 카카오 주소검색","note":""}},{"type":"Feature","geometry":{"type":"Point","coordinates":[129.217012255465,35.8467172010843]},"properties":{"addr":"성동동 81-2","jiga_2018":1969000.0,"jiga_2022":2222000.0,"jiga_2025":2098000.0,"chg_18_25_pct":6.6,"chg_21_22_pct":3.9,"series":"{\"2018\": 1969000.0, \"2019\": 1969000.0, \"2020\": 1983000.0, \"2021\": 2138000.0, \"2022\": 2222000.0, \"2023\": 2069000.0, \"2024\": 2076000.0, \"2025\": 2098000.0}","lbl":"+7%","source":"황오동 원도심 모니터링 2025.09 인쇄쪽 60 (토지이음 개별공시지가, T2 전사) · 좌표 카카오 주소검색","note":""}},{"type":"Feature","geometry":{"type":"Point","coordinates":[129.217837854593,35.8427642196515]},"properties":{"addr":"원화로 248-7","jiga_2018":309000.0,"jiga_2022":419000.0,"jiga_2025":389600.0,"chg_18_25_pct":26.1,"chg_21_22_pct":8.2,"series":"{\"2018\": 309000.0, \"2019\": 327600.0, \"2020\": 334000.0, \"2021\": 387100.0, \"2022\": 419000.0, \"2023\": 387600.0, \"2024\": 385800.0, \"2025\": 389600.0}","lbl":"+26%","source":"황오동 원도심 모니터링 2025.09 인쇄쪽 60 (토지이음 개별공시지가, T2 전사) · 좌표 카카오 주소검색","note":""}},{"type":"Feature","geometry":{"type":"Point","coordinates":[129.215229321211,35.8432070140781]},"properties":{"addr":"북정로 25","jiga_2018":2676000.0,"jiga_2022":3080000.0,"jiga_2025":2929000.0,"chg_18_25_pct":9.5,"chg_21_22_pct":-0.2,"series":"{\"2018\": 2676000.0, \"2019\": 2754000.0, \"2020\": 2815000.0, \"2021\": 3085000.0, \"2022\": 3080000.0, \"2023\": 2839000.0, \"2024\": 2857000.0, \"2025\": 2929000.0}","lbl":"+10%","source":"황오동 원도심 모니터링 2025.09 인쇄쪽 60 (토지이음 개별공시지가, T2 전사) · 좌표 카카오 주소검색","note":""}},{"type":"Feature","geometry":{"type":"Point","coordinates":[129.216236604632,35.8442612151969]},"properties":{"addr":"화랑로 140-1","jiga_2018":587500.0,"jiga_2022":4380000.0,"jiga_2025":4094000.0,"chg_18_25_pct":596.9,"chg_21_22_pct":474.7,"series":"{\"2018\": 587500.0, \"2019\": 646000.0, \"2020\": 678200.0, \"2021\": 762200.0, \"2022\": 4380000.0, \"2023\": 4037000.0, \"2024\": 4050000.0, \"2025\": 4094000.0}","lbl":"+597%","source":"황오동 원도심 모니터링 2025.09 인쇄쪽 60 (토지이음 개별공시지가, T2 전사) · 좌표 카카오 주소검색","note":"2022 급등(587,500→4,380,000) — 지목·용도 변경 의심"}},{"type":"Feature","geometry":{"type":"Point","coordinates":[129.217078677642,35.8429700673343]},"properties":{"addr":"동성로 152-1","jiga_2018":2349000.0,"jiga_2022":2841000.0,"jiga_2025":2608000.0,"chg_18_25_pct":11.0,"chg_21_22_pct":6.4,"series":"{\"2018\": 2349000.0, \"2019\": 2349000.0, \"2020\": 2467000.0, \"2021\": 2670000.0, \"2022\": 2841000.0, \"2023\": 2592000.0, \"2024\": 2599000.0, \"2025\": 2608000.0}","lbl":"+11%","source":"황오동 원도심 모니터링 2025.09 인쇄쪽 60 (토지이음 개별공시지가, T2 전사) · 좌표 카카오 주소검색","note":""}}]}