{"type":"FeatureCollection","features":[{"type":"Feature","geometry":{"type":"Polygon","coordinates":[[[129.22279256402794,35.78813022169937],[129.21803390171573,35.789102078592734],[129.21364788118646,35.788810219963615],[129.20752634628587,35.79049322238354],[129.2051713338348,35.790651728482814],[129.20436266659257,35.790189560393166],[129.20333651257138,35.790762649182355],[129.2040269200548,35.79057162009393],[129.20422042271002,35.790833181652886],[129.20336761534497,35.79087527228847],[129.2010510016175,35.787676030213206],[129.1997299191241,35.787114649257795],[129.19814458268826,35.787159404373476],[129.19678993823428,35.789899131886834],[129.19730808551347,35.795327630879584],[129.19646140413016,35.797051571675915],[129.19673011417404,35.79808695083715],[129.19851902686818,35.79903823864794],[129.1983980172363,35.799475907141236],[129.19430055616692,35.798409358038036],[129.19358482233733,35.796311429819774],[129.19169479958651,35.79523548488081],[129.1915570210542,35.79444704796259],[129.18677757185836,35.79390654351942],[129.18642827111972,35.790516069337286],[129.18168098189327,35.79018117766667],[129.1814646562523,35.78863880769717],[129.1785938085728,35.789182194686276],[129.17609452171007,35.7915549712355],[129.17504556065768,35.79199688100474],[129.1736378627225,35.793911862045995],[129.1725722198984,35.79441586169507],[129.17232519728637,35.79514299663391],[129.17297179940954,35.79732495017832],[129.17135849056396,35.79947537027149],[129.17045482159958,35.79913858196692],[129.1666398278219,35.799627903530464],[129.163848061961,35.79905235967306],[129.16221388566086,35.799792316034306],[129.16056322489132,35.801418397344435],[129.1593455153722,35.80323265623247],[129.1601935527725,35.80613670545426],[129.1592478096838,35.80652002906259],[129.1588428811258,35.807293612661624],[129.16161672852533,35.80972449558273],[129.157748216093,35.812499110186025],[129.15653401739746,35.812328713808434],[129.15364639328078,35.81295460368364],[129.1473907185222,35.81505077630454],[129.14579462064566,35.81448639911255],[129.14563186555955,35.816879914391826],[129.14348145716835,35.817803980426106],[129.14299825382366,35.8215654870413],[129.13965197804524,35.82061561842249],[129.13828808984306,35.82110646071606],[129.13694427889627,35.82670859352692],[129.13552117867619,35.82778177987993],[129.13164048076501,35.829377929586514],[129.12979089785802,35.8308643730439],[129.1276055512231,35.8351647802276],[129.13115715096853,35.83399807787772],[129.13276175244792,35.83458473670993],[129.13332137817727,35.835223004121374],[129.13259314295476,35.837058588782774],[129.13498540505958,35.83976968841694],[129.1349086718091,35.84080360870274],[129.13431054759437,35.8413771069525],[129.13226259449925,35.84204953298002],[129.1299861416389,35.846453249893194],[129.1310597306216,35.84733555722688],[129.13103128196224,35.84791414587343],[129.13175227652755,35.84803962260065],[129.13052578952409,35.84943293669466],[129.13138084820926,35.85208686458414],[129.1326219280751,35.854054206931934],[129.13205166132985,35.85522048641133],[129.13457651833716,35.85729540257964],[129.13618337941693,35.86394392680759],[129.13580104951473,35.86548841834305],[129.13713249256847,35.86600256239686],[129.13700758190086,35.867690028629795],[129.13625263314484,35.868278996124495],[129.13824864159716,35.87053076024069],[129.13805122621073,35.87248025623078],[129.13721582290387,35.873411091628874],[129.13561335447758,35.87762861661357],[129.13692070804433,35.880975017115134],[129.13720802241522,35.88304147420355],[129.13414102561063,35.887594755467504],[129.13390121399945,35.88907757655843],[129.13228356992713,35.890628507230296],[129.1267005916856,35.891132656623725],[129.12543232335875,35.89473198178841],[129.12185175188964,35.89716023959462],[129.1199853859119,35.900677160512544],[129.11804910953452,35.90071807042769],[129.11698849490304,35.90177578450339],[129.11572095802794,35.90199099710569],[129.11531960390366,35.90453171071895],[129.11340424831658,35.90563682105537],[129.11237293350453,35.90903981319208],[129.11013748006482,35.91103944984273],[129.11026894573746,35.912510634338574],[129.1117427651906,35.9130571815393],[129.1156691326593,35.9170287227317],[129.11893182611303,35.91707511666581],[129.1188580646943,35.91946278158577],[129.1215660478975,35.922067156323145],[129.12411605449685,35.922860048852584],[129.1244795192661,35.92221191109699],[129.12572724651812,35.922422976438824],[129.12619953297155,35.92168927424552],[129.1273721273118,35.921783960376864],[129.12767345201178,35.92287563999036],[129.13042328864012,35.924146638104105],[129.13357902670865,35.92761144536357],[129.13449255191682,35.92955357014036],[129.13447639193288,35.930537127463545],[129.1352996158542,35.931526312917725],[129.13736270359107,35.93101148840936],[129.14146780877238,35.93240058143166],[129.14999822928158,35.93429182554473],[129.15215099703957,35.93205331652478],[129.1521718439365,35.93048400979892],[129.15298738884567,35.92934280896559],[129.15395950330577,35.92990344615965],[129.15564994712338,35.93228620611829],[129.157036751711,35.9325355650838],[129.16103546561192,35.93086517223264],[129.16186832150177,35.932107121689896],[129.16206016546502,35.93139635644135],[129.1640562015387,35.929837367359305],[129.16482345045725,35.92860742470521],[129.17117496945977,35.92558465791137],[129.17166721270027,35.92478538265727],[129.1735444852044,35.925453381670714],[129.18025243549766,35.924895069107485],[129.18103056533647,35.92380702323667],[129.1836465509434,35.92261995447936],[129.18533932039136,35.92120973823285],[129.18766827528566,35.91741058927008],[129.19015625081943,35.91668918370089],[129.19130689861134,35.914808402477],[129.19282621739092,35.91349529972938],[129.19396975133364,35.91134797066187],[129.19680138799657,35.91348966548873],[129.20073494261752,35.91425589867573],[129.2020511132263,35.91372494101521],[129.2050546532946,35.91375515203088],[129.2061847554964,35.91300597679997],[129.2091028531124,35.913176185764],[129.20936692221076,35.912565102836986],[129.2107137120564,35.91188088554172],[129.212627945387,35.911849578380206],[129.2159241556886,35.909567772539106],[129.21775265214438,35.909939481325424],[129.22128568004626,35.90915506174585],[129.22200264411074,35.90687008531781],[129.2242256799491,35.90647527669186],[129.2252319553297,35.90541764768283],[129.22743399636147,35.90460926644867],[129.23028268973073,35.90728680267348],[129.23173395614128,35.907178187144744],[129.2342893938121,35.90876013676832],[129.23636079578364,35.911821390636106],[129.2366758237436,35.909473981976355],[129.23634564337524,35.90682914618454],[129.23760128027808,35.90479984833311],[129.23880154189624,35.90718491308795],[129.23930661604524,35.907188735515035],[129.2406242380161,35.915194830479244],[129.2403915240586,35.91759730221277],[129.23883839638705,35.919453653106416],[129.23633114235741,35.92048502159295],[129.23528507821516,35.92283646447061],[129.23251321126858,35.9264552342762],[129.2318420737486,35.92930565897552],[129.23271736214818,35.93245001336025],[129.23656870514657,35.933374808333994],[129.23887177001808,35.932934032948744],[129.24091323334048,35.93364014390709],[129.24177640168668,35.93556713631811],[129.24205393655538,35.93724264449499],[129.23985815605712,35.94085195698655],[129.23779440634556,35.946388635902935],[129.23833737287546,35.94764163303841],[129.24144378201404,35.946511461973834],[129.24231247200274,35.94574739524957],[129.24483495393122,35.945768677912156],[129.24535966788005,35.94458528373977],[129.2476603102095,35.94315663709821],[129.25144234367062,35.943151660111575],[129.2521066419417,35.942474421213745],[129.25392582899826,35.94258275885885],[129.25451017716645,35.943248955725295],[129.2594765990478,35.942094645819736],[129.26109671184315,35.94290913119767],[129.26182162414753,35.94414394633992],[129.2625750793591,35.94442286402375],[129.26368252929862,35.94677025505604],[129.2650245795189,35.94744632338666],[129.2657248227342,35.946963453098874],[129.26655769994534,35.94506264522487],[129.26886907564634,35.94445894629894],[129.2714153965219,35.945399659862595],[129.2735185545958,35.94504675634428],[129.27369051081064,35.944365196045815],[129.27472833543735,35.94369118458203],[129.27454338454402,35.94312141278373],[129.27805389227586,35.942801440776975],[129.27867697973977,35.94214426574326],[129.2779417823377,35.94115105283789],[129.27894805146116,35.94051419919777],[129.27884338395276,35.93874935554173],[129.2804746308797,35.93774106848944],[129.28012858778115,35.93451609125666],[129.2861071022265,35.93485404312415],[129.28606698731272,35.93174068620301],[129.29042944723574,35.9315699811873],[129.29550423143544,35.93286794762116],[129.29964011890746,35.930634823883075],[129.30056970100793,35.93088703851489],[129.30406917758174,35.929278649120306],[129.30669139833788,35.929689229419886],[129.31204055538007,35.927587800326144],[129.31208230132648,35.92680987210017],[129.3173810311205,35.92562595532805],[129.3188445644402,35.9262630453098],[129.32204782060566,35.926466379716516],[129.32350840540556,35.92723776762089],[129.32960710173717,35.926576745670744],[129.3299901294605,35.92537801087368],[129.3328674054024,35.922721625571356],[129.3328894947869,35.9216582868455],[129.3342103534287,35.92052466445539],[129.3343148203984,35.91957967243457],[129.33528679357687,35.91932004087544],[129.33512898928862,35.918803341243134],[129.3366216583389,35.91615801243996],[129.3351082136748,35.91352582145231],[129.33578602139792,35.912022043007234],[129.33393888369258,35.911282244604195],[129.33406176978662,35.906438626566356],[129.33346676153909,35.90566940801158],[129.3344159534854,35.90282461725503],[129.33338496030368,35.901054743646775],[129.3336689943633,35.9000733203664],[129.3360455802451,35.899136527558554],[129.33618326312416,35.89687344786206],[129.33878295988387,35.89470267756976],[129.33776424155326,35.89373787316487],[129.33750788392615,35.89258619330021],[129.33828256991157,35.8922067734373],[129.33920378540506,35.89031586341259],[129.3403061853658,35.890256097710015],[129.343701766255,35.88808661269308],[129.3467740689365,35.888581874711605],[129.348382212176,35.887932980372135],[129.34916916605587,35.888218588181054],[129.35050515588725,35.89009357375232],[129.35030110105708,35.8905303305873],[129.35085778607643,35.891429447684914],[129.35355907277457,35.88916824398133],[129.35321622552854,35.88809404202624],[129.35381771420714,35.88687040471267],[129.35549821359967,35.88700949975845],[129.35839586320418,35.88618763639214],[129.35949468808442,35.886616844460875],[129.36027610534055,35.88778799951769],[129.36184085886654,35.88830432202498],[129.36181206188314,35.8875559286776],[129.36260115365363,35.88722449817007],[129.362829842453,35.886210311898516],[129.3628124315314,35.88456435709847],[129.3632404326556,35.883877080706476],[129.36297566284338,35.88301226330457],[129.36415298046856,35.882101606782875],[129.3658579301552,35.8817507221891],[129.36395143446376,35.88046490385183],[129.36400092665403,35.87756579509276],[129.36285919146462,35.875478210470476],[129.36108850185227,35.87519541500352],[129.3614013991207,35.874722146105704],[129.3606089230207,35.87423569314258],[129.3567363311177,35.874164185085455],[129.3552855513623,35.872660634113124],[129.35672399544876,35.87153967772297],[129.35700624805966,35.8701601037838],[129.36022186398998,35.86764624336571],[129.35944882239505,35.866236986107275],[129.35955344283204,35.86480683375005],[129.36170705269942,35.86501624380913],[129.36556262041785,35.86393606287626],[129.3661388910773,35.86435523191766],[129.36729898229254,35.86413162170251],[129.36800036596736,35.86504639995843],[129.36866485293464,35.86429082356355],[129.3687182499993,35.8628765915171],[129.37194666037556,35.860756644045125],[129.37388186709765,35.86130042017986],[129.37388483873465,35.86218898295176],[129.37528479010342,35.86319015277131],[129.3758936136181,35.860664315984465],[129.3753991489748,35.85964919888255],[129.37619378730312,35.85852974881132],[129.37524602466524,35.85732171722214],[129.3733695529835,35.857480715085906],[129.37236284715183,35.856417132017775],[129.37262497600372,35.854952890962586],[129.37141235538243,35.85183907136096],[129.3721449940711,35.850194348467326],[129.37466964791162,35.848303337233745],[129.37135107550742,35.84768973714458],[129.37134096426112,35.84624635106258],[129.370615116033,35.845155245311396],[129.37264094479627,35.84207802698854],[129.3728053906896,35.83849581127469],[129.37399058822015,35.83706233308992],[129.37347543136028,35.83483505386247],[129.37611773784596,35.83477341156634],[129.37797245020778,35.83383375229288],[129.37862706781405,35.83155349897517],[129.37763435722178,35.82911803087273],[129.37293772613177,35.82701744304535],[129.37230072803064,35.825513927785714],[129.37259366735012,35.82452942754202],[129.37096069380092,35.82044557943596],[129.36937898670652,35.81872148183068],[129.36872873819135,35.81631296810522],[129.36758715808526,35.815692352224985],[129.36708564732362,35.814694085078514],[129.3638774116038,35.81399753410414],[129.36294632243687,35.81272035347887],[129.35843618115862,35.81093015528428],[129.35770517677358,35.80997434707825],[129.35695102664914,35.80508662844111],[129.3579267738859,35.80347199343394],[129.35757969005937,35.80302534263868],[129.3568868635478,35.80266893735635],[129.3535950458876,35.80274031377297],[129.34823010363385,35.803353013353785],[129.34627676291464,35.80303144008586],[129.34575989193164,35.80195678881596],[129.3457028231171,35.80121456275692],[129.34699990577806,35.80013097834817],[129.34752718973076,35.79684787063867],[129.35338126976916,35.79632334800095],[129.35467106220403,35.795033720157704],[129.35347824481224,35.794665829137244],[129.35329754494714,35.79404625900685],[129.35161306174274,35.79372879712911],[129.35102214552202,35.793003348189295],[129.34957460727452,35.79298532243363],[129.34948788479014,35.792445694901076],[129.3512346955389,35.78902584409793],[129.3513456095761,35.78764047242209],[129.35077505743413,35.7870179486128],[129.35102285884525,35.78600959788212],[129.3506568098241,35.785560330923445],[129.3515460100141,35.78165504618732],[129.35521480821453,35.78125719413249],[129.35501100138305,35.78062314683185],[129.3538195585734,35.77986397322871],[129.3542849734876,35.77856550239066],[129.35338737574267,35.777116523053465],[129.3539863080027,35.77632499763299],[129.35375322160255,35.77348813548275],[129.35235410727205,35.773645421073006],[129.35248953496415,35.77460573917516],[129.35179460499756,35.77514034527214],[129.3503445916339,35.77502592758289],[129.35090565957952,35.77583188830208],[129.34993653436,35.77642370765265],[129.35136095933441,35.778017707914174],[129.35050911822472,35.778699226001194],[129.34951227099518,35.7782046211776],[129.34888517593035,35.77866543535256],[129.349491368223,35.78081877644877],[129.3485310817145,35.78158498774463],[129.3476650340596,35.78145056503474],[129.34763761647898,35.78105790345593],[129.34714869097573,35.781016112560174],[129.34758479522182,35.78143622267065],[129.344863793203,35.78052436265935],[129.34055673241627,35.78002160542121],[129.33915326900717,35.77944790268694],[129.3382462175338,35.778361781661616],[129.33418660205209,35.77877752912821],[129.3301934277557,35.77755199374731],[129.3214299046468,35.77785547675117],[129.31668278917533,35.77695573193218],[129.31311070145446,35.77534462380026],[129.31351166639726,35.77369169471662],[129.31249026342346,35.77226926113748],[129.31328388881687,35.77160089666655],[129.3123682313805,35.770858403531456],[129.3124869625805,35.77024552884711],[129.3109998609596,35.768248199941695],[129.30956329677264,35.76731577696241],[129.30474933776992,35.76645596116963],[129.30089454602066,35.76700011989351],[129.3001225235179,35.765120740056354],[129.30016748802367,35.76400612098002],[129.29917211314074,35.763607861166754],[129.29899286280116,35.7623245041236],[129.29696138611618,35.76182732912379],[129.29294035169747,35.76177324912251],[129.2912384414239,35.76290098978036],[129.29120323065845,35.762034133819505],[129.28974560703472,35.76121054866976],[129.28808870943016,35.761064114540574],[129.2873187487383,35.76053559954543],[129.2846178809356,35.76071475902939],[129.28385435491273,35.759274220232506],[129.2812850882204,35.75749076000688],[129.28184295500174,35.75690873304165],[129.28148430440112,35.75563521102718],[129.28215913761008,35.75201165438582],[129.28408291373051,35.74979055798086],[129.2803596270307,35.7478139893995],[129.2810690639019,35.746009022891805],[129.27731854678447,35.74468035829789],[129.27576455288957,35.74289373952992],[129.270673324311,35.74295767421259],[129.26833735760417,35.73954341742948],[129.26802651401425,35.73793500609933],[129.26388408988586,35.73767427286034],[129.26166594239348,35.73914427667643],[129.2596711597819,35.739538082581554],[129.25920556080897,35.740539376743214],[129.25938070648505,35.74155567316396],[129.2583462422239,35.74261805276954],[129.25945739285015,35.74546842024477],[129.25964609840875,35.74761189704771],[129.2606166888202,35.74840586950346],[129.26070485975953,35.74916643613434],[129.260310008332,35.750252434523695],[129.25914244705112,35.750923110476506],[129.25878648572572,35.75288547159824],[129.2594306360183,35.753958289327734],[129.2585241437085,35.75400458985078],[129.2575593187999,35.754811114750325],[129.2580127432531,35.75697088060409],[129.25748134039898,35.75889964144104],[129.25636879149388,35.75951731369128],[129.25668776265186,35.76086739470713],[129.25605635948816,35.76129949076043],[129.25647586613653,35.76192755669334],[129.2563103357982,35.76270879662114],[129.25711095719578,35.76304490863724],[129.25755856672436,35.76405538814975],[129.25729012692338,35.76578014416768],[129.25670077396714,35.76601420991364],[129.25756859998825,35.76711324661065],[129.25700263694554,35.769570187448764],[129.25650731358616,35.76961129976661],[129.2556711332326,35.77116325583848],[129.2555868302581,35.772925668017585],[129.25296004794083,35.77478189949451],[129.25161332560745,35.77441882347526],[129.25086456558884,35.77287346468141],[129.25000060468147,35.77225383410235],[129.24718151406796,35.771773513443584],[129.24583589800346,35.77046355086233],[129.2427478506646,35.769629828103184],[129.24186964984128,35.770198930218875],[129.23979279173767,35.769088645182485],[129.23979185218707,35.76845117611555],[129.23873171594047,35.76778005693812],[129.23670261554815,35.767804284639816],[129.23489565284143,35.7672478242142],[129.23092678745599,35.77173323237818],[129.23074204015865,35.772528875145824],[129.23152652249422,35.77429121605503],[129.2311629011491,35.77499162249703],[129.2237230539105,35.781720527763255],[129.22239023096407,35.784700870031415],[129.22279256402794,35.78813022169937]],[[129.21951265376143,35.884531340357604],[129.2192997133973,35.8843388604811],[129.21914718557863,35.884194640526076],[129.21951265376143,35.884531340357604]],[[129.22567964979322,35.886975408269265],[129.22589535655797,35.88719047472998],[129.2259537437467,35.88724908163688],[129.22567964979322,35.886975408269265]],[[129.22548496999676,35.88678191401861],[129.22550984418507,35.88680538107027],[129.22567964979322,35.886975408269265],[129.22548496999676,35.88678191401861]],[[129.22281297629283,35.886035113039846],[129.22346440070163,35.88525209101787],[129.22400550427056,35.884606258875024],[129.22281297629283,35.886035113039846]]]},"properties":{"name":"중심생활권","dongs":"황남동·성건동·황오동·월성동·선도동·황성동·용강동·동천동·불국동·보덕동·현곡면·천북면","pop_2013":178973.0,"pop_2030_plan":200000.0,"pop_2026_actual":153733,"gap_pct":-23.1,"net_density_2013":116.44,"res_land_km2":12.67,"res_density":141.26,"park_plan_count":20.0,"park_plan_km2":1.788,"park_per_capita_plan":8.94,"unbuilt_park_count":8.0,"unbuilt_park_km2":0.846,"lbl":"중심생활권\n2030 200,000 / 실제 153,733","source":"2030 경주도시기본계획 인쇄쪽 140~142·167·350·355 (T1) · 실제 = 주민등록 2026.08 행정동 합(T2). 생활권 경계는 읍면동 전체로 근사(계획은 \"일부\" 포함)"}},{"type":"Feature","geometry":{"type":"Polygon","coordinates":[[[129.23833737287546,35.94764163303841],[129.23779440634556,35.946388635902935],[129.23985815605712,35.94085195698655],[129.24205393655538,35.93724264449499],[129.24177640168668,35.93556713631811],[129.24091323334048,35.93364014390709],[129.23887177001808,35.932934032948744],[129.23656870514657,35.933374808333994],[129.23271736214818,35.93245001336025],[129.2318420737486,35.92930565897552],[129.23251321126858,35.9264552342762],[129.23528507821516,35.92283646447061],[129.23633114235741,35.92048502159295],[129.23883839638705,35.919453653106416],[129.2403915240586,35.91759730221277],[129.2406242380161,35.915194830479244],[129.23930661604524,35.907188735515035],[129.23880154189624,35.90718491308795],[129.23760128027808,35.90479984833311],[129.23634564337524,35.90682914618454],[129.2366758237436,35.909473981976355],[129.23636079578364,35.911821390636106],[129.2342893938121,35.90876013676832],[129.23173395614128,35.907178187144744],[129.23028268973073,35.90728680267348],[129.22743399636147,35.90460926644867],[129.2252319553297,35.90541764768283],[129.2242256799491,35.90647527669186],[129.22200264411074,35.90687008531781],[129.22128568004626,35.90915506174585],[129.21775265214438,35.909939481325424],[129.2159241556886,35.909567772539106],[129.212627945387,35.911849578380206],[129.2107137120564,35.91188088554172],[129.20936692221076,35.912565102836986],[129.2091028531124,35.913176185764],[129.2061847554964,35.91300597679997],[129.2050546532946,35.91375515203088],[129.2020511132263,35.91372494101521],[129.20073494261752,35.91425589867573],[129.19680138799657,35.91348966548873],[129.19396975133364,35.91134797066187],[129.19282621739092,35.91349529972938],[129.19130689861134,35.914808402477],[129.19015625081943,35.91668918370089],[129.18766827528566,35.91741058927008],[129.18533932039136,35.92120973823285],[129.1836465509434,35.92261995447936],[129.18103056533647,35.92380702323667],[129.18025243549766,35.924895069107485],[129.1735444852044,35.925453381670714],[129.17166721270027,35.92478538265727],[129.17117496945977,35.92558465791137],[129.16482345045725,35.92860742470521],[129.1640562015387,35.929837367359305],[129.16206016546502,35.93139635644135],[129.16186832150177,35.932107121689896],[129.16103546561192,35.93086517223264],[129.157036751711,35.9325355650838],[129.15564994712338,35.93228620611829],[129.15395950330577,35.92990344615965],[129.15298738884567,35.92934280896559],[129.1521718439365,35.93048400979892],[129.15215099703957,35.93205331652478],[129.14999822928158,35.93429182554473],[129.14146780877238,35.93240058143166],[129.13736270359107,35.93101148840936],[129.1352996158542,35.931526312917725],[129.13611157609012,35.93299718078664],[129.13330844572494,35.93829079915765],[129.13238076220236,35.93930545366084],[129.12961498258323,35.94026346955267],[129.1297644383013,35.94229829335223],[129.13061827670904,35.943883905361496],[129.12832757299464,35.945209362702315],[129.12880685644558,35.94798733847223],[129.12792193414847,35.949234349314516],[129.12460842994014,35.95081973270912],[129.12429259123232,35.952022583454685],[129.12300290450952,35.95366501810273],[129.12311943509914,35.954836559365326],[129.12127684835266,35.95545200028979],[129.12029564035058,35.957911993890264],[129.11613494207214,35.9617348668507],[129.11734059687362,35.9641365687835],[129.1174048423767,35.965829951013724],[129.11873735498676,35.96925517966356],[129.11720726810753,35.97014632571855],[129.11653321975183,35.971353787103716],[129.11687652196005,35.972380546721524],[129.11762960266688,35.97271838599717],[129.11798524933258,35.97464738046201],[129.11737764280707,35.97616480482685],[129.1179601813995,35.97705499989945],[129.11695343624973,35.97860988497709],[129.11750995356303,35.9798485678663],[129.11720790236808,35.985467085802284],[129.11405637925196,35.98894152271787],[129.11365650510885,35.99248682892487],[129.11394638037882,35.99296237042412],[129.11321953821525,35.994251834029285],[129.11224470592992,35.99474034789777],[129.11102142589095,35.99716680345721],[129.1133636253305,36.00069424775652],[129.11179015426998,36.002321853318875],[129.1118823608658,36.00390915457753],[129.11093063881722,36.00515244067926],[129.11209643801254,36.0094687256479],[129.1147724546802,36.01350158547858],[129.11663382978762,36.013485663600996],[129.11669161320535,36.01245746248416],[129.1176011876208,36.01109013724766],[129.11857047691075,36.00993519265495],[129.11955692469374,36.00956467773996],[129.12041641071852,36.00823228436765],[129.1229162281688,36.00646597969266],[129.1266265635819,36.00533875061029],[129.12824752506575,36.00582359392175],[129.13318502198499,36.00596455242357],[129.13458061114713,36.00659692590112],[129.13490674741556,36.00629011943207],[129.13687497890476,36.00831479064978],[129.13894698124102,36.00857041902745],[129.14403314917956,36.01039489970582],[129.14497122125525,36.012068970919174],[129.14418600405472,36.01362123256113],[129.14296666799012,36.019445087261154],[129.1423379960295,36.019869943589725],[129.1424001881003,36.02223206099018],[129.13945562648746,36.027807643992816],[129.1380117666107,36.028522110170755],[129.13764568288386,36.03068969790816],[129.13413942566166,36.03456291991026],[129.13497144472367,36.03467903834644],[129.13482317016206,36.03649443638348],[129.1372256422428,36.03628974982705],[129.13877123722992,36.04024446253384],[129.14026056239146,36.04125436018967],[129.1419149296591,36.040586503433246],[129.14543493008605,36.043949742282194],[129.14719913396596,36.046803705893986],[129.1474534456759,36.04950447999127],[129.15092633517042,36.05089514575482],[129.15052557346652,36.05254247949546],[129.15110922923978,36.05485270441019],[129.15469574966136,36.05449801484353],[129.16470062569454,36.05515804013191],[129.16697404836302,36.0538580872204],[129.17003641346298,36.05332319206241],[129.17057415380148,36.052006988082894],[129.17043632706333,36.04894347715307],[129.17197831137926,36.04898482323477],[129.1739991184213,36.04805394641552],[129.17634233461732,36.047779437927886],[129.17728257563306,36.04593779856303],[129.17722447598138,36.04508654596954],[129.17569117257662,36.042182112759455],[129.17817063751534,36.040767560314464],[129.17838585585903,36.03429292179238],[129.17645431755358,36.03237924369304],[129.1762907956935,36.03167715958683],[129.17841783684062,36.02743275083604],[129.18123725009312,36.0275425716768],[129.18908642132382,36.03233098336499],[129.19077606597415,36.03471232145573],[129.19408088005864,36.03665302166856],[129.1975006991273,36.04059373781213],[129.2011380589646,36.04112621582399],[129.20385841811012,36.04329923810579],[129.20793907813584,36.04284012108216],[129.2179736175739,36.042830660529],[129.22373971059372,36.043786795569886],[129.22736470758173,36.04793202934225],[129.2296213960225,36.04791599571986],[129.23007481660704,36.048724670090856],[129.231774898192,36.04963741553838],[129.23469885721855,36.049294356375185],[129.23617558134555,36.051698710677115],[129.23903173549573,36.053037189570155],[129.23924718738544,36.05634745834198],[129.24189721432498,36.05906656246186],[129.24180473519976,36.062665279770336],[129.2438710807236,36.065677652793084],[129.24360255708388,36.06674923660948],[129.24445245777198,36.068284189050395],[129.24435550665254,36.07060974684387],[129.24484566760677,36.07179778003134],[129.2481826247028,36.07587508374178],[129.24781607953827,36.073597909458705],[129.25084423331302,36.07304920688987],[129.2542455665256,36.075760100732424],[129.25478575179022,36.07501197080691],[129.25657305048398,36.07445547462273],[129.25878457937256,36.07496935154903],[129.26142020756592,36.07480056308416],[129.2632513415766,36.07514639340662],[129.2644396484225,36.07668494059208],[129.26843611229054,36.07749968059196],[129.26949842492877,36.078124915114145],[129.26990904159734,36.07942668239905],[129.27300348275065,36.0796971958991],[129.27620436571613,36.079159213498734],[129.27757869368637,36.07663650592897],[129.27935284312588,36.075700659255695],[129.2794168969207,36.074999762904206],[129.28105392386092,36.07469832996597],[129.28272273780885,36.073696863260125],[129.28647448685828,36.070009560800315],[129.2850563696301,36.068222498856926],[129.28485066811234,36.06692560533881],[129.2864921266384,36.06435040286188],[129.28620002592507,36.06186499477285],[129.28298611467764,36.061985362896216],[129.28323666391006,36.06065894153738],[129.28021448487362,36.05750664843494],[129.28288642635977,36.05440254617085],[129.28300063685592,36.05111651229645],[129.28376936692968,36.05042162353186],[129.2835832486767,36.04857530438384],[129.2843630213098,36.047218810521976],[129.28417826262572,36.04642803991745],[129.28267037793188,36.04550112288813],[129.283101243797,36.04422504989444],[129.28236843932314,36.04355620812835],[129.2828767774155,36.04299438615431],[129.28265257797509,36.04228940203285],[129.2816183557132,36.04139850755418],[129.2811581818484,36.03963905029287],[129.28051606983755,36.039227787802425],[129.27997924379574,36.035998334973094],[129.27854826216534,36.034049517250395],[129.27944527811246,36.03261340175734],[129.27856440447857,36.03179332904307],[129.27823827727232,36.0304950447905],[129.2785559125127,36.029945026332925],[129.27681590559345,36.028683719768885],[129.2771614155477,36.026946390138896],[129.2784717154178,36.026250259730055],[129.27809246082668,36.02574248574312],[129.27854151312584,36.024821689617994],[129.28022483061014,36.02341989524449],[129.281788124884,36.023122399347294],[129.28365122164521,36.02346227006269],[129.28480900907553,36.02143690155175],[129.28748455367563,36.02012281507016],[129.28743753125397,36.01961098800805],[129.2883852934155,36.01929389167135],[129.288841731661,36.018394037122455],[129.28910698718533,36.016815874671785],[129.29160087583415,36.01559189308092],[129.2916952864666,36.01469866117605],[129.29274381235734,36.01450068044108],[129.29252641549937,36.01368323130765],[129.29382215283897,36.01291541964373],[129.2942261635901,36.0106278780604],[129.29465901252405,36.01018570812454],[129.29541003231097,36.010713627219246],[129.2967511643478,36.00753445799701],[129.2966720635791,36.00651558490228],[129.29620392515233,36.00624129495645],[129.29658862923338,36.00482132691557],[129.29553612729873,36.00360962910104],[129.29710470902089,36.002100278453895],[129.29854092141034,36.00178697969235],[129.29820733692495,35.99686967689947],[129.29714160848317,35.9954380619879],[129.29399844655563,35.99514314447191],[129.29266168515247,35.99575293924713],[129.29299401904572,35.99501255038571],[129.29451376898905,35.99466842798611],[129.29453786226244,35.99418423969294],[129.30333970255543,35.995111442812515],[129.304463551026,35.994582492451585],[129.303904499729,35.99293200158862],[129.3042125337063,35.992598906740135],[129.3032374168853,35.991651867809914],[129.30362193880248,35.99123283936966],[129.3042823554683,35.99136572741882],[129.3049795480905,35.99017850209898],[129.30406027732815,35.989423550689516],[129.30281410866283,35.98704009519314],[129.30306438401277,35.98625818394676],[129.30144809703924,35.98566891303888],[129.30109486349403,35.984897714521075],[129.30225107179206,35.981288705184035],[129.30465708835422,35.979278896620656],[129.30504141104737,35.97840260745237],[129.30455764398178,35.97693058391336],[129.30687046313284,35.973830911476206],[129.30702183272123,35.972497888422616],[129.30839692470573,35.97043743267746],[129.30805313867015,35.96966918454338],[129.30908925681211,35.96911456633191],[129.31132911549085,35.9692896626612],[129.3122298951074,35.968299225877786],[129.31203818843852,35.96653525927824],[129.31518935720499,35.95977161519324],[129.31855096437388,35.95811842331939],[129.31993012811668,35.9581585086172],[129.3198184889068,35.95676833207563],[129.31920961588773,35.956173889437636],[129.31945372198868,35.95573387490387],[129.3188247213248,35.95456909436906],[129.32037311430304,35.95365985698418],[129.31949308685873,35.950540803759864],[129.31840563395943,35.95051310118326],[129.31741372096806,35.94966587253423],[129.3178083494846,35.948084036229574],[129.3168505973301,35.94632979335998],[129.31921412878975,35.94363660766627],[129.31916180325334,35.94267495049567],[129.32107470982788,35.942268292494674],[129.3214320353615,35.94167600565393],[129.3222779997922,35.94157235919093],[129.32219422580388,35.94104013457393],[129.3228472857193,35.94097091272604],[129.3231241201286,35.94057502565604],[129.32265886234157,35.939974436874344],[129.3236586259324,35.93885642761627],[129.32771321274257,35.938862925349234],[129.3291966935652,35.93642705968349],[129.32957278784238,35.93467209649543],[129.33140236732893,35.93353425853894],[129.33153487204171,35.93209261382241],[129.33268967497673,35.93055593839567],[129.332668915269,35.92954243138947],[129.32960710173717,35.926576745670744],[129.32350840540556,35.92723776762089],[129.32204782060566,35.926466379716516],[129.3188445644402,35.9262630453098],[129.3173810311205,35.92562595532805],[129.31208230132648,35.92680987210017],[129.31204055538007,35.927587800326144],[129.30669139833788,35.929689229419886],[129.30406917758174,35.929278649120306],[129.30056970100793,35.93088703851489],[129.29964011890746,35.930634823883075],[129.29550423143544,35.93286794762116],[129.29042944723574,35.9315699811873],[129.28606698731272,35.93174068620301],[129.2861071022265,35.93485404312415],[129.28012858778115,35.93451609125666],[129.2804746308797,35.93774106848944],[129.27884338395276,35.93874935554173],[129.27894805146116,35.94051419919777],[129.2779417823377,35.94115105283789],[129.27867697973977,35.94214426574326],[129.27805389227586,35.942801440776975],[129.27454338454402,35.94312141278373],[129.27472833543735,35.94369118458203],[129.27369051081064,35.944365196045815],[129.2735185545958,35.94504675634428],[129.2714153965219,35.945399659862595],[129.26886907564634,35.94445894629894],[129.26655769994534,35.94506264522487],[129.2657248227342,35.946963453098874],[129.2650245795189,35.94744632338666],[129.26368252929862,35.94677025505604],[129.2625750793591,35.94442286402375],[129.26182162414753,35.94414394633992],[129.26109671184315,35.94290913119767],[129.2594765990478,35.942094645819736],[129.25451017716645,35.943248955725295],[129.25392582899826,35.94258275885885],[129.2521066419417,35.942474421213745],[129.25144234367062,35.943151660111575],[129.2476603102095,35.94315663709821],[129.24535966788005,35.94458528373977],[129.24483495393122,35.945768677912156],[129.24231247200274,35.94574739524957],[129.24144378201404,35.946511461973834],[129.23833737287546,35.94764163303841]],[[129.24465730148017,35.989400825413945],[129.24460778698707,35.98941150617456],[129.2448423824366,35.98935373049982],[129.24465730148017,35.989400825413945]],[[129.24624470307074,35.993254183349215],[129.24634134787698,35.99262501978806],[129.24624015865328,35.99329087255904],[129.24624470307074,35.993254183349215]],[[129.24597700758486,35.9946964218504],[129.24610143981033,35.994014390099835],[129.24624015865328,35.99329087255904],[129.24597700758486,35.9946964218504]],[[129.245837281956,35.995454638202695],[129.24595899269482,35.99478838369386],[129.2456968534392,35.996259115690634],[129.245837281956,35.995454638202695]],[[129.2453738863934,35.9969704889439],[129.24548037890943,35.996744388996675],[129.24533649420292,35.9970548837024],[129.2453738863934,35.9969704889439]],[[129.23907319922563,35.997881042771446],[129.24293537848746,35.998068789530876],[129.236589691597,35.997764891920134],[129.23907319922563,35.997881042771446]],[[129.2337001995871,36.00625722467401],[129.23366766491853,36.00601161822037],[129.23387437457075,36.00819038034244],[129.2337001995871,36.00625722467401]],[[129.2350699860265,36.00791015572285],[129.2350499068807,36.00792809371553],[129.23516601458624,36.00780683305818],[129.2350699860265,36.00791015572285]],[[129.2374596275645,36.00858307516685],[129.2374125212581,36.00749061165174],[129.2375893953149,36.01115941991531],[129.2374596275645,36.00858307516685]],[[129.23883064543216,36.012409617953935],[129.23872456846388,36.01229903130126],[129.2388800511727,36.01250189566449],[129.23883064543216,36.012409617953935]],[[129.23671223210633,36.04635051049588],[129.2367122327952,36.04635051181914],[129.23669788032683,36.04651718440815],[129.23671223210633,36.04635051049588]]]},"properties":{"name":"북부생활권","dongs":"강동면·안강읍","pop_2013":37854.0,"pop_2030_plan":42000.0,"pop_2026_actual":27036,"gap_pct":-35.6,"net_density_2013":29.55,"res_land_km2":3.13,"res_density":120.94,"park_plan_count":10.0,"park_plan_km2":0.58,"park_per_capita_plan":13.81,"unbuilt_park_count":4.0,"unbuilt_park_km2":0.445,"lbl":"북부생활권\n2030 42,000 / 실제 27,036","source":"2030 경주도시기본계획 인쇄쪽 140~142·167·350·355 (T1) · 실제 = 주민등록 2026.08 행정동 합(T2). 생활권 경계는 읍면동 전체로 근사(계획은 \"일부\" 포함)"}},{"type":"Feature","geometry":{"type":"Polygon","coordinates":[[[129.48089744222173,35.72205542599099],[129.48112827050966,35.7210254919611],[129.48063576725266,35.719427788120925],[129.47817804963418,35.717026990163895],[129.47839326418296,35.71409810992344],[129.47919313214027,35.71279193838676],[129.4777838700496,35.71179916871118],[129.47716065300054,35.71062520678014],[129.4741567932898,35.70927283602206],[129.47140713806482,35.70603095369345],[129.47197721215946,35.70571107642125],[129.47207100304723,35.70322533147739],[129.47350725725374,35.69982382659036],[129.47577442323276,35.697456567795086],[129.47480996169128,35.69514223932372],[129.47557272634683,35.694258350528244],[129.47532713629386,35.69357131885722],[129.47668111762997,35.69209524333754],[129.47734402775833,35.69061818186643],[129.47558475667185,35.693173522617826],[129.4742404126567,35.691408436240785],[129.47388956686814,35.69201763587474],[129.47378341312822,35.69111726470765],[129.4749209711381,35.690925792848454],[129.47516327114863,35.68997643806174],[129.47633278996472,35.69020579923465],[129.47489453726385,35.6895783426396],[129.47492031901618,35.68844663007392],[129.47419324223617,35.686952529534096],[129.47464504019842,35.68641714212374],[129.4715776882977,35.682549088859034],[129.4714859054361,35.68062464742378],[129.4707560227365,35.68054671387784],[129.47056424180153,35.67954180021682],[129.46999020503117,35.67926835563726],[129.4673392757167,35.679943984422664],[129.46457018903175,35.67834945512939],[129.46390216480728,35.67706060492332],[129.46448601735625,35.67685775697827],[129.46375454968427,35.673492528172034],[129.46399249313438,35.67127597167113],[129.46510431159336,35.66863929667628],[129.46488819084283,35.66691786605867],[129.4627293966175,35.66634920666152],[129.46226540323266,35.665475561755144],[129.46263040493653,35.666328000384986],[129.4608819182757,35.666592239364086],[129.45939145650343,35.6657295608704],[129.45841890902335,35.66679093127413],[129.4566559320395,35.6668084683848],[129.45270385435643,35.66492551965584],[129.452564218551,35.66252547304954],[129.4512321661309,35.65960430818174],[129.45186649671098,35.659610679892324],[129.45113589254927,35.65751479095529],[129.45156182889306,35.656900605717226],[129.44995837660667,35.65266735621557],[129.4508715793675,35.6524653389326],[129.45112127795707,35.65177463633783],[129.450762812058,35.652394625336576],[129.44984089703848,35.65257091587015],[129.44962617135468,35.65101836322063],[129.44840727437972,35.651218414439185],[129.44533676868545,35.653429576782735],[129.44203864396198,35.65495740093984],[129.4412894305258,35.65458698553289],[129.43926881546403,35.655244696478555],[129.43687365549258,35.65423814993895],[129.43647473992723,35.65331437207853],[129.4350791485184,35.652446080300884],[129.4330971159904,35.6543081630059],[129.4328009546542,35.656646655953146],[129.4283985657104,35.65558036459357],[129.42787328329874,35.6568162026802],[129.425744638495,35.65717050290578],[129.42138398189215,35.65933679858833],[129.42004492189,35.65955179897997],[129.41878094983306,35.66051805017735],[129.4174987926969,35.66051578074242],[129.41435815540194,35.6626953383415],[129.4109695114632,35.66382741510417],[129.40787706407195,35.66357716198344],[129.406675712997,35.6627970132693],[129.4034168794458,35.66296852292849],[129.40073575834415,35.66720246129381],[129.39999569350266,35.66757339772814],[129.39366355388856,35.66805434943261],[129.3864150657663,35.67033954379523],[129.38184911275889,35.67118483690578],[129.37265415290423,35.66922682089551],[129.37277339394217,35.670154781867446],[129.37159611317875,35.67209393334511],[129.37054697722405,35.67290692845922],[129.36786148815642,35.67318375385528],[129.36672728938166,35.675278276613966],[129.3650550017249,35.675699283703224],[129.36417812891088,35.676740580803965],[129.36407338576157,35.6789345278816],[129.36520001834984,35.68598280698687],[129.36373116076928,35.68683750291069],[129.36457703866532,35.68889452774339],[129.36419080566102,35.6896074427479],[129.36496972693652,35.690938062089316],[129.3646996230603,35.691738519590366],[129.36513065003734,35.69393419709587],[129.36630912567185,35.69553781900729],[129.3655338158351,35.69710254240607],[129.36709554061702,35.69883574290869],[129.36804383626935,35.701068255876905],[129.36785056994637,35.70227266759135],[129.36695796682696,35.70260248718858],[129.3660516836838,35.704538075811264],[129.3674954031972,35.717021136644846],[129.36852641715248,35.719648167917505],[129.36940949905332,35.719899970537384],[129.36964697898108,35.72095892444795],[129.37216486479323,35.722301541887965],[129.37385648983755,35.722652958694596],[129.374609027116,35.72379818051464],[129.3734418980106,35.724845124107695],[129.37364703333466,35.72604520781612],[129.37285589434174,35.72646246769463],[129.3720602656014,35.72882587989646],[129.3702134328647,35.730198878123026],[129.36888530027844,35.72966132634778],[129.36545336473907,35.7300419410333],[129.36509754777273,35.730352889199146],[129.36524917852387,35.731451972286635],[129.36422178146432,35.73284128885609],[129.36421166545827,35.73622666114098],[129.3632935344763,35.73811347879509],[129.3645399383434,35.738978180642356],[129.36707283294675,35.739597392894304],[129.36807401162145,35.74071607523864],[129.3676464762368,35.743703914916615],[129.368354002916,35.74617061139992],[129.36477202959608,35.74884796972217],[129.36395782751285,35.75020029783563],[129.36063228830537,35.750728920283365],[129.36037389393576,35.75189827481187],[129.35887134421125,35.753315031989125],[129.3576674518723,35.75538508390896],[129.35415135696093,35.75614954570172],[129.354523886661,35.75685828528059],[129.35401222524004,35.75740722908528],[129.3550299948116,35.75920469746949],[129.3552667787314,35.76080388087164],[129.35437956243067,35.76355683228131],[129.35451588078936,35.764829946938406],[129.35335779398915,35.76589526638544],[129.35246921198012,35.765953470257614],[129.35235673402548,35.76680347789351],[129.35336913616158,35.76762936252732],[129.3535401162686,35.76917634046098],[129.35300513697973,35.76935870657076],[129.35186222241308,35.77148212449621],[129.3540691042143,35.77305895936986],[129.35442801784575,35.77435742958334],[129.35395202960075,35.77461987464635],[129.35367048904496,35.775693168373216],[129.3539863080027,35.77632499763299],[129.35338737574267,35.777116523053465],[129.3542849734876,35.77856550239066],[129.3538195585734,35.77986397322871],[129.35501100138305,35.78062314683185],[129.35521480821453,35.78125719413249],[129.3515460100141,35.78165504618732],[129.3506568098241,35.785560330923445],[129.35102285884525,35.78600959788212],[129.35077505743413,35.7870179486128],[129.3513456095761,35.78764047242209],[129.3512346955389,35.78902584409793],[129.34948788479014,35.792445694901076],[129.34957460727452,35.79298532243363],[129.35102214552202,35.793003348189295],[129.35161306174274,35.79372879712911],[129.35329754494714,35.79404625900685],[129.35347824481224,35.794665829137244],[129.35467106220403,35.795033720157704],[129.35338126976916,35.79632334800095],[129.34752718973076,35.79684787063867],[129.34699990577806,35.80013097834817],[129.3457028231171,35.80121456275692],[129.34627676291464,35.80303144008586],[129.34823010363385,35.803353013353785],[129.3535950458876,35.80274031377297],[129.3568868635478,35.80266893735635],[129.35757969005937,35.80302534263868],[129.3579267738859,35.80347199343394],[129.35695102664914,35.80508662844111],[129.35770517677358,35.80997434707825],[129.35843618115862,35.81093015528428],[129.36294632243687,35.81272035347887],[129.3638774116038,35.81399753410414],[129.36708564732362,35.814694085078514],[129.36758715808526,35.815692352224985],[129.36872873819135,35.81631296810522],[129.36937898670652,35.81872148183068],[129.37096069380092,35.82044557943596],[129.37259366735012,35.82452942754202],[129.37230072803064,35.825513927785714],[129.37293772613177,35.82701744304535],[129.37763435722178,35.82911803087273],[129.37862706781405,35.83155349897517],[129.37797246127528,35.83383375225816],[129.37611773784596,35.83477341156634],[129.37347543136028,35.83483505386247],[129.37399058822015,35.83706233308992],[129.3728053906896,35.83849581127469],[129.37264094479627,35.84207802698854],[129.370615116033,35.845155245311396],[129.37134096426112,35.84624635106258],[129.37135107550742,35.84768973714458],[129.37466964791162,35.848303337233745],[129.3721449940711,35.850194348467326],[129.37141235538243,35.85183907136096],[129.37262497600372,35.854952890962586],[129.37236284715183,35.856417132017775],[129.3733695529835,35.857480715085906],[129.37524602466524,35.85732171722214],[129.37619378730312,35.85852974881132],[129.3753991489748,35.85964919888255],[129.3758936136181,35.860664315984465],[129.37528479010342,35.86319015277131],[129.37939843597385,35.8645047608489],[129.38385967298856,35.86254449245144],[129.38512885782347,35.86333274720096],[129.38779127893403,35.86304588544743],[129.38865100725363,35.86226745444279],[129.391197239339,35.8633534753643],[129.39146767147807,35.86253409826311],[129.39250608817952,35.862258890387615],[129.3931039753859,35.86126405287099],[129.3927440862735,35.86002699858],[129.3938450576143,35.85876224471961],[129.39379805698331,35.85666948566989],[129.39684402403842,35.85703364408586],[129.39814950313897,35.85840583733062],[129.40176251863136,35.85728147796964],[129.40300591918415,35.85831275851961],[129.4070457086274,35.85784250392301],[129.40828311568995,35.85975936488549],[129.41052646309384,35.86143754058093],[129.41048696473337,35.862475040866514],[129.40956417715162,35.86305976818705],[129.41026013288862,35.86389443986592],[129.40990772925775,35.86548500530555],[129.41117136575141,35.86638824425687],[129.4099415219492,35.86733221930366],[129.41039023418207,35.87052147415949],[129.41214054547166,35.87250485762681],[129.41277984951162,35.87265363739328],[129.4131311409568,35.87433623058692],[129.4140235649086,35.87492534715606],[129.41479212041008,35.87633459700893],[129.4174211047964,35.877499189612244],[129.4200161018339,35.8770657107322],[129.42138361825334,35.877905363813504],[129.42095684628575,35.880513896576865],[129.42018833494114,35.8806124425597],[129.42051198016486,35.881584625066466],[129.41993137201086,35.881730621936505],[129.4212689644624,35.88405132196396],[129.42203494228895,35.8836749170507],[129.4253132598092,35.884223415098035],[129.4260060841767,35.88364997095471],[129.4274124945469,35.88349063715119],[129.42815569510176,35.882766080585895],[129.4281233846688,35.881662178164106],[129.4294862355507,35.88148257982839],[129.43007678971,35.88013378932863],[129.43410099196373,35.879621537739084],[129.43477928108973,35.8800236500522],[129.43698519869181,35.87880454343745],[129.4377197068996,35.87685166061052],[129.43710293605147,35.87510302547449],[129.43979604833413,35.872595697059396],[129.44071694126873,35.8687829823508],[129.44314235270974,35.86708684288466],[129.4453365090468,35.866784303655166],[129.44625575776402,35.86582180423102],[129.4465097147701,35.86519353745289],[129.44531964397967,35.86380321587145],[129.4452851996821,35.86286181693477],[129.44649289628572,35.86087561130119],[129.44599569763622,35.858978725833374],[129.44703616007584,35.85832797908],[129.44714758833382,35.85760970899526],[129.44874117630457,35.85807644375429],[129.44911231120764,35.85760430725803],[129.4480322669879,35.855099043941536],[129.4484451487312,35.85283561672157],[129.44939487661736,35.85226299993749],[129.4489741738585,35.85174026969738],[129.45015093436265,35.84999314021205],[129.44990427458845,35.84918080663728],[129.45070548499302,35.849144477160344],[129.4523541540779,35.84785564501692],[129.45520781332183,35.84684261417869],[129.4585201738959,35.84705813956261],[129.4609054205242,35.84922209277643],[129.46495153784608,35.84871570301991],[129.46555969476844,35.849302948470275],[129.46619343625753,35.84921927038427],[129.46794959786791,35.85122930103418],[129.47036266540513,35.849962821594644],[129.47521068211526,35.85011111360407],[129.47644804338825,35.85135600763821],[129.48034057082873,35.8531472405594],[129.4817415805978,35.85151540503783],[129.48434299612984,35.85012960486435],[129.48753119025773,35.845454837253705],[129.4901362972749,35.84341112507605],[129.49226107614217,35.84285267295408],[129.493857325449,35.843096616636664],[129.49578644895647,35.841547699919715],[129.49752517658447,35.84169318808755],[129.49884325510226,35.840256874659524],[129.50110824197787,35.83998366813743],[129.50211132764355,35.840709193263706],[129.5047138557961,35.84030557157515],[129.50562544199792,35.840088354974554],[129.5062823537,35.83920605761761],[129.50764810985885,35.83898357356688],[129.5078287212911,35.83833898359785],[129.5114194800742,35.83892593906539],[129.51771275069626,35.84189249885541],[129.5192810251254,35.83911756298853],[129.51864880860077,35.83913532695163],[129.51932151336416,35.839075048222895],[129.52020800855104,35.837825781766874],[129.51755665662105,35.836941235837145],[129.51875119323984,35.836073513067795],[129.51759110119298,35.83681663546136],[129.5154697237323,35.83507317160507],[129.51589607936242,35.83484407227891],[129.5147566491977,35.83389739426453],[129.51363310156987,35.831195016967634],[129.51319694096063,35.831189493533294],[129.51337044463122,35.830716097951345],[129.5120701511544,35.82925891143219],[129.51234971139226,35.828519614429005],[129.511323761758,35.827647673795724],[129.5117443375607,35.826468036041476],[129.51131715980836,35.827515201001084],[129.5103832917745,35.8269318992958],[129.51012401309418,35.82516463958993],[129.50839895213932,35.824112992469274],[129.5085493999691,35.82327996888645],[129.50741941243444,35.82237229267347],[129.5083082622962,35.82280184842061],[129.50856637996506,35.82169909683192],[129.50893456327634,35.820798317458404],[129.50910997610063,35.8205060602759],[129.5086823953923,35.82251853238417],[129.5095458968809,35.82030774729862],[129.51286280063897,35.81657498464151],[129.51329301933168,35.816580913437164],[129.51268198159292,35.815191819837324],[129.5130496636809,35.81432130214356],[129.51207268642904,35.81523988611326],[129.51069704096122,35.813542962206185],[129.5100775800175,35.81171916517243],[129.51091121434172,35.80879510287134],[129.51175859571836,35.80801057935167],[129.51153973074608,35.8069104644347],[129.51009324695164,35.80719703335691],[129.50881242565538,35.80561889163119],[129.50961237797983,35.80670026281651],[129.50622627242063,35.80876263631161],[129.50352816150365,35.80744245913305],[129.50281532447863,35.80577513491204],[129.50316114662655,35.80464634944629],[129.504929064164,35.80425012534996],[129.50704549033404,35.805925620775646],[129.50503453021278,35.804174438549715],[129.50480769979808,35.80345598581024],[129.50264814465575,35.80195548069508],[129.50297215555776,35.80172912420052],[129.5037079565321,35.80255411010329],[129.5037017970327,35.80239108214275],[129.50259918819586,35.801342142404735],[129.5005413521392,35.80133047765072],[129.4992681403728,35.80020664532546],[129.4989345664561,35.79877016565785],[129.49849192008713,35.79882793668126],[129.49863643091908,35.799193498358235],[129.49855962351316,35.79946721855895],[129.49838345847635,35.79932672114899],[129.49835455728677,35.79876800361417],[129.50012334574595,35.79638402615294],[129.50052009416947,35.79430998589035],[129.50133752579623,35.793663279130335],[129.49845692433442,35.792598902688496],[129.49772811161728,35.790755189715284],[129.49607371849058,35.79175698523984],[129.49594964395922,35.78993280768138],[129.49547873643667,35.78910733279606],[129.4950821352195,35.78876812674882],[129.4958320621128,35.78990808317364],[129.4958972031243,35.791604669986185],[129.49460839615097,35.79192057789179],[129.49362151587752,35.79144788708168],[129.4932243798496,35.79099197442865],[129.49403978235472,35.79021303068191],[129.4926523511658,35.791331992557815],[129.49115619391262,35.78801610544055],[129.49102719946254,35.7853105993663],[129.4906761628046,35.7849245261744],[129.48973933459325,35.7850780943382],[129.49071257668422,35.78468473548632],[129.49096163690433,35.782112741666154],[129.49037120431058,35.78202684783295],[129.49162241307488,35.782083003808545],[129.49230172772852,35.78018938125748],[129.49184916803318,35.78014779612128],[129.49258785410868,35.77986936847398],[129.49208897603395,35.77963869255754],[129.49210568519737,35.779532060427655],[129.4926333019974,35.77979775870523],[129.49419572495154,35.77700819490284],[129.4956816416741,35.77704789973094],[129.4941038377564,35.77684271396634],[129.49491212914026,35.77617244709555],[129.49531881496767,35.77659324862616],[129.4946543147873,35.7752744067086],[129.4959095202548,35.773195093624324],[129.49642450927183,35.77310176871586],[129.4960304696247,35.77157066587837],[129.4940680208016,35.77024074661061],[129.49328593637372,35.76754300016717],[129.49398948899056,35.76713873928385],[129.49368888120486,35.765808971910964],[129.49424442918829,35.76491391560839],[129.49418527657718,35.76098245627159],[129.49374072003457,35.75961076494734],[129.49386676555528,35.76139155090891],[129.49263828231574,35.760459286998895],[129.49192855924795,35.76059745205423],[129.49091590968783,35.75889682685057],[129.4913410949398,35.75580353095155],[129.49135417770242,35.75510400462742],[129.49096849899703,35.75520870519634],[129.49098273751835,35.754923048525875],[129.49101216120766,35.754847547813945],[129.49135756246642,35.75505733286761],[129.49188955866438,35.754128287446],[129.49423784231934,35.75228425850281],[129.49236462712145,35.75167295244249],[129.49089776979238,35.750289760397905],[129.49074207250789,35.74956064680629],[129.488315551719,35.7482362800762],[129.48782327042997,35.74712345308996],[129.48677448088583,35.746561888406276],[129.487312385574,35.74522278431225],[129.48653482959307,35.745874619247815],[129.4844405091498,35.744031845026775],[129.48305167958674,35.74367295272072],[129.48270585430393,35.74203436361039],[129.48345717502355,35.741194160121815],[129.4844030809301,35.73802451921456],[129.4835732918478,35.7366366558334],[129.4844257812162,35.73655360198984],[129.4845772018715,35.7358364307591],[129.48404155315453,35.73585762377719],[129.48462152801687,35.735796101726145],[129.4848816397794,35.734197513434566],[129.48548448383096,35.73368303099601],[129.48510489215786,35.73349166991538],[129.4851777022755,35.73253369979109],[129.4860250718109,35.72956529286775],[129.48513327108319,35.72938056249375],[129.4836222791842,35.72779250557065],[129.48328157139738,35.726516451840645],[129.48166045495157,35.725427450157575],[129.481878679428,35.72386857993282],[129.48089744222173,35.72205542599099]],[[129.48045222989902,35.721939016500116],[129.48049696230427,35.72195640402138],[129.48045222703055,35.721939019724154],[129.48045222989902,35.721939016500116]],[[129.4801780081345,35.72210389368375],[129.4801923590924,35.722099240169115],[129.4801747187798,35.72210512988901],[129.4801780081345,35.72210389368375]],[[129.4799503457419,35.72212238265573],[129.480004198462,35.72206622728983],[129.47992368478552,35.722175446722126],[129.4799503457419,35.72212238265573]],[[129.47990944634384,35.72221741194259],[129.47979014787214,35.722211559313955],[129.4799039073668,35.72221710049666],[129.47990944634384,35.72221741194259]],[[129.479643069058,35.72220094113199],[129.47949107817945,35.72220984555914],[129.47965933313134,35.72220201209619],[129.479643069058,35.72220094113199]],[[129.4789196090082,35.72216010566525],[129.47910689470075,35.722280119111886],[129.47907973235635,35.72240668277747],[129.4789196090082,35.72216010566525]],[[129.47872444538447,35.72220605451915],[129.47872443596887,35.722206056735935],[129.4787124340398,35.722126554588414],[129.47872444538447,35.72220605451915]],[[129.4782558316293,35.721858270126695],[129.4783650328062,35.72185011363902],[129.47823115493551,35.721864271145655],[129.4782558316293,35.721858270126695]],[[129.47814613931445,35.721895304851195],[129.4782041641286,35.72187327351207],[129.47806763266456,35.72192437500949],[129.47814613931445,35.721895304851195]],[[129.47692432075613,35.722055326226744],[129.47698318211448,35.72199358262552],[129.47686309856485,35.722074043825565],[129.47692432075613,35.722055326226744]],[[129.47653634891944,35.72211511587316],[129.476564416376,35.7221291819028],[129.47650678720694,35.72210812161877],[129.47653634891944,35.72211511587316]],[[129.47514254135353,35.72187179885392],[129.47569455433296,35.72191380469788],[129.47500164441936,35.721882159050715],[129.47514254135353,35.72187179885392]],[[129.4754454459878,35.72107128706216],[129.47522354192904,35.721476718964716],[129.4757055851882,35.72090867518207],[129.4754454459878,35.72107128706216]],[[129.47604672639807,35.72070851309522],[129.47604673230512,35.72070851223206],[129.4757055851882,35.72090867518207],[129.47604672639807,35.72070851309522]],[[129.47281877576845,35.71997101538655],[129.47289570503153,35.719957465526214],[129.47280100736626,35.71994336218333],[129.47281877576845,35.71997101538655]],[[129.47277596447324,35.71990403909606],[129.4727759644845,35.719904039113715],[129.4726637701453,35.71990465867002],[129.47277596447324,35.71990403909606]],[[129.4706025994687,35.7196167097932],[129.47120890930086,35.7196729628323],[129.47037392465762,35.719344626950274],[129.4706025994687,35.7196167097932]],[[129.46910657901694,35.71951691333739],[129.46930081984954,35.71950095414388],[129.46940000631344,35.71949287176428],[129.46910657901694,35.71951691333739]],[[129.46892453568537,35.71943575899128],[129.4687671313218,35.71943673077719],[129.46910657901694,35.71951691333739],[129.46892453568537,35.71943575899128]],[[129.46844436718055,35.71943899300373],[129.46827103593552,35.7193224119113],[129.4687671313218,35.71943673077719],[129.46844436718055,35.71943899300373]],[[129.46773490216918,35.71929515358716],[129.46819227248642,35.71926944377435],[129.46726609741188,35.71944301837039],[129.46773490216918,35.71929515358716]],[[129.4663760559202,35.719444936748964],[129.46587741514278,35.71958832396283],[129.46726609741188,35.71944301837039],[129.4663760559202,35.719444936748964]],[[129.4655790000646,35.71964089949668],[129.4655789906871,35.71964090114883],[129.46551685717927,35.71958115126922],[129.4655790000646,35.71964089949668]],[[129.46432187587683,35.71902411533598],[129.46480728738874,35.71889986519778],[129.46432186586688,35.719024124137626],[129.46432187587683,35.71902411533598]],[[129.46401191326873,35.719296397505005],[129.46407008282054,35.719245514011135],[129.46368974863805,35.71969902111952],[129.46401191326873,35.719296397505005]],[[129.46340430605085,35.72068948588755],[129.4636578830448,35.71998743002722],[129.46339415404674,35.72071737831076],[129.46340430605085,35.72068948588755]],[[129.4633887065537,35.720732324026145],[129.4633887048689,35.72073232864858],[129.46333720072053,35.72075683255599],[129.4633887065537,35.720732324026145]],[[129.4617188295101,35.72194004475527],[129.46175719899,35.721913500002024],[129.46162674410144,35.722015084802614],[129.4617188295101,35.72194004475527]],[[129.459891504196,35.723172085732294],[129.46040404833528,35.72278388772507],[129.46070062388037,35.722608120058844],[129.459891504196,35.723172085732294]],[[129.4587903061622,35.725675589485256],[129.45880933448686,35.725648736203915],[129.45877056036878,35.725695843752696],[129.4587903061622,35.725675589485256]],[[129.45855762563968,35.725913061415184],[129.45855762355276,35.7259130544792],[129.45877056036878,35.725695843752696],[129.45855762563968,35.725913061415184]],[[129.45777049031292,35.727840107125544],[129.45819697042617,35.72750379709372],[129.45768549370757,35.728067277131615],[129.45777049031292,35.727840107125544]],[[129.45756250288588,35.72864582797513],[129.45760114348144,35.72844216930912],[129.45763013647473,35.728289951946074],[129.45758036309988,35.728552553344684],[129.45756250288588,35.72864582797513]],[[129.45725227162413,35.728866011110895],[129.45732831967138,35.72881222422867],[129.45711574305452,35.72896283683721],[129.45725227162413,35.728866011110895]],[[129.45682972616243,35.72944311063129],[129.45692548111197,35.72909779083297],[129.45682972794296,35.729443113407505],[129.45682972616243,35.72944311063129]],[[129.45674011619346,35.73025852247718],[129.4567517191419,35.73024828982624],[129.45635876025074,35.73059151129528],[129.45674011619346,35.73025852247718]],[[129.45635876025074,35.73059151129528],[129.4569513845056,35.731121851237184],[129.45709922864603,35.731325665933596],[129.45635876025074,35.73059151129528]],[[129.45837614714114,35.73217761133321],[129.45828575180772,35.73207894212341],[129.45857730148842,35.73239664662501],[129.45837614714114,35.73217761133321]],[[129.44830410241033,35.805636578088404],[129.4479046587995,35.80497614839709],[129.44773906047297,35.80505356764592],[129.447904658749,35.80497613938478],[129.44830410241033,35.805636578088404]],[[129.46029447934473,35.77709112349035],[129.46029446828524,35.77709112353258],[129.4603107983995,35.77682457871634],[129.46029447934473,35.77709112349035]],[[129.47161047056895,35.75718895329328],[129.4721518463724,35.75676731080393],[129.47229816876535,35.75675149797199],[129.47215184642545,35.75676731981632],[129.47161047056895,35.75718895329328]],[[129.47590235813226,35.75289248130295],[129.47590234707624,35.75289248134649],[129.4758944679523,35.752615592471],[129.47590235813226,35.75289248130295]]]},"properties":{"name":"동부생활권","dongs":"감포읍·양남면·문무대왕면","pop_2013":16825.0,"pop_2030_plan":24000.0,"pop_2026_actual":15118,"gap_pct":-37.0,"net_density_2013":14.93,"res_land_km2":2.84,"res_density":59.24,"park_plan_count":5.0,"park_plan_km2":0.995,"park_per_capita_plan":41.46,"unbuilt_park_count":6.0,"unbuilt_park_km2":0.749,"lbl":"동부생활권\n2030 24,000 / 실제 15,118","source":"2030 경주도시기본계획 인쇄쪽 140~142·167·350·355 (T1) · 실제 = 주민등록 2026.08 행정동 합(T2). 생활권 경계는 읍면동 전체로 근사(계획은 \"일부\" 포함)"}},{"type":"Feature","geometry":{"type":"Polygon","coordinates":[[[129.08521123235462,35.78586821234912],[129.0840146968268,35.78385055807099],[129.08396052933412,35.782145517544876],[129.08480997211922,35.78041228410884],[129.08466315044532,35.77961963618361],[129.09165123129492,35.769768597665205],[129.0908520148851,35.767746354253546],[129.08968808157843,35.766784970752255],[129.0898453274022,35.764791287327654],[129.09196443735289,35.75999398639679],[129.09070375741211,35.75704644087138],[129.09020305075524,35.751768929619665],[129.0877861213371,35.746982396664166],[129.0883782241163,35.74541100872249],[129.08635126238065,35.743473650716844],[129.08492258056154,35.74344322303097],[129.0838950831197,35.7421064419941],[129.08645479998432,35.74137797833812],[129.08751635615369,35.73992855364149],[129.08746854984096,35.73877178384043],[129.08930376699328,35.73710011145211],[129.090523216111,35.73672737894685],[129.0908906779286,35.734242481384165],[129.09185825131593,35.733814692403485],[129.08982726197644,35.73220367837352],[129.09072948435565,35.727847918588985],[129.08895360907246,35.725737701658744],[129.08863725219373,35.72224236496853],[129.08715954838206,35.72096608297217],[129.08749511652576,35.719983855344644],[129.08682185412107,35.71868797413512],[129.08782259558936,35.71453368063815],[129.0900489233816,35.71131847072747],[129.089256950078,35.70750911252247],[129.09097990829085,35.70501628453657],[129.0899249846636,35.70097170935377],[129.08573810984277,35.69809130479979],[129.08306770558642,35.69764362531262],[129.08028481463379,35.69627969799025],[129.0797991470205,35.69453830248388],[129.07859258260834,35.69424093998871],[129.07711289479073,35.69304775322829],[129.0753508330766,35.68895918628231],[129.074087057687,35.68800751451408],[129.073946081681,35.68678784022801],[129.06987655318798,35.682372274877665],[129.0699978030905,35.67998330051534],[129.07070502369777,35.67863569442567],[129.0730279964521,35.67737941615009],[129.06809454752266,35.67319067663262],[129.06715320942524,35.67134650344127],[129.06903929206575,35.66905224765162],[129.06817390081542,35.667100479916556],[129.06845275655542,35.66374293516896],[129.06727308223648,35.66199198543881],[129.067892951133,35.65879852855994],[129.0703588695108,35.65863594019861],[129.07110054553647,35.65707936359363],[129.07532379966312,35.65182640210684],[129.07617625453761,35.650917394151875],[129.07976409618428,35.64911316573914],[129.08112987078354,35.64683516459126],[129.08136251477742,35.64516370973759],[129.08085452092445,35.643253165598246],[129.07554574385267,35.64035592352834],[129.07219732896536,35.64371366292891],[129.06930198167692,35.64541354197408],[129.06470058740533,35.64577336787547],[129.0640026444315,35.64641539085238],[129.05768176515832,35.648256274338294],[129.0548034160046,35.64849547670614],[129.05306860061734,35.64924380940723],[129.0520461659356,35.64906003024439],[129.050148058444,35.64992697988862],[129.04690080273582,35.6505176416187],[129.0449531465147,35.653830279816425],[129.04315409608608,35.65568171374997],[129.04263864464602,35.656726294780064],[129.0419819103656,35.6626184723148],[129.03882695697936,35.66647003636944],[129.0372533551477,35.66925231986371],[129.0352062073554,35.67528609270938],[129.0352462887735,35.67679743354201],[129.03611820974334,35.67885604517982],[129.035730676916,35.6808014990449],[129.0368869877172,35.68288445604237],[129.03781835171165,35.68862089882079],[129.038717150064,35.68992298500949],[129.03730966615413,35.69311863971478],[129.0372496790588,35.695281004726695],[129.03395731850284,35.69501352991298],[129.0309530349077,35.69276434316214],[129.02889633253494,35.6927476150865],[129.0263537867475,35.69141330728739],[129.02443405410727,35.69133788267653],[129.02323609293796,35.689812210296],[129.02135199281494,35.68909495888158],[129.01826373524628,35.68967037113556],[129.01681273779377,35.69078613643085],[129.01513559953642,35.69105018693149],[129.0066991011854,35.69478783278186],[129.00373134934776,35.6935413632893],[129.00307933127425,35.69392982325104],[129.00356410524228,35.69456999117041],[129.0040185009734,35.69928150187843],[129.00305438128441,35.704890395925396],[129.0022003949602,35.70747849043027],[128.99732939782618,35.71105705015327],[128.99688187228458,35.71346406102036],[128.99756579368935,35.71516353195837],[128.997558486472,35.71725152514894],[128.99154565367888,35.719199926319966],[128.98912676696327,35.723395378750496],[128.98719049041617,35.724909379722114],[128.98656456085757,35.726974491737536],[128.98457477563267,35.72758907516402],[128.97976148922976,35.731081939029046],[128.9799129348147,35.733085514172565],[128.97808928754165,35.7358465255684],[128.97287726750463,35.73741718513406],[128.97476237400764,35.744610103118724],[128.97487386853578,35.7462018102762],[128.97443404683813,35.74678544473857],[128.97571135208335,35.748390673429654],[128.97560302184783,35.7497388816149],[128.97338420730566,35.751023301419345],[128.97341269568648,35.75163205919552],[128.97170121662015,35.75298486266937],[128.97072650100026,35.75467292249108],[128.97157875144916,35.757223141289224],[128.97274262001562,35.7589164240662],[128.9720746452463,35.759763983419326],[128.97362764130187,35.762173730421026],[128.97368725453518,35.76481196982667],[128.97411044471383,35.76543945466148],[128.97595507310663,35.76566247214393],[128.97747300714133,35.76205048166982],[128.9770476442077,35.76517708885373],[128.97764397493478,35.76530216865786],[128.97735187962812,35.767587156583254],[128.97529671904363,35.77032502658799],[128.9755863052439,35.770843748143335],[128.9746559574614,35.7717029527687],[128.9797531798612,35.77235654020222],[128.98172352228576,35.77358689611118],[128.9901783254566,35.77267846817068],[128.99273553839524,35.775417816347314],[128.99494001606624,35.77569061502651],[128.99706789010537,35.778123867227734],[128.9960951975931,35.778789499844315],[128.9974014197551,35.77954965728784],[128.9979549596416,35.78080508721969],[128.9941875527629,35.784292709642756],[128.99455348058018,35.78631169092409],[128.99371035714094,35.78757620741548],[128.99405272338845,35.78867844357273],[128.99364844760808,35.78983107588435],[128.9947854443819,35.793702524608534],[128.9933680296786,35.79611065696953],[128.9921565567597,35.79658113479339],[128.99146117654095,35.79896616190942],[128.99029905339128,35.79985128503138],[128.99087190215116,35.80079765846027],[128.99349531580992,35.80252329324315],[128.99483831825475,35.804933528330274],[128.99713537220438,35.806386559795136],[128.99734443865748,35.80761264708226],[129.00051751635812,35.81201280501164],[129.00056162301502,35.812738145880765],[129.00131368395284,35.81321249863669],[129.00165699649762,35.81472947568572],[129.00326143053644,35.81675172844112],[129.00306364897247,35.817866035277014],[129.00435048831818,35.82216019727859],[129.00418242025202,35.822915831681385],[129.0054498356382,35.8247816197641],[129.00670510759574,35.82502198135843],[129.00813459319266,35.82615234550003],[129.00816560485856,35.829347273066595],[129.00886029205287,35.832518312736916],[129.01027126389442,35.833579966639775],[129.01250705926753,35.83393086538938],[129.0142918082892,35.83497452901486],[129.01352331287555,35.83622919828397],[129.01432425537323,35.83831148756311],[129.01648345665816,35.83962028886968],[129.01602987909007,35.84270225872664],[129.016961826564,35.84525468632159],[129.01618494120802,35.8460431990772],[129.0133092658264,35.846415508535415],[129.01309113730304,35.846912498030335],[129.01505929769135,35.84969847423913],[129.01629887784884,35.84990352450148],[129.0172242168669,35.85243635459321],[129.0178681374877,35.852896356940235],[129.01881014381374,35.85664308324765],[129.02219468748154,35.859366277615564],[129.02333697085916,35.86100361864467],[129.02407676023705,35.863435322713876],[129.02681921182418,35.86366421534146],[129.03038112758838,35.867540925702045],[129.03063314346247,35.868470114994125],[129.03139625286275,35.86871233608288],[129.03261467599643,35.870663390872224],[129.03257417274344,35.87182785874529],[129.0315059474094,35.873960617772596],[129.03032724584835,35.87482951097752],[129.0312911987431,35.87628280714708],[129.03026288958395,35.87740652560311],[129.0308486435655,35.87934575884087],[129.02979772367914,35.88004607263773],[129.02992225420826,35.88076369681571],[129.0286243780663,35.88264941360983],[129.02977084808606,35.88375413978839],[129.0288994252648,35.884290628381486],[129.02817964345502,35.88715240805849],[129.02704499199263,35.889270473490846],[129.02495763120652,35.890546332907775],[129.0259697436178,35.89145398178833],[129.02670878614887,35.894084462844425],[129.02602956785458,35.89645248788322],[129.02734320945493,35.89717061173404],[129.02785959542197,35.89806830958114],[129.0259510544125,35.8994977259227],[129.02769037845388,35.90280627395044],[129.0270902203521,35.90300900294849],[129.027040836257,35.90503638659085],[129.0261741740504,35.9053753902383],[129.02642239718708,35.9065592022961],[129.0279416569777,35.90633533278319],[129.03143198644676,35.90726133246955],[129.03402005725977,35.90908077181681],[129.0350300930671,35.90859540015781],[129.03750051133872,35.9125311470167],[129.0404206444149,35.91194207597228],[129.0458475167444,35.91287585312695],[129.04544886045784,35.91485709069908],[129.046896488497,35.91835304248826],[129.04954634789726,35.919278179750755],[129.05069928142623,35.918655640247984],[129.05129636483093,35.91960591442323],[129.0524728069154,35.919960319980156],[129.0547996062919,35.919941095024036],[129.05642125013506,35.92210178143758],[129.055976083381,35.923788465789684],[129.05706345354102,35.92532614921808],[129.05970306880684,35.926203083874555],[129.0608005228943,35.9271109328503],[129.06087147161827,35.92819126737919],[129.06173001708112,35.929683832218515],[129.06167513899354,35.930890780841054],[129.05822533182715,35.93302519742238],[129.06130436335863,35.936055125349164],[129.06111435645803,35.93715204448731],[129.0649457532811,35.940794900793776],[129.06498432068335,35.94127968294465],[129.06680254703122,35.941904760582766],[129.06864792080847,35.94127153324786],[129.07236302427535,35.94250780467888],[129.07291855083946,35.942100909286296],[129.07588941346685,35.942044237019545],[129.07680084167555,35.941463911748535],[129.0784356709838,35.94160090821002],[129.07878435199993,35.94035733735078],[129.0798128339611,35.94004358975254],[129.07985286809375,35.93943046086138],[129.08083209832714,35.93887624142324],[129.08164003673042,35.937573740752946],[129.0826497970899,35.93827792012449],[129.08275172650139,35.93955029029702],[129.0832940088457,35.93993481333411],[129.08684624201672,35.93894645804479],[129.08704809458584,35.93828743763117],[129.0876138221299,35.93829872206993],[129.0881382504052,35.93891273622031],[129.0900649183557,35.93850978348968],[129.0912399353569,35.93897730171264],[129.09141861729032,35.939477372719445],[129.09500360103632,35.940522880105746],[129.09548169520613,35.93988972099946],[129.09778485318023,35.93887553544036],[129.09911339322065,35.93752552605884],[129.10040280639362,35.93748636607492],[129.1018415090473,35.935670358565154],[129.103453546678,35.93549881024938],[129.10543163313406,35.934168328454305],[129.10643598795247,35.93253445613803],[129.1095439189171,35.93023629858257],[129.11069931290334,35.92851949281904],[129.11225145135813,35.92534642129162],[129.1138489747467,35.92331122687809],[129.11458655375245,35.919611836970034],[129.11410686033594,35.91800149220155],[129.1156691326593,35.9170287227317],[129.1117427651906,35.9130571815393],[129.11026894573746,35.912510634338574],[129.11013748006482,35.91103944984273],[129.11237293350453,35.90903981319208],[129.11340424831658,35.90563682105537],[129.11531960390366,35.90453171071895],[129.11572095802794,35.90199099710569],[129.11698849490304,35.90177578450339],[129.11804910953452,35.90071807042769],[129.1199853859119,35.900677160512544],[129.12185175188964,35.89716023959462],[129.12543232335875,35.89473198178841],[129.1267005916856,35.891132656623725],[129.13228356992713,35.890628507230296],[129.13390121399945,35.88907757655843],[129.13414102561063,35.887594755467504],[129.13720802241522,35.88304147420355],[129.13692070804433,35.880975017115134],[129.13561335447758,35.87762861661357],[129.13721582290387,35.873411091628874],[129.13805122621073,35.87248025623078],[129.13824864159716,35.87053076024069],[129.13625263314484,35.868278996124495],[129.13700758190086,35.867690028629795],[129.13713249256847,35.86600256239686],[129.13580104951473,35.86548841834305],[129.13618337941693,35.86394392680759],[129.13457651833716,35.85729540257964],[129.13205166132985,35.85522048641133],[129.1326219280751,35.854054206931934],[129.13138084820926,35.85208686458414],[129.13052578952409,35.84943293669466],[129.13175227652755,35.84803962260065],[129.13103128196224,35.84791414587343],[129.1310597306216,35.84733555722688],[129.1299861416389,35.846453249893194],[129.13226259449925,35.84204953298002],[129.13431054759437,35.8413771069525],[129.1349086718091,35.84080360870274],[129.13498540505958,35.83976968841694],[129.13259314295476,35.837058588782774],[129.13314205573826,35.834827469657476],[129.13149847221166,35.83397330317385],[129.12761929252068,35.83497981972553],[129.12979089785802,35.8308643730439],[129.13164048076501,35.829377929586514],[129.13552117867619,35.82778177987993],[129.13694427889627,35.82670859352692],[129.13841683968488,35.82096985512266],[129.13965197804524,35.82061561842249],[129.14299825382366,35.8215654870413],[129.14348145716835,35.817803980426106],[129.14563186555955,35.816879914391826],[129.14579462064566,35.81448639911255],[129.1473907185222,35.81505077630454],[129.15364639328078,35.81295460368364],[129.15653401739746,35.812328713808434],[129.157748216093,35.812499110186025],[129.16161672852533,35.80972449558273],[129.1588428811258,35.807293612661624],[129.1592478096838,35.80652002906259],[129.1601935527725,35.80613670545426],[129.1593455153722,35.80323265623247],[129.16221388566086,35.799792316034306],[129.163848061961,35.79905235967306],[129.16353692679755,35.79752010931225],[129.16188488030397,35.797165318351134],[129.15845859209853,35.79325080851083],[129.15900884081063,35.79050425940114],[129.15658881271767,35.78859280633103],[129.15535486129303,35.78624260879855],[129.1504317635999,35.783922078883585],[129.15025644075516,35.78280100192337],[129.14825829063994,35.78099896257798],[129.1471154377182,35.77829633502008],[129.14694529296085,35.77665817419289],[129.14561753064012,35.774682639447164],[129.13890713089168,35.775012046995585],[129.13363786060856,35.77329617321874],[129.1346475158468,35.77007681415877],[129.13632580567673,35.768156056869664],[129.13410775106308,35.76377303096019],[129.131266387633,35.76522088280039],[129.13075811132504,35.76590555208212],[129.12737885412443,35.766971023140556],[129.12686598030595,35.76777034831573],[129.12520853921163,35.767300109466206],[129.11947436783757,35.769284774873825],[129.11718273275702,35.77136350151815],[129.1165929918338,35.77114397012864],[129.1159985354177,35.7721686872557],[129.11533378949358,35.77210477000333],[129.1116663622631,35.774561106496],[129.10881332236988,35.779314444632725],[129.10910456721388,35.78312042618533],[129.10817350209683,35.78454367962503],[129.10502708730343,35.785568973469424],[129.10282226293774,35.78546364701332],[129.10040651845588,35.786943761902634],[129.09850015751732,35.787137400847456],[129.09681973365923,35.788144506373584],[129.09251060172963,35.788609255150924],[129.09150573539466,35.79007857886542],[129.0904451129154,35.79351206803864],[129.08887404380917,35.794546586220456],[129.08702692603538,35.79160695184203],[129.08397453886457,35.78873477775638],[129.08521123235462,35.78586821234912]],[[129.0645047379064,35.79431517451251],[129.06538227956926,35.79399473711701],[129.06313021509018,35.794890953831384],[129.0645047379064,35.79431517451251]],[[129.0591860886692,35.82180979121806],[129.05935617779613,35.821541198429614],[129.05874532649145,35.82194559590691],[129.0591860886692,35.82180979121806]]]},"properties":{"name":"서부생활권","dongs":"서면·산내면·건천읍","pop_2013":18865.0,"pop_2030_plan":23000.0,"pop_2026_actual":20886,"gap_pct":-9.2,"net_density_2013":51.4,"res_land_km2":1.77,"res_density":106.58,"park_plan_count":5.0,"park_plan_km2":0.384,"park_per_capita_plan":16.7,"unbuilt_park_count":2.0,"unbuilt_park_km2":0.06,"lbl":"서부생활권\n2030 23,000 / 실제 20,886","source":"2030 경주도시기본계획 인쇄쪽 140~142·167·350·355 (T1) · 실제 = 주민등록 2026.08 행정동 합(T2). 생활권 경계는 읍면동 전체로 근사(계획은 \"일부\" 포함)"}},{"type":"Feature","geometry":{"type":"Polygon","coordinates":[[[129.26340266361987,35.7382485895615],[129.26388408988586,35.73767427286034],[129.26802651401425,35.73793500609933],[129.26833735760417,35.73954341742948],[129.270673324311,35.74295767421259],[129.27576455288957,35.74289373952992],[129.27731854678447,35.74468035829789],[129.2810690639019,35.746009022891805],[129.2803596270307,35.7478139893995],[129.28408291373051,35.74979055798086],[129.28215913761008,35.75201165438582],[129.28148430440112,35.75563521102718],[129.28184295500174,35.75690873304165],[129.2812850882204,35.75749076000688],[129.28385435491273,35.759274220232506],[129.2846178809356,35.76071475902939],[129.2873187487383,35.76053559954543],[129.28808870943016,35.761064114540574],[129.28974560703472,35.76121054866976],[129.29120323065845,35.762034133819505],[129.2912384414239,35.76290098978036],[129.29294035169747,35.76177324912251],[129.29696138611618,35.76182732912379],[129.29899286280116,35.7623245041236],[129.29917211314074,35.763607861166754],[129.30016748802367,35.76400612098002],[129.3001225235179,35.765120740056354],[129.30089454602066,35.76700011989351],[129.30474933776992,35.76645596116963],[129.30956329677264,35.76731577696241],[129.3109998609596,35.768248199941695],[129.3124869625805,35.77024552884711],[129.3123682313805,35.770858403531456],[129.31328388881687,35.77160089666655],[129.31249026342346,35.77226926113748],[129.31351166639726,35.77369169471662],[129.3129299944386,35.774855492332165],[129.31314403993827,35.77537425189649],[129.31968594724995,35.77771089146181],[129.3301934277557,35.77755199374731],[129.33418660205209,35.77877752912821],[129.3382462175338,35.778361781661616],[129.33918771683474,35.77946778682559],[129.342028001754,35.780420949852626],[129.34317876773264,35.78018919008639],[129.347348572651,35.78139394839984],[129.34714869097573,35.781016112560174],[129.3485310817145,35.78158498774463],[129.34922599153376,35.78129967942661],[129.3494787322012,35.78057902472927],[129.34871968516944,35.77887906952123],[129.34951227099518,35.7782046211776],[129.35112755296876,35.778515754271496],[129.35136095933441,35.778017707914174],[129.34993653436,35.77642370765265],[129.35090565957952,35.77583188830208],[129.3503445916339,35.77502592758289],[129.35228916494827,35.77488629935314],[129.35235410727205,35.773645421073006],[129.35375322160255,35.77348813548275],[129.35395202960075,35.77461987464635],[129.35442801784575,35.77435742958334],[129.35354089224666,35.77234594470373],[129.35186222241308,35.77148212449621],[129.35300513697973,35.76935870657076],[129.3535401162686,35.76917634046098],[129.35336913616158,35.76762936252732],[129.35235673402548,35.76680347789351],[129.35246921198012,35.765953470257614],[129.35335779398915,35.76589526638544],[129.35451588078936,35.764829946938406],[129.35437956243067,35.76355683228131],[129.3552667787314,35.76080388087164],[129.3550299948116,35.75920469746949],[129.35401222524004,35.75740722908528],[129.354523886661,35.75685828528059],[129.35415135696093,35.75614954570172],[129.3576674518723,35.75538508390896],[129.35887134421125,35.753315031989125],[129.36037389393576,35.75189827481187],[129.36063228830537,35.750728920283365],[129.36395782751285,35.75020029783563],[129.36477202959608,35.74884796972217],[129.368354002916,35.74617061139992],[129.3676464762368,35.743703914916615],[129.36807401162145,35.74071607523864],[129.36707283294675,35.739597392894304],[129.3645399383434,35.738978180642356],[129.3632935344763,35.73811347879509],[129.36421166545827,35.73622666114098],[129.36422178146432,35.73284128885609],[129.36524917852387,35.731451972286635],[129.36509754777273,35.730352889199146],[129.36888530027844,35.72966132634778],[129.3702134328647,35.730198878123026],[129.3720602656014,35.72882587989646],[129.37285589434174,35.72646246769463],[129.37364703333466,35.72604520781612],[129.3734418980106,35.724845124107695],[129.374609027116,35.72379818051464],[129.37385648983755,35.722652958694596],[129.37216486479323,35.722301541887965],[129.36964697898108,35.72095892444795],[129.36940949905332,35.719899970537384],[129.36852641715248,35.719648167917505],[129.3674954031972,35.717021136644846],[129.3660516836838,35.704538075811264],[129.36695796682696,35.70260248718858],[129.36785056994637,35.70227266759135],[129.36804383626935,35.701068255876905],[129.36709554061702,35.69883574290869],[129.3655338158351,35.69710254240607],[129.36630912567185,35.69553781900729],[129.36513065003734,35.69393419709587],[129.3646996230603,35.691738519590366],[129.36496972693652,35.690938062089316],[129.36419080566102,35.6896074427479],[129.36457703866532,35.68889452774339],[129.36373116076928,35.68683750291069],[129.36520001834984,35.68598280698687],[129.36465474192278,35.68413542489538],[129.36432737314553,35.67920336900782],[129.36315864294446,35.67863445200465],[129.35925154194115,35.6793657183235],[129.35355844702372,35.67938026553311],[129.3531364812302,35.67878397366291],[129.35140427104173,35.67848499444447],[129.34875115698543,35.67717832403373],[129.34639434548492,35.67397730803714],[129.34471858227639,35.673574496085095],[129.34295667799668,35.6714748802453],[129.3400575847502,35.66963696177714],[129.3357630796992,35.6691331073676],[129.33408847514676,35.669760542656924],[129.33309986171164,35.66798156833045],[129.333217914114,35.66723564628705],[129.3325451806417,35.66652784353538],[129.33285332038676,35.66516426038003],[129.33103046592694,35.66555659435032],[129.32982376733764,35.66440183412548],[129.33017138238353,35.66373045471876],[129.3286395440781,35.66268911136804],[129.32868583784136,35.66040914747921],[129.3294081124775,35.66059200735354],[129.33015991649205,35.65996250810791],[129.32906987135658,35.65817587886521],[129.32782041816841,35.65883639101585],[129.3256446921156,35.657715934083754],[129.3236454410199,35.65858896592247],[129.32223372602783,35.658127378518266],[129.32071405048393,35.656676288590134],[129.3193575825126,35.656357625348654],[129.31896251200587,35.656917683897184],[129.3191167995724,35.65792247003024],[129.31804757918906,35.658805381120565],[129.31612738912443,35.65928988298138],[129.31487716415262,35.65823013327312],[129.31262458983994,35.660253723242064],[129.31114221860545,35.660524474876155],[129.30915829396804,35.658989216536966],[129.30896313385202,35.65828635021692],[129.30774634279652,35.6576534472934],[129.30770427039369,35.65716234074048],[129.30569385997566,35.657569567302765],[129.30448910171057,35.657174339576926],[129.3037405239474,35.65376539359139],[129.30405485161893,35.65169993198192],[129.3025950122993,35.65171714584048],[129.30207483715947,35.65117857116156],[129.30334490026755,35.650042344849325],[129.30293665105515,35.647777546517275],[129.30169870299977,35.64808363012662],[129.29964935310286,35.647402487943644],[129.29836997332603,35.647647109695185],[129.296992378458,35.64646146847102],[129.29683735861298,35.6451191875255],[129.29625702855515,35.64474153150946],[129.29642034776904,35.64344471472281],[129.2938323738916,35.644780265577644],[129.2915441382193,35.64519872757591],[129.29086354801495,35.64615468326675],[129.29007691214196,35.64631999945463],[129.29015534801803,35.647871830547345],[129.28540687833097,35.65052803527376],[129.28376132379773,35.65085602079269],[129.28289827012046,35.651733163135866],[129.28065446303486,35.65011914936386],[129.2801516655567,35.65018624225081],[129.2781233806548,35.65114200070924],[129.27620790591226,35.65285345943842],[129.2749477107637,35.65308746913929],[129.26977703088454,35.65107949726995],[129.2654760127911,35.65359584330238],[129.2604445546255,35.654637594726374],[129.25817283283965,35.657388290450186],[129.25774372794044,35.6589241876924],[129.25550342649888,35.660455715540095],[129.25474477001578,35.66641180436866],[129.2554228775537,35.66669659449357],[129.25653626404338,35.66892443047782],[129.25910430441255,35.671106963013706],[129.25971962295475,35.672284242536136],[129.2610314435779,35.67906974098973],[129.25951193299738,35.68006195704074],[129.25864259079896,35.68311157333906],[129.2621858106254,35.68592911998184],[129.26181153453507,35.687722065962134],[129.26259279353587,35.69112714791205],[129.26187904946178,35.69340318014532],[129.2600810316777,35.694968870007195],[129.25911750269302,35.698134570183015],[129.25685015240222,35.70070340078845],[129.25095108076633,35.70197281902806],[129.246920923708,35.70174498036656],[129.24214983585577,35.70314045375953],[129.24136756063822,35.703867835790945],[129.23400734069673,35.70387469098322],[129.2334624834988,35.70524497099433],[129.23370585834613,35.70614840403469],[129.2329824519167,35.70762884555048],[129.2308802135703,35.70876556019464],[129.22832933177952,35.70929036494837],[129.2264633328174,35.7086336059144],[129.2243658626818,35.70956104010489],[129.22048737301176,35.71390561209507],[129.21800636852072,35.71317250214434],[129.21579546044742,35.71496169461192],[129.2132250343075,35.7160268856068],[129.21142943966458,35.71739569798075],[129.21153880651931,35.71785492013462],[129.2093898759695,35.71862155823127],[129.2095484079752,35.720137209766044],[129.2086529719263,35.720672035443734],[129.20893909481086,35.72108028596832],[129.20863008798958,35.721169160648934],[129.20546594536586,35.721174241273374],[129.20221180304384,35.71922657315713],[129.20108077134705,35.71795030130545],[129.20082863605617,35.71598779016725],[129.19809430939395,35.71445019761005],[129.19764542342463,35.71579435401863],[129.1934396769432,35.71696782062775],[129.19350156527048,35.71776468759065],[129.19273211231157,35.71841409691239],[129.18664899054002,35.71951817541225],[129.18623487631203,35.72128416410954],[129.1812925118452,35.723788958979505],[129.18096966554128,35.72149582843348],[129.1787984140819,35.719338821772695],[129.17843151126505,35.71721261761704],[129.17645698726542,35.71565541530264],[129.17517155428712,35.715579957429775],[129.17468770221518,35.71488896592213],[129.1734917183116,35.71472500977698],[129.17238683769855,35.713858813709386],[129.1681252470491,35.71554333425055],[129.16410623166414,35.714827500617744],[129.1618793473997,35.71512614202626],[129.16031468031392,35.714810140903175],[129.15892011755727,35.71729380156705],[129.15759859298475,35.71800680561193],[129.15687881657533,35.71937060164358],[129.15404824072868,35.72196764524734],[129.1528685643662,35.72196311465103],[129.14872445212208,35.72347619784515],[129.14721418352616,35.72466510720506],[129.1445323115363,35.72482710197302],[129.14130910383597,35.724103359033535],[129.14049098744715,35.722564136517356],[129.138398777534,35.72178838805725],[129.13753440282764,35.72069936370366],[129.1395146571218,35.71824298609034],[129.13656922026163,35.715482411349214],[129.1358106814681,35.71363261788762],[129.13677799711104,35.71286461568722],[129.13416319584297,35.7121091793471],[129.13240439061744,35.71267845583979],[129.1301544317861,35.71267028360236],[129.12706975181024,35.7140840315922],[129.12620508927566,35.71357273849029],[129.12421184546602,35.708275266054066],[129.12276371341306,35.70778705503015],[129.12299507968004,35.70733313931547],[129.12126476246308,35.70768646918236],[129.11750014696705,35.706665122352184],[129.115697557502,35.70847854777298],[129.1127459558705,35.70838366900674],[129.11107189517668,35.70711506928006],[129.11036699293507,35.70740633335424],[129.10761847639765,35.70644710412666],[129.10320704355047,35.706409500336676],[129.1017587584855,35.70606717778565],[129.09985814244678,35.704734078865684],[129.0957104433467,35.704019020354245],[129.09368901421877,35.70297120696364],[129.09029082743214,35.702675315007134],[129.09097990829085,35.70501628453657],[129.089256950078,35.70750911252247],[129.0900489233816,35.71131847072747],[129.08782259558936,35.71453368063815],[129.08682185412107,35.71868797413512],[129.08749511652576,35.719983855344644],[129.08715954838206,35.72096608297217],[129.08863725219373,35.72224236496853],[129.08895360907246,35.725737701658744],[129.09072948435565,35.727847918588985],[129.08982726197644,35.73220367837352],[129.09185825131593,35.733814692403485],[129.0908906779286,35.734242481384165],[129.090523216111,35.73672737894685],[129.08930376699328,35.73710011145211],[129.08746854984096,35.73877178384043],[129.08751635615369,35.73992855364149],[129.08645479998432,35.74137797833812],[129.0838950831197,35.7421064419941],[129.08492258056154,35.74344322303097],[129.08635126238065,35.743473650716844],[129.0883782241163,35.74541100872249],[129.0877861213371,35.746982396664166],[129.09020305075524,35.751768929619665],[129.09070375741211,35.75704644087138],[129.09196443735289,35.75999398639679],[129.0898453274022,35.764791287327654],[129.08968808157843,35.766784970752255],[129.0908520148851,35.767746354253546],[129.09165123129492,35.769768597665205],[129.08466315044532,35.77961963618361],[129.08480997211922,35.78041228410884],[129.08396052933412,35.782145517544876],[129.0840146968268,35.78385055807099],[129.08521123235462,35.78586821234912],[129.08397453886457,35.78873477775638],[129.08702692603538,35.79160695184203],[129.08887404380917,35.794546586220456],[129.0904451129154,35.79351206803864],[129.09150573539466,35.79007857886542],[129.09251060172963,35.788609255150924],[129.09681973365923,35.788144506373584],[129.09850015751732,35.787137400847456],[129.10040651845588,35.786943761902634],[129.10282226293774,35.78546364701332],[129.10502708730343,35.785568973469424],[129.10817350209683,35.78454367962503],[129.10910456721388,35.78312042618533],[129.10881332236988,35.779314444632725],[129.1116663622631,35.774561106496],[129.11533378949358,35.77210477000333],[129.1159985354177,35.7721686872557],[129.1165929918338,35.77114397012864],[129.11718273275702,35.77136350151815],[129.11947436783757,35.769284774873825],[129.12520853921163,35.767300109466206],[129.12686598030595,35.76777034831573],[129.12737885412443,35.766971023140556],[129.13075811132504,35.76590555208212],[129.131266387633,35.76522088280039],[129.13410775106308,35.76377303096019],[129.13632580567673,35.768156056869664],[129.1346475158468,35.77007681415877],[129.13363786060856,35.77329617321874],[129.13890713089168,35.775012046995585],[129.14561753064012,35.774682639447164],[129.14694529296085,35.77665817419289],[129.1471154377182,35.77829633502008],[129.14825829063994,35.78099896257798],[129.15025644075516,35.78280100192337],[129.1504317635999,35.783922078883585],[129.15535486129303,35.78624260879855],[129.15658881271767,35.78859280633103],[129.15900884081063,35.79050425940114],[129.15845859209853,35.79325080851083],[129.16188488030397,35.797165318351134],[129.16353692679755,35.79752010931225],[129.163848061961,35.79905235967306],[129.1666398278219,35.799627903530464],[129.17045482159958,35.79913858196692],[129.17135849056396,35.79947537027149],[129.17297179940954,35.79732495017832],[129.17232519728637,35.79514299663391],[129.17275983832923,35.794185377144586],[129.1736378627225,35.793911862045995],[129.17504556065768,35.79199688100474],[129.17609452171007,35.7915549712355],[129.1785938085728,35.789182194686276],[129.1814646562523,35.78863880769717],[129.18168098189327,35.79018117766667],[129.18393498088727,35.79008099245536],[129.18660218344343,35.79064511431316],[129.18677757185836,35.79390654351942],[129.1915570210542,35.79444704796259],[129.19169479958651,35.79523548488081],[129.19358482233733,35.796311429819774],[129.19430055616692,35.798409358038036],[129.1983980172363,35.799475907141236],[129.19851902686818,35.79903823864794],[129.19673011417404,35.79808695083715],[129.19646140413016,35.797051571675915],[129.19730808551347,35.795327630879584],[129.19678993823428,35.789899131886834],[129.19814458268826,35.787159404373476],[129.1997299191241,35.787114649257795],[129.2010510016175,35.787676030213206],[129.20336761534497,35.79087527228847],[129.20422042271002,35.790833181652886],[129.20333651257138,35.790762649182355],[129.20436266659257,35.790189560393166],[129.2051713338348,35.790651728482814],[129.20752634628587,35.79049322238354],[129.21364788118646,35.788810219963615],[129.21803390171573,35.789102078592734],[129.22279256402794,35.78813022169937],[129.22223950892342,35.78575450214986],[129.22337984348636,35.782264125241184],[129.2311629011491,35.77499162249703],[129.23152652249422,35.77429121605503],[129.23074204015865,35.772528875145824],[129.23092678745599,35.77173323237818],[129.23489565284143,35.7672478242142],[129.23670261554815,35.767804284639816],[129.23873171594047,35.76778005693812],[129.23979185218707,35.76845117611555],[129.23979279173767,35.769088645182485],[129.24186964984128,35.770198930218875],[129.2427478506646,35.769629828103184],[129.24583589800346,35.77046355086233],[129.24718151406796,35.771773513443584],[129.25000060468147,35.77225383410235],[129.25086456558884,35.77287346468141],[129.25161332560745,35.77441882347526],[129.25296004794083,35.77478189949451],[129.25483725443212,35.77366716582656],[129.2555868302581,35.772925668017585],[129.25596658727952,35.77055302755589],[129.25650731358616,35.76961129976661],[129.25700263694554,35.769570187448764],[129.25756859998825,35.76711324661065],[129.25670077396714,35.76601420991364],[129.25729012692338,35.76578014416768],[129.25755856672436,35.76405538814975],[129.25711095719578,35.76304490863724],[129.2563103357982,35.76270879662114],[129.25647586613653,35.76192755669334],[129.25605635948816,35.76129949076043],[129.25668776265186,35.76086739470713],[129.25636879149388,35.75951731369128],[129.25748134039898,35.75889964144104],[129.2580127432531,35.75697088060409],[129.2575593187999,35.754811114750325],[129.2585241437085,35.75400458985078],[129.2594306360183,35.753958289327734],[129.25878648572572,35.75288547159824],[129.25914244705112,35.750923110476506],[129.260310008332,35.750252434523695],[129.26070485975953,35.74916643613434],[129.2606166888202,35.74840586950346],[129.25964609840875,35.74761189704771],[129.25945739285015,35.74546842024477],[129.2583462422239,35.74261805276954],[129.25938070648505,35.74155567316396],[129.25920556080897,35.740539376743214],[129.2596711597819,35.739538082581554],[129.26166594239348,35.73914427667643],[129.26273593488574,35.73813258625424],[129.26340266361987,35.7382485895615]],[[129.26419933063912,35.73274175173806],[129.26304057434837,35.73392138346235],[129.2641993291661,35.73274174419489],[129.26419933063912,35.73274175173806]]]},"properties":{"name":"남부생활권","dongs":"외동읍·내남면","pop_2013":17977.0,"pop_2030_plan":31000.0,"pop_2026_actual":25739,"gap_pct":-17.0,"net_density_2013":17.49,"res_land_km2":1.51,"res_density":119.05,"park_plan_count":9.0,"park_plan_km2":1.501,"park_per_capita_plan":48.42,"unbuilt_park_count":7.0,"unbuilt_park_km2":0.556,"lbl":"남부생활권\n2030 31,000 / 실제 25,739","source":"2030 경주도시기본계획 인쇄쪽 140~142·167·350·355 (T1) · 실제 = 주민등록 2026.08 행정동 합(T2). 생활권 경계는 읍면동 전체로 근사(계획은 \"일부\" 포함)"}}]}