{"type":"FeatureCollection","features":[{"type":"Feature","geometry":{"type":"Polygon","coordinates":[[[129.11104781788745,35.794600602265504],[129.1109388260294,35.792833915951434],[129.1106178260008,35.791084439367346],[129.11008792268325,35.78936901924746],[129.10935423173996,35.787704173320364],[129.10842382987292,35.786105931338454],[129.10730568625385,35.78458968084213],[129.1060105758051,35.78317001913866],[129.10455097517902,35.78186061291481],[129.10294094244665,35.780674066827736],[129.10119598166088,35.779621802331924],[129.0993328935998,35.77871394790036],[129.09736961412568,35.777959241689445],[129.09532504171017,35.777364947576665],[129.09321885577657,35.77693678537262],[129.0910713275959,35.77667887587271],[129.08890312554124,35.776593701273036],[129.08673511655797,35.776682081327216],[129.08458816574202,35.776943165471884],[129.0824829359353,35.77737444099565],[129.08043968924815,35.77797175717373],[129.0784780924002,35.77872936513849],[129.07661702773612,35.77963997310557],[129.07487441172051,35.78069481642919],[129.07326702264623,35.78188374181856],[129.07181033920645,35.7831953049112],[129.0705183914782,35.78461688027221],[129.06940362575142,35.786134782767604],[129.06847678450632,35.78773439915181],[129.0677468027017,35.78940032860963],[129.06722072138243,35.79111653090659],[129.0669036194514,35.79286648072772],[129.06679856427874,35.79463332672295],[129.06690658164285,35.79640005373238],[129.06722664531216,35.79814964663052],[129.06775568638875,35.7998652542133],[129.06848862234483,35.80153035154803],[129.06941840549214,35.80312889922087],[129.07053609043604,35.80464549794387],[129.0718309198808,35.806065537027656],[129.07329042797295,35.80737533528293],[129.07490056019742,35.808562272986954],[129.076645808678,35.80961491363566],[129.07850936158056,35.81052311430072],[129.0804732651793,35.81127812352014],[129.08251859701784,35.811872665771986],[129.08462564848858,35.812301011709856],[129.0867741150585,35.812559033477484],[129.08894329229267,35.812644244564446],[129.09111227577012,35.812555823814904],[129.09326016294557,35.81229462335614],[129.09536625499342,35.81186316036943],[129.09741025666787,35.81126559278363],[129.0993724722355,35.81050767912786],[129.10123399557457,35.80959672293403],[129.10297689259394,35.808541502230064],[129.1045843742019,35.807352184809275],[129.1060409581493,35.806040230099676],[129.10733261818254,35.80461827858582],[129.1084469190677,35.803100029857],[129.1093731361881,35.80150011046436],[129.11010235856978,35.79983393286756],[129.110627574352,35.79811754683683],[129.11094373789402,35.79636748474803],[129.11104781788745,35.794600602265504]]]},"properties":{"axis":"녹지경관축","sub":"단석산 녹지경관축","new":false,"lbl":"단석산 녹지축","peak":[129.0889232,35.794619],"note":"정상점 기준 반경 2km 개략 — 경관계획 위치도는 능선을 따르는 개념 화살표","source":"2030 경주시 경관계획 재정비 (2025.04) §4.3 경관축 (T1) — 선형은 OSM (T4) · 정상점 OSM natural=peak"}},{"type":"Feature","geometry":{"type":"Polygon","coordinates":[[[129.3673396994334,35.80170663282865],[129.36722502466648,35.799940208816636],[129.36689838195733,35.798191446190984],[129.36636293049122,35.796477184725866],[129.36562383929808,35.794813930913584],[129.36468823699823,35.79321769910521],[129.36356514273663,35.791703857425674],[129.362265378987,35.79028697994189],[129.36080146707772,35.7889807065007],[129.35918750645604,35.78779761157934],[129.3574390388578,35.786749083403336],[129.35557289869374,35.78584521448742],[129.35360705108982,35.785094704645815],[129.35156041913558,35.784504777397586],[129.34945270199387,35.784081110565154],[129.34730418561014,35.78382778172796],[129.34513554782856,35.78374722905143],[129.3429676597726,35.7838402278647],[129.3408213853838,35.7841058832106],[129.33871738102795,35.78454163843875],[129.3366758970783,35.78514329976017],[129.33471658336728,35.785905076529566],[129.33285830036118,35.786819636871094],[129.3311189378616,35.7878781781177],[129.32951524296587,35.78907051139199],[129.32806265893402,35.79038515952134],[129.3267751765084,35.79180946735266],[129.3256651991155,35.79332972341233],[129.3247434232512,35.79493129174823],[129.3240187352067,35.796598752691935],[129.32349812514036,35.79831605119284],[129.32318661933593,35.80006665130197],[129.32308723131592,35.80183369532302],[129.32320093229944,35.80360016610175],[129.32352664130838,35.8053490508929],[129.32406123503898,35.80706350522755],[129.3247995774237,35.80872701520154],[129.3257345686185,35.81032355661964],[129.3268572129628,35.81183774945878],[129.32815670527296,35.81325500615722],[129.32962053465187,35.81456167229509],[129.33123460482395,35.81574515830403],[129.33298336984336,35.81679406092928],[129.33484998386965,35.81769827326619],[129.3368164635666,35.81844908230307],[129.3388638615537,35.819039253022964],[129.34097244922995,35.819463098246935],[129.34312190719564,35.81971653354005],[129.34529152142218,35.819797116645866],[129.3474603832618,35.819704071065864],[129.34960759135103,35.819438293554406],[129.35171245344253,35.81900234545666],[129.3537546862006,35.81840042797346],[129.35571461101665,35.81763834159428],[129.35757334393992,35.81672343009308],[129.35931297787877,35.815664509631766],[129.36091675530457,35.814471783660785],[129.3623692297858,35.813156744443866],[129.36365641479006,35.81173206216335],[129.36476591832056,35.81021146268276],[129.36568706209178,35.80860959515166],[129.36641098410342,35.80694189073637],[129.36693072363542,35.805224413843995],[129.36724128785812,35.80347370727898],[129.3673396994334,35.80170663282865]]]},"properties":{"axis":"녹지경관축","sub":"토함산 녹지경관축","new":false,"lbl":"토함산 녹지축","peak":[129.3452135,35.8017722],"note":"정상점 기준 반경 2km 개략 — 경관계획 위치도는 능선을 따르는 개념 화살표","source":"2030 경주시 경관계획 재정비 (2025.04) §4.3 경관축 (T1) — 선형은 OSM (T4) · 정상점 OSM natural=peak"}},{"type":"Feature","geometry":{"type":"Polygon","coordinates":[[[129.24512262853932,35.78795693874231],[129.24501067974597,35.78619038211085],[129.244686770792,35.78444127143245],[129.2441540345467,35.78272644987403],[129.2434176139158,35.781062429359984],[129.24248461183765,35.779465231659074],[129.24136402246356,35.77795023422686],[129.24006664420068,35.77653202228268],[129.23860497546755,35.77522424853957],[129.2369930941763,35.774039501930105],[129.2352465221076,35.77298918658489],[129.23338207548588,35.77208341222037],[129.23141770319265,35.77133089698379],[129.2293723141686,35.77073888368273],[129.2272655956572,35.77031307019868],[129.2251178240271,35.770057554748874],[129.22294966997873,35.7699747965177],[129.22078199999265,35.77006559203364],[129.21863567591237,35.77032906751657],[129.21653135457075,35.770762687268665],[129.21448928936917,35.77136227802862],[129.2125291357008,35.772122069057836],[129.21066976207345,35.77303474757568],[129.20892906873522,35.77409152901614],[129.2073238155365,35.77528224143509],[129.20586946067672,35.77659542326295],[129.20458001188246,35.77801843346947],[129.20346789144858,35.7795375730875],[129.20254381644435,35.78113821693434],[129.20181669524365,35.78280495426942],[129.20129354138652,35.784521737041594],[129.20097940561428,35.786272034304304],[129.20087732674864,35.78803899131713],[129.2009883019072,35.78980559180516],[129.20131127636085,35.791554821815865],[129.20184315315262,35.79326983359649],[129.20257882240512,35.79493410791248],[129.20351121005498,35.79653161324162],[129.20463134556312,35.79804696030639],[129.20592844796414,35.79946555045124],[129.20739002944072,35.80077371642913],[129.209002015434,35.80195885423408],[129.21074888013973,35.803009544702114],[129.2126137960875,35.803915663701005],[129.21457879635997,35.804668479839364],[129.21662494788356,35.80526073874619],[129.2187325341123,35.80568673310142],[129.22088124533164,35.80594235773709],[129.22305037473333,35.80602514927285],[129.22521901835447,35.80593430990032],[129.22736627693527,35.80567071508503],[129.22947145773054,35.80523690511068],[129.2315142743106,35.804637060548686],[129.23347504240718,35.80387696189118],[129.23533486990036,35.8029639337407],[129.23707583910027,35.80190677409953],[129.23868117955524,35.80071566944581],[129.24013542971272,35.79940209642244],[129.2414245858698,35.797978711093165],[129.2425362369774,35.796459226840845],[129.2434596840024,35.794858282092285],[129.24418604270363,35.79319129915152],[129.24470832884356,35.79147433550823],[129.2450215250268,35.78972392905971],[129.24512262853932,35.78795693874231]]]},"properties":{"axis":"녹지경관축","sub":"남산 (금오봉) 녹지경관축","new":false,"lbl":"남산 (금오봉) 녹지축","peak":[129.223,35.788],"note":"정상점 기준 반경 2km 개략 — 경관계획 위치도는 능선을 따르는 개념 화살표","source":"2030 경주시 경관계획 재정비 (2025.04) §4.3 경관축 (T1) — 선형은 OSM (T4) · 정상점 OSM natural=peak"}},{"type":"Feature","geometry":{"type":"Polygon","coordinates":[[[129.25417323596633,35.86007739799533],[129.25406097563183,35.85831087223471],[129.253736565532,35.856561808940526],[129.25320314340885,35.85484705081592],[129.25246585881504,35.8531831091645],[129.25153182304464,35.851586004983545],[129.2504100402315,35.85007111481423],[129.249111320295,35.84865302282818],[129.24764817458396,35.84734538056778],[129.2460346952342,35.846160775684076],[129.24428641940597,35.84511061092806],[129.24242017971218,35.844204994552435],[129.24045394227414,35.843452643171126],[129.23840663395882,35.84286079800404],[129.23629796045137,35.842435155306376],[129.23414821690136,35.84217981164624],[129.23197809295033,35.84209722455225],[129.2298084739997,35.842188188906405],[129.22766024061326,35.842451829307244],[129.2255540679652,35.842885608476024],[129.22351022724436,35.8434853516261],[129.22154839090788,35.844245286563236],[129.21968744364094,35.84515809913458],[129.21794530082784,35.84621500349786],[129.2163387362689,35.847405826540474],[129.2148832207931,35.84871910564281],[129.2135927733147,35.85014219885245],[129.2124798257662,35.85166140641648],[129.2115551032107,35.85326210250958],[129.21082752029452,35.85492887589773],[129.21030409504638,35.85664567818966],[129.20998988086797,35.85839597825518],[129.20988791738571,35.86016292132828],[129.20999920065645,35.8619294912666],[129.21032267303315,35.86367867440721],[129.21085523281002,35.86539362344136],[129.21159176357378,35.8670578197289],[129.21252518299977,35.868655232487036],[129.2136465106398,35.870170473316115],[129.21494495406654,35.87158894456889],[129.2164080125573,35.87289698012797],[129.2180215973282,35.87408197722806],[129.2197701671676,35.875132518045504],[129.22163687816402,35.87603847987577],[129.22360374608422,35.87679113282929],[129.2256518198321,35.87738322409693],[129.2277613643075,35.877809047965954],[129.22991205088994,35.87806450090595],[129.23208315369766,35.878147121188725],[129.23425374971228,35.878056112656864],[129.23640292082203,35.87779235240955],[129.23850995581654,35.87735838233117],[129.24055455036745,35.87675838454488],[129.24251700304836,35.8759981410305],[129.24437840548828,35.87508497779932],[129.24612082481087,35.874027694169264],[129.2477274765898,35.87283647782796],[129.2491828866442,35.87152280650926],[129.25047304011125,35.870099337238216],[129.25158551635698,35.86857978421963],[129.25250960843027,35.86697878655439],[129.2532364259139,35.865311767065776],[129.25375898019428,35.86359478360255],[129.25407225134052,35.8618443742572],[129.25417323596633,35.86007739799533]]]},"properties":{"axis":"녹지경관축","sub":"소금강산 녹지경관축","new":true,"lbl":"소금강산 녹지축","peak":[129.2320306,35.8601222],"note":"정상점 기준 반경 2km 개략 — 경관계획 위치도는 능선을 따르는 개념 화살표","source":"2030 경주시 경관계획 재정비 (2025.04) §4.3 경관축 (T1) — 선형은 OSM (T4) · 정상점 OSM natural=peak"}},{"type":"Feature","geometry":{"type":"Polygon","coordinates":[[[129.20313600772485,35.83596462362773],[129.20302491575285,35.83419803907112],[129.20270172643524,35.832448826774495],[129.20216956574976,35.8307338308942],[129.20143357109978,35.82906956504127],[129.20050084136219,35.82747205335191],[129.1993803681049,35.825956676306795],[129.1980829486534,35.824538022778974],[129.19662108185514,35.823229749728604],[129.1950088475565,35.822044450888235],[129.1932617709578,35.82099353569525],[129.1913966731553,35.82008711962911],[129.18943150930673,35.81933392700133],[129.18738519597267,35.81874120712619],[129.1852774292874,35.81831466467243],[129.18312849569554,35.81805840486022],[129.18095907706262,35.81797489402588],[129.17879005201692,35.8180649359307],[129.1766422954162,35.81832766403892],[129.17453647785038,35.81876054983954],[129.1724928670897,35.81935942713182],[129.17053113337107,35.82011853204349],[129.16867016037955,35.82103055840039],[129.16692786372943,35.822086727919306],[129.1653210186796,35.823276874554765],[129.1638650987331,35.82458954219467],[129.16257412666894,35.82601209477211],[129.16146053943908,35.82753083774104],[129.1605350682337,35.82913114975435],[129.15980663487596,35.83079762328417],[129.1592822655536,35.83251421283739],[129.1589670227318,35.83426438934571],[129.15886395591912,35.836031299248326],[129.15897407177854,35.837797926739256],[129.15929632389222,35.83954725761924],[129.15982762229854,35.84126244317486],[129.160562862731,35.842926962505935],[129.161494975297,35.84452478173528],[129.16261499214605,35.84604050856363],[129.16391213349226,35.84745954067596],[129.16537391117558,35.84876820656329],[129.16698624877432,35.849953897396624],[129.1687336171184,35.85100518867448],[129.17059918389992,35.85191195046466],[129.17256497593866,35.85266544516968],[129.17461205253292,35.853258411866584],[129.17672068821682,35.8536851364014],[129.1788705631506,35.8539415065567],[129.18104095929345,35.85402505175571],[129.183210960452,35.853934966916576],[129.1853596542569,35.85367212022496],[129.18746633410203,35.85323904474893],[129.18951069908022,35.85263991397842],[129.19147304997043,35.851880501526686],[129.19333447937004,35.850968125386494],[129.19507705412522,35.84991157728304],[129.1966839882897,35.848721037810584],[129.19813980493583,35.84740797817774],[129.19943048525445,35.84598504951546],[129.20054360350514,35.84446596082257],[129.20146844652032,35.8428653467321],[129.2021961166179,35.841198626380596],[129.2027196169418,35.83948185474639],[129.20303391842188,35.83773156789502],[129.20313600772485,35.83596462362773]]]},"properties":{"axis":"녹지경관축","sub":"선도산 녹지경관축","new":true,"lbl":"선도산 녹지축","peak":[129.181,35.836],"note":"정상점 기준 반경 2km 개략 — 경관계획 위치도는 능선을 따르는 개념 화살표","source":"2030 경주시 경관계획 재정비 (2025.04) §4.3 경관축 (T1) — 선형은 OSM (T4) · 정상점 OSM natural=peak"}}]}