{"type":"FeatureCollection","features":[{"type":"Feature","geometry":{"type":"Point","coordinates":[129.21036608806307,35.84405708391361]},"properties":{"name":"제1공영주차장","addr":"경주시 노동동 183","spaces":198,"area_m2":5590,"hours":"09:00~20:00","lbl":"제1공영주차장\n198면","source":"경주시시설관리공단 교통운영 시설안내 (gjfmc.or.kr, 2026-09-21 열람, T2) · 좌표 V-World 지오코딩. 노상주차장·민영 제외"}},{"type":"Feature","geometry":{"type":"Point","coordinates":[129.21673210744945,35.842163208439445]},"properties":{"name":"제2공영주차장","addr":"경주시 원효로 145-3","spaces":78,"area_m2":1944,"hours":"09:00~20:00","lbl":"제2공영주차장\n78면","source":"경주시시설관리공단 교통운영 시설안내 (gjfmc.or.kr, 2026-09-21 열람, T2) · 좌표 V-World 지오코딩. 노상주차장·민영 제외"}},{"type":"Feature","geometry":{"type":"Point","coordinates":[129.21568123094028,35.84544425430374]},"properties":{"name":"성동시장공영주차장","addr":"경주시 성동동 396-4","spaces":221,"area_m2":5902,"hours":"07:00~21:00 (첫째·셋째 일요일 휴무)","lbl":"성동시장공영주차장\n221면","source":"경주시시설관리공단 교통운영 시설안내 (gjfmc.or.kr, 2026-09-21 열람, T2) · 좌표 V-World 지오코딩. 노상주차장·민영 제외"}},{"type":"Feature","geometry":{"type":"Point","coordinates":[129.2143360583625,35.842423485881234]},"properties":{"name":"중심상가공영주차장","addr":"경주시 황오동 244","spaces":209,"area_m2":3515,"hours":"09:00~21:00","lbl":"중심상가공영주차장\n209면","source":"경주시시설관리공단 교통운영 시설안내 (gjfmc.or.kr, 2026-09-21 열람, T2) · 좌표 V-World 지오코딩. 노상주차장·민영 제외"}},{"type":"Feature","geometry":{"type":"Point","coordinates":[129.2253619109739,35.85633993893625]},"properties":{"name":"시청사공영주차장","addr":"경주시 양정로 260","spaces":null,"area_m2":null,"hours":"09:00~19:00 (주말 무료)","lbl":"시청사공영주차장","source":"경주시시설관리공단 교통운영 시설안내 (gjfmc.or.kr, 2026-09-21 열람, T2) · 좌표 V-World 지오코딩. 노상주차장·민영 제외"}},{"type":"Feature","geometry":{"type":"Point","coordinates":[129.1406697932058,35.8000765312758]},"properties":{"name":"경주역공영주차장 (신경주역)","addr":"경주시 건천읍 화천리 1354-1","spaces":566,"area_m2":28623,"hours":"07:00~24:00","lbl":"경주역공영주차장\n566면","source":"경주시시설관리공단 교통운영 시설안내 (gjfmc.or.kr, 2026-09-21 열람, T2) · 좌표 V-World 지오코딩. 노상주차장·민영 제외"}},{"type":"Feature","geometry":{"type":"Point","coordinates":[129.2034665328131,35.84240268896517]},"properties":{"name":"성건동 공영주차장","addr":"경주시 성건동 374-40","spaces":25,"area_m2":804,"hours":"09:00~18:00","lbl":"성건동 공영주차장\n25면","source":"경주시시설관리공단 교통운영 시설안내 (gjfmc.or.kr, 2026-09-21 열람, T2) · 좌표 V-World 지오코딩. 노상주차장·민영 제외"}},{"type":"Feature","geometry":{"type":"Point","coordinates":[129.20267198875095,35.83903437513668]},"properties":{"name":"터미널옆공영주차장","addr":"경주시 태종로685번길 9","spaces":15,"area_m2":1184,"hours":"24시간","lbl":"터미널옆공영주차장\n15면","source":"경주시시설관리공단 교통운영 시설안내 (gjfmc.or.kr, 2026-09-21 열람, T2) · 좌표 V-World 지오코딩. 노상주차장·민영 제외"}},{"type":"Feature","geometry":{"type":"Point","coordinates":[129.22505886068848,35.859250940403754]},"properties":{"name":"동천동 공영주차장 (보건소 뒤)","addr":"경주시 백률로 53번길 27","spaces":240,"area_m2":5438,"hours":"평일 09:00~20:00 (주말 휴무)","lbl":"동천동 공영주차장\n240면","source":"경주시시설관리공단 교통운영 시설안내 (gjfmc.or.kr, 2026-09-21 열람, T2) · 좌표 V-World 지오코딩. 노상주차장·민영 제외"}},{"type":"Feature","geometry":{"type":"Point","coordinates":[129.21221951324125,35.83285276759535]},"properties":{"name":"대릉원(황남지구)공영주차장","addr":"경주시 황남동 165-5","spaces":181,"area_m2":7348,"hours":"09:00~20:00","lbl":"대릉원(황남지구)공영주차장\n181면","source":"경주시시설관리공단 교통운영 시설안내 (gjfmc.or.kr, 2026-09-21 열람, T2) · 좌표 V-World 지오코딩. 노상주차장·민영 제외"}},{"type":"Feature","geometry":{"type":"Point","coordinates":[129.20674535383108,35.843962160953964]},"properties":{"name":"중앙시장 제1공영주차장","addr":"경주시 금성로 295","spaces":30,"area_m2":1198,"hours":"08:00~21:00","lbl":"중앙시장 제1공영주차장\n30면","source":"경주시시설관리공단 교통운영 시설안내 (gjfmc.or.kr, 2026-09-21 열람, T2) · 좌표 V-World 지오코딩. 노상주차장·민영 제외"}},{"type":"Feature","geometry":{"type":"Point","coordinates":[129.20485846076642,35.84399362823013]},"properties":{"name":"중앙시장 제2공영주차장","addr":"경주시 화랑로 38번길 9","spaces":63,"area_m2":2149,"hours":"08:00~21:00","lbl":"중앙시장 제2공영주차장\n63면","source":"경주시시설관리공단 교통운영 시설안내 (gjfmc.or.kr, 2026-09-21 열람, T2) · 좌표 V-World 지오코딩. 노상주차장·민영 제외"}},{"type":"Feature","geometry":{"type":"Point","coordinates":[129.21218113706811,35.840433125602765]},"properties":{"name":"봉황대공영주차장","addr":"경주시 노동동 12","spaces":95,"area_m2":3001,"hours":"09:00~21:00","lbl":"봉황대공영주차장\n95면","source":"경주시시설관리공단 교통운영 시설안내 (gjfmc.or.kr, 2026-09-21 열람, T2) · 좌표 V-World 지오코딩. 노상주차장·민영 제외"}},{"type":"Feature","geometry":{"type":"Point","coordinates":[129.20994563156796,35.837387896785145]},"properties":{"name":"포석로 공영주차장","addr":"경주시 포석로 1080","spaces":14,"area_m2":1072,"hours":"10:00~18:00","lbl":"포석로 공영주차장\n14면","source":"경주시시설관리공단 교통운영 시설안내 (gjfmc.or.kr, 2026-09-21 열람, T2) · 좌표 V-World 지오코딩. 노상주차장·민영 제외"}},{"type":"Feature","geometry":{"type":"Point","coordinates":[129.21099844176783,35.83516836832379]},"properties":{"name":"황남생활문화센터 공영주차장","addr":"경주시 첨성로 81번길 23","spaces":34,"area_m2":1419,"hours":"10:00~18:00","lbl":"황남생활문화센터 공영주차장\n34면","source":"경주시시설관리공단 교통운영 시설안내 (gjfmc.or.kr, 2026-09-21 열람, T2) · 좌표 V-World 지오코딩. 노상주차장·민영 제외"}},{"type":"Feature","geometry":{"type":"Point","coordinates":[129.21354636311708,35.830185727802025]},"properties":{"name":"숭문대공영주차장","addr":"경주시 놋전2길 24-43","spaces":69,"area_m2":2177,"hours":"09:00~20:00","lbl":"숭문대공영주차장\n69면","source":"경주시시설관리공단 교통운영 시설안내 (gjfmc.or.kr, 2026-09-21 열람, T2) · 좌표 V-World 지오코딩. 노상주차장·민영 제외"}},{"type":"Feature","geometry":{"type":"Point","coordinates":[129.21855479201554,35.837819432743665]},"properties":{"name":"쪽샘지구임시공영주차장","addr":"경주시 원화로 189-2","spaces":496,"area_m2":18370,"hours":"임시","lbl":"쪽샘지구임시공영주차장\n496면","source":"경주시시설관리공단 교통운영 시설안내 (gjfmc.or.kr, 2026-09-21 열람, T2) · 좌표 V-World 지오코딩. 노상주차장·민영 제외"}},{"type":"Feature","geometry":{"type":"Point","coordinates":[129.22988592502898,35.830184999177504]},"properties":{"name":"국립경주박물관공영주차장","addr":"경주시 구황동 619","spaces":264,"area_m2":14000,"hours":"09:00~18:00 (임시 무료)","lbl":"국립경주박물관공영주차장\n264면","source":"경주시시설관리공단 교통운영 시설안내 (gjfmc.or.kr, 2026-09-21 열람, T2) · 좌표 V-World 지오코딩. 노상주차장·민영 제외"}}]}