{"type":"FeatureCollection","features":[{"type":"Feature","geometry":{"type":"LineString","coordinates":[[129.203673502641,35.8388282090558],[129.20674378595027,35.843961867137544],[129.2057,35.8503],[129.214242363291,35.8589974318489],[129.2172,35.8515],[129.21793175706665,35.84442707332487],[129.216354826459,35.84534371000188],[129.217248009246,35.8408562467448],[129.215677947036,35.8351762005644],[129.207857365891,35.838863109853],[129.203673502641,35.8388282090558]]},"properties":{"name":"2030 기본계획 제1순환선(생활)","tier":"T1","note":"터미널→성건동→황성공원→경주역(성동시장)→중앙시장→대릉원→터미널 (정거장 순서는 개략)","stops":"고속버스터미널 → 중앙시장 → 성건동주민센터·흥무초 수변 → 황성공원 → 경주세무서·경주교 → 구경주역 → 성동시장 → 팔우정삼거리 → 대릉원 주차장 → 서라벌문화회관 → 고속버스터미널"}},{"type":"Feature","geometry":{"type":"LineString","coordinates":[[129.1803471762241,35.88474149744894],[129.1966953295423,35.85840061588908],[129.214242363291,35.8589974318489],[129.219191998787,35.8597818801442],[129.2247816627553,35.85621665939485],[129.2172,35.8515],[129.21793175706665,35.84442707332487],[129.216354826459,35.84534371000188],[129.217248009246,35.8408562467448],[129.207857365891,35.838863109853],[129.203673502641,35.8388282090558],[129.20674378595027,35.843961867137544],[129.1966953295423,35.85840061588908]]},"properties":{"name":"417쪽 연구 순환 셔틀(무인)","tier":"T2","note":"서경주역–황성공원–시청–(옛)경주역/성동시장–서라벌문화회관–터미널–동국대병원 (개략)","stops":"서경주역 → 동국대병원 → 황성공원 → 시립도서관 → 경주시청 → 경주세무서·경주교 → 구경주역 → 성동시장 → 팔우정삼거리 → 서라벌문화회관 → 고속버스터미널 → 중앙시장 → 동국대병원"}}]}