{"type":"FeatureCollection","features":[{"type":"Feature","geometry":{"type":"Point","coordinates":[129.21793175706665,35.84442707332487]},"properties":{"name":"구경주역","role":"복합환승센터","source":"2030 도시기본계획 §교통 — 복합환승센터 3개소","tier":"T1","lbl":"구경주역\n복합환승센터"}},{"type":"Feature","geometry":{"type":"Point","coordinates":[129.2024687469408,35.83980000855561]},"properties":{"name":"시외버스터미널","role":"복합환승센터","source":"2030 도시기본계획 — 복합환승센터 3개소","tier":"T1","lbl":"시외버스터미널\n복합환승센터"}},{"type":"Feature","geometry":{"type":"Point","coordinates":[129.1389994195668,35.798377252282435]},"properties":{"name":"신경주역(KTX)","role":"복합환승센터·종합터미널 계획입지","source":"2030 도시기본계획 — 종합터미널(교통센터) 적정입지 = 고속철도 역세권","tier":"T1","lbl":"신경주역(KTX)\n복합환승센터·종합터미널 계획입지"}},{"type":"Feature","geometry":{"type":"Point","coordinates":[129.203673502641,35.8388282090558]},"properties":{"name":"고속버스터미널","role":"통합 재개발(현 위치)","source":"417쪽 연구 목표 3a — 서천교 관문 재정의·터미널 통합","tier":"T2","lbl":"고속버스터미널\n통합 재개발(현 위치)"}},{"type":"Feature","geometry":{"type":"Point","coordinates":[129.21793175706665,35.84442707332487]},"properties":{"name":"구경주역","role":"교통거점 부활 + 복합문화상업","source":"417쪽 연구 목표 3b","tier":"T2","lbl":"구경주역\n교통거점 부활 + 복합문화상업"}},{"type":"Feature","geometry":{"type":"Point","coordinates":[129.2057,35.8503]},"properties":{"name":"성건동주민센터·흥무초 수변","role":"P+R 제안","source":"417쪽 연구 — 순환 대중교통 거점 4곳","tier":"T2","lbl":"성건동주민센터·흥무초 수변\nP+R 제안"}},{"type":"Feature","geometry":{"type":"Point","coordinates":[129.2172,35.8515]},"properties":{"name":"경주세무서·경주교","role":"P+R 제안","source":"417쪽 연구 — 순환 대중교통 거점 4곳","tier":"T2","lbl":"경주세무서·경주교\nP+R 제안"}},{"type":"Feature","geometry":{"type":"Point","coordinates":[129.203673502641,35.8388282090558]},"properties":{"name":"고속버스터미널","role":"P+R 제안","source":"417쪽 연구 — 순환 대중교통 거점 4곳","tier":"T2","lbl":"고속버스터미널\nP+R 제안"}},{"type":"Feature","geometry":{"type":"Point","coordinates":[129.217248009246,35.8408562467448]},"properties":{"name":"팔우정삼거리","role":"P+R 제안","source":"417쪽 연구 — 순환 대중교통 거점 4곳","tier":"T2","lbl":"팔우정삼거리\nP+R 제안"}},{"type":"Feature","geometry":{"type":"Point","coordinates":[129.1803471762241,35.88474149744894]},"properties":{"name":"서경주역","role":"원도심 관문(셔틀 기점)","source":"417쪽 연구 시나리오 B — 서경주역을 원도심 기능적 관문으로","tier":"T2","lbl":"서경주역\n원도심 관문(셔틀 기점)"}},{"type":"Feature","geometry":{"type":"Point","coordinates":[129.215677947036,35.8351762005644]},"properties":{"name":"대릉원 주차장","role":"미술관·인포센터 제안","source":"417쪽 연구 시나리오 B·C","tier":"T2","lbl":"대릉원 주차장\n미술관·인포센터 제안"}},{"type":"Feature","geometry":{"type":"Point","coordinates":[129.21793175706665,35.84442707332487]},"properties":{"name":"구경주역","role":"시청 본청 + 터미널 + 트램 기점(사용자안)","source":"2026-09-20 계획 방향 — 상위계획 2건과 터미널 입지 불일치","tier":"방향","lbl":"구경주역\n시청 본청 + 터미널 + 트램 기점(사용자안)"}}]}