{"type":"FeatureCollection","features":[{"type":"Feature","geometry":{"type":"LineString","coordinates":[[129.1821159,35.7623507],[129.1813691,35.763696]]},"properties":{"osm_id":128255593,"railway":"rail","name":"경부고속선","cls":"active","source":"OSM Overpass 2026-09-21 (T4) — 지형도면 1~10·13~15장 벡터화로 T1 치환 예정"}},{"type":"Feature","geometry":{"type":"LineString","coordinates":[[129.1411636,35.7969882],[129.1432572,35.7959701],[129.1442421,35.795438],[129.1450852,35.7949379],[129.1472457,35.7936798],[129.1475312,35.7935083]]},"properties":{"osm_id":128255596,"railway":"rail","name":"경부고속선","cls":"active","source":"OSM Overpass 2026-09-21 (T4) — 지형도면 1~10·13~15장 벡터화로 T1 치환 예정"}},{"type":"Feature","geometry":{"type":"LineString","coordinates":[[129.1878461,35.7450496],[129.1877496,35.7455982]]},"properties":{"osm_id":128255601,"railway":"rail","name":"경부고속선","cls":"active","source":"OSM Overpass 2026-09-21 (T4) — 지형도면 1~10·13~15장 벡터화로 T1 치환 예정"}},{"type":"Feature","geometry":{"type":"LineString","coordinates":[[129.0975617,35.8218137],[129.0865187,35.8281824],[129.0792116,35.832093]]},"properties":{"osm_id":128255603,"railway":"rail","name":"경부고속선","cls":"active","source":"OSM Overpass 2026-09-21 (T4) — 지형도면 1~10·13~15장 벡터화로 T1 치환 예정"}},{"type":"Feature","geometry":{"type":"LineString","coordinates":[[129.1005563,35.820228],[129.0982696,35.8214599],[129.0975617,35.8218137]]},"properties":{"osm_id":128255613,"railway":"rail","name":"경부고속선","cls":"active","source":"OSM Overpass 2026-09-21 (T4) — 지형도면 1~10·13~15장 벡터화로 T1 치환 예정"}},{"type":"Feature","geometry":{"type":"LineString","coordinates":[[129.1877496,35.7455982],[129.1873633,35.7477141],[129.1868913,35.7498735]]},"properties":{"osm_id":128255625,"railway":"rail","name":"경부고속선","cls":"active","source":"OSM Overpass 2026-09-21 (T4) — 지형도면 1~10·13~15장 벡터화로 T1 치환 예정"}},{"type":"Feature","geometry":{"type":"LineString","coordinates":[[129.1793636,35.766986],[129.1777224,35.7694402],[129.1759144,35.7718006],[129.1741186,35.7738872]]},"properties":{"osm_id":128255634,"railway":"rail","name":"경부고속선","cls":"active","source":"OSM Overpass 2026-09-21 (T4) — 지형도면 1~10·13~15장 벡터화로 T1 치환 예정"}},{"type":"Feature","geometry":{"type":"LineString","coordinates":[[129.182825,35.7609049],[129.1821159,35.7623507]]},"properties":{"osm_id":128255644,"railway":"rail","name":"경부고속선","cls":"active","source":"OSM Overpass 2026-09-21 (T4) — 지형도면 1~10·13~15장 벡터화로 T1 치환 예정"}},{"type":"Feature","geometry":{"type":"LineString","coordinates":[[129.1313095,35.8028736],[129.1332594,35.8015849],[129.1356846,35.800162],[129.1366326,35.7996058]]},"properties":{"osm_id":128255645,"railway":"rail","name":"경부고속선","cls":"active","source":"OSM Overpass 2026-09-21 (T4) — 지형도면 1~10·13~15장 벡터화로 T1 치환 예정"}},{"type":"Feature","geometry":{"type":"LineString","coordinates":[[129.1868913,35.7498735],[129.1863334,35.7519158]]},"properties":{"osm_id":128255647,"railway":"rail","name":"경부고속선","cls":"active","source":"OSM Overpass 2026-09-21 (T4) — 지형도면 1~10·13~15장 벡터화로 T1 치환 예정"}},{"type":"Feature","geometry":{"type":"LineString","coordinates":[[129.1706693,35.7774969],[129.1676223,35.7803518],[129.165337,35.782185]]},"properties":{"osm_id":128255658,"railway":"rail","name":"경부고속선","cls":"active","source":"OSM Overpass 2026-09-21 (T4) — 지형도면 1~10·13~15장 벡터화로 T1 치환 예정"}},{"type":"Feature","geometry":{"type":"LineString","coordinates":[[129.1863334,35.7519158],[129.1858613,35.7534521],[129.1851961,35.755385],[129.1845309,35.7570915],[129.1836833,35.7590853],[129.182825,35.7609049]]},"properties":{"osm_id":128255659,"railway":"rail","name":"경부고속선","cls":"active","source":"OSM Overpass 2026-09-21 (T4) — 지형도면 1~10·13~15장 벡터화로 T1 치환 예정"}},{"type":"Feature","geometry":{"type":"LineString","coordinates":[[129.165337,35.782185],[129.1617429,35.7848755],[129.1555652,35.7888599],[129.1475312,35.7935083]]},"properties":{"osm_id":128255662,"railway":"rail","name":"경부고속선","cls":"active","source":"OSM Overpass 2026-09-21 (T4) — 지형도면 1~10·13~15장 벡터화로 T1 치환 예정"}},{"type":"Feature","geometry":{"type":"LineString","coordinates":[[129.1813691,35.763696],[129.1793636,35.766986]]},"properties":{"osm_id":128255663,"railway":"rail","name":"경부고속선","cls":"active","source":"OSM Overpass 2026-09-21 (T4) — 지형도면 1~10·13~15장 벡터화로 T1 치환 예정"}},{"type":"Feature","geometry":{"type":"LineString","coordinates":[[129.1741186,35.7738872],[129.1731092,35.7749884],[129.1725205,35.7756151]]},"properties":{"osm_id":128255667,"railway":"rail","name":"경부고속선","cls":"active","source":"OSM Overpass 2026-09-21 (T4) — 지형도면 1~10·13~15장 벡터화로 T1 치환 예정"}},{"type":"Feature","geometry":{"type":"LineString","coordinates":[[129.1313095,35.8028736],[129.1305278,35.8033023],[129.1087102,35.815534]]},"properties":{"osm_id":128255673,"railway":"rail","name":"경부고속선","cls":"active","source":"OSM Overpass 2026-09-21 (T4) — 지형도면 1~10·13~15장 벡터화로 T1 치환 예정"}},{"type":"Feature","geometry":{"type":"LineString","coordinates":[[129.1087102,35.815534],[129.1039552,35.8182836]]},"properties":{"osm_id":128255683,"railway":"rail","name":"경부고속선","cls":"active","source":"OSM Overpass 2026-09-21 (T4) — 지형도면 1~10·13~15장 벡터화로 T1 치환 예정"}},{"type":"Feature","geometry":{"type":"LineString","coordinates":[[129.1411636,35.7969882],[129.1407267,35.7972196],[129.1395633,35.7979001],[129.1381099,35.7987398],[129.1369978,35.7993917],[129.1366326,35.7996058]]},"properties":{"osm_id":128255686,"railway":"rail","name":"경부고속선","cls":"active","source":"OSM Overpass 2026-09-21 (T4) — 지형도면 1~10·13~15장 벡터화로 T1 치환 예정"}},{"type":"Feature","geometry":{"type":"LineString","coordinates":[[129.1039552,35.8182836],[129.1005563,35.820228]]},"properties":{"osm_id":128255698,"railway":"rail","name":"경부고속선","cls":"active","source":"OSM Overpass 2026-09-21 (T4) — 지형도면 1~10·13~15장 벡터화로 T1 치환 예정"}},{"type":"Feature","geometry":{"type":"LineString","coordinates":[[129.1884351,35.738562],[129.1880494,35.7432649],[129.1878461,35.7450496]]},"properties":{"osm_id":128255701,"railway":"rail","name":"경부고속선","cls":"active","source":"OSM Overpass 2026-09-21 (T4) — 지형도면 1~10·13~15장 벡터화로 T1 치환 예정"}},{"type":"Feature","geometry":{"type":"LineString","coordinates":[[129.1725205,35.7756151],[129.1721845,35.7759728],[129.1720855,35.7760781],[129.1709631,35.7772025],[129.1706693,35.7774969]]},"properties":{"osm_id":128255720,"railway":"rail","name":"경부고속선","cls":"active","source":"OSM Overpass 2026-09-21 (T4) — 지형도면 1~10·13~15장 벡터화로 T1 치환 예정"}},{"type":"Feature","geometry":{"type":"LineString","coordinates":[[129.1315304,35.8029546],[129.1332682,35.8019392]]},"properties":{"osm_id":167600425,"railway":"rail","name":"동해선","cls":"active","source":"OSM Overpass 2026-09-21 (T4) — 지형도면 1~10·13~15장 벡터화로 T1 치환 예정"}},{"type":"Feature","geometry":{"type":"LineString","coordinates":[[129.1332682,35.8019392],[129.1346311,35.8011373],[129.1348678,35.8009979],[129.1348879,35.8009861],[129.135794,35.8004848],[129.1359813,35.8003841],[129.136551,35.8000664],[129.1368585,35.7998752]]},"properties":{"osm_id":167600426,"railway":"rail","name":"동해선","cls":"active","source":"OSM Overpass 2026-09-21 (T4) — 지형도면 1~10·13~15장 벡터화로 T1 치환 예정"}},{"type":"Feature","geometry":{"type":"LineString","coordinates":[[129.1477738,35.7937914],[129.1504753,35.792297],[129.1546249,35.7899637],[129.158054,35.7878516],[129.1603993,35.7863449],[129.1626372,35.784825],[129.1634421,35.7843082],[129.1643011,35.7838058],[129.1655312,35.7831884]]},"properties":{"osm_id":167600428,"railway":"rail","name":"동해선","cls":"active","source":"OSM Overpass 2026-09-21 (T4) — 지형도면 1~10·13~15장 벡터화로 T1 치환 예정"}},{"type":"Feature","geometry":{"type":"LineString","coordinates":[[129.1414454,35.7972818],[129.1422299,35.7968099],[129.1435829,35.7960396],[129.1445333,35.795502],[129.1459687,35.794686],[129.1477738,35.7937914]]},"properties":{"osm_id":167600561,"railway":"rail","name":"동해선","cls":"active","source":"OSM Overpass 2026-09-21 (T4) — 지형도면 1~10·13~15장 벡터화로 T1 치환 예정"}},{"type":"Feature","geometry":{"type":"LineString","coordinates":[[129.1472457,35.7936798],[129.1461623,35.7942251],[129.1450622,35.794898],[129.1436317,35.7957038],[129.1432638,35.7959008],[129.1427718,35.7961334],[129.1422398,35.7963745],[129.1414718,35.7967675],[129.1411258,35.7969546]]},"properties":{"osm_id":175745973,"railway":"rail","name":"","cls":"active","source":"OSM Overpass 2026-09-21 (T4) — 지형도면 1~10·13~15장 벡터화로 T1 치환 예정"}},{"type":"Feature","geometry":{"type":"LineString","coordinates":[[129.1366669,35.7996394],[129.1381344,35.7987657],[129.1396573,35.7978938],[129.1407781,35.7972526],[129.1412052,35.7970271]]},"properties":{"osm_id":175745974,"railway":"rail","name":"경부고속선","cls":"active","source":"OSM Overpass 2026-09-21 (T4) — 지형도면 1~10·13~15장 벡터화로 T1 치환 예정"}},{"type":"Feature","geometry":{"type":"LineString","coordinates":[[129.1744772,35.7740794],[129.1738284,35.7748985]]},"properties":{"osm_id":175745976,"railway":"rail","name":"동해선","cls":"active","source":"OSM Overpass 2026-09-21 (T4) — 지형도면 1~10·13~15장 벡터화로 T1 치환 예정"}},{"type":"Feature","geometry":{"type":"LineString","coordinates":[[129.1438518,35.795782],[129.1443305,35.7955227],[129.1458276,35.7946084],[129.1472833,35.793716]]},"properties":{"osm_id":175745980,"railway":"rail","name":"","cls":"active","source":"OSM Overpass 2026-09-21 (T4) — 지형도면 1~10·13~15장 벡터화로 T1 치환 예정"}},{"type":"Feature","geometry":{"type":"LineString","coordinates":[[129.2544103,35.9935484],[129.2528942,35.9923771],[129.252226,35.9918206],[129.2488133,35.9889227],[129.2384311,35.9802642],[129.2376772,35.9795552]]},"properties":{"osm_id":337515026,"railway":"rail","name":"동해선","cls":"active","source":"OSM Overpass 2026-09-21 (T4) — 지형도면 1~10·13~15장 벡터화로 T1 치환 예정"}},{"type":"Feature","geometry":{"type":"LineString","coordinates":[[129.2290266,35.9584914],[129.2295704,35.9599458]]},"properties":{"osm_id":341351222,"railway":"rail","name":"동해선","cls":"active","source":"OSM Overpass 2026-09-21 (T4) — 지형도면 1~10·13~15장 벡터화로 T1 치환 예정"}},{"type":"Feature","geometry":{"type":"LineString","coordinates":[[129.1005943,35.8202722],[129.1039936,35.8183276]]},"properties":{"osm_id":407197527,"railway":"rail","name":"경부고속선","cls":"active","source":"OSM Overpass 2026-09-21 (T4) — 지형도면 1~10·13~15장 벡터화로 T1 치환 예정"}},{"type":"Feature","geometry":{"type":"LineString","coordinates":[[129.1039936,35.8183276],[129.106661,35.8167851],[129.1087485,35.815578]]},"properties":{"osm_id":407197530,"railway":"rail","name":"경부고속선","cls":"active","source":"OSM Overpass 2026-09-21 (T4) — 지형도면 1~10·13~15장 벡터화로 T1 치환 예정"}},{"type":"Feature","geometry":{"type":"LineString","coordinates":[[129.1863819,35.7519251],[129.1869402,35.7498814]]},"properties":{"osm_id":407197540,"railway":"rail","name":"경부고속선","cls":"active","source":"OSM Overpass 2026-09-21 (T4) — 지형도면 1~10·13~15장 벡터화로 T1 치환 예정"}},{"type":"Feature","geometry":{"type":"LineString","coordinates":[[129.131287,35.8028339],[129.1305278,35.8033023]]},"properties":{"osm_id":407197546,"railway":"rail","name":"경부고속선","cls":"active","source":"OSM Overpass 2026-09-21 (T4) — 지형도면 1~10·13~15장 벡터화로 T1 치환 예정"}},{"type":"Feature","geometry":{"type":"LineString","coordinates":[[129.1814142,35.7637133],[129.1821618,35.7623665]]},"properties":{"osm_id":407197552,"railway":"rail","name":"경부고속선","cls":"active","source":"OSM Overpass 2026-09-21 (T4) — 지형도면 1~10·13~15장 벡터화로 T1 치환 예정"}},{"type":"Feature","geometry":{"type":"LineString","coordinates":[[129.1877989,35.745604],[129.1878956,35.7450543]]},"properties":{"osm_id":407197555,"railway":"rail","name":"경부고속선","cls":"active","source":"OSM Overpass 2026-09-21 (T4) — 지형도면 1~10·13~15장 벡터화로 T1 치환 예정"}},{"type":"Feature","geometry":{"type":"LineString","coordinates":[[129.1366954,35.7996707],[129.1370976,35.7994118]]},"properties":{"osm_id":407197580,"railway":"rail","name":"","cls":"active","source":"OSM Overpass 2026-09-21 (T4) — 지형도면 1~10·13~15장 벡터화로 T1 치환 예정"}},{"type":"Feature","geometry":{"type":"LineString","coordinates":[[129.1305554,35.8033411],[129.1313721,35.8029516]]},"properties":{"osm_id":407197589,"railway":"rail","name":"경부고속선","cls":"active","source":"OSM Overpass 2026-09-21 (T4) — 지형도면 1~10·13~15장 벡터화로 T1 치환 예정"}},{"type":"Feature","geometry":{"type":"LineString","coordinates":[[129.1406996,35.7971938],[129.137223,35.7991837],[129.1370319,35.7992931]]},"properties":{"osm_id":407197592,"railway":"rail","name":"","cls":"active","source":"OSM Overpass 2026-09-21 (T4) — 지형도면 1~10·13~15장 벡터화로 T1 치환 예정"}},{"type":"Feature","geometry":{"type":"LineString","coordinates":[[129.1707075,35.7775229],[129.1710018,35.7772279],[129.1721247,35.7761031],[129.1722454,35.77598],[129.1725948,35.7756027]]},"properties":{"osm_id":407197595,"railway":"rail","name":"경부고속선","cls":"active","source":"OSM Overpass 2026-09-21 (T4) — 지형도면 1~10·13~15장 벡터화로 T1 치환 예정"}},{"type":"Feature","geometry":{"type":"LineString","coordinates":[[129.1313491,35.8029064],[129.1333021,35.8016338],[129.1340627,35.8011468],[129.1366669,35.7996394]]},"properties":{"osm_id":407197600,"railway":"rail","name":"경부고속선","cls":"active","source":"OSM Overpass 2026-09-21 (T4) — 지형도면 1~10·13~15장 벡터화로 T1 치환 예정"}},{"type":"Feature","geometry":{"type":"LineString","coordinates":[[129.1821618,35.7623665],[129.1828714,35.7609196]]},"properties":{"osm_id":407197638,"railway":"rail","name":"경부고속선","cls":"active","source":"OSM Overpass 2026-09-21 (T4) — 지형도면 1~10·13~15장 벡터화로 T1 치환 예정"}},{"type":"Feature","geometry":{"type":"LineString","coordinates":[[129.0975766,35.8218656],[129.0983089,35.821496],[129.0994102,35.8208867],[129.1005943,35.8202722]]},"properties":{"osm_id":407197658,"railway":"rail","name":"경부고속선","cls":"active","source":"OSM Overpass 2026-09-21 (T4) — 지형도면 1~10·13~15장 벡터화로 T1 치환 예정"}},{"type":"Feature","geometry":{"type":"LineString","coordinates":[[129.179408,35.7670043],[129.1814142,35.7637133]]},"properties":{"osm_id":407197665,"railway":"rail","name":"경부고속선","cls":"active","source":"OSM Overpass 2026-09-21 (T4) — 지형도면 1~10·13~15장 벡터화로 T1 치환 예정"}},{"type":"Feature","geometry":{"type":"LineString","coordinates":[[129.1087485,35.815578],[129.1305554,35.8033411],[129.1313491,35.8029064]]},"properties":{"osm_id":407197668,"railway":"rail","name":"경부고속선","cls":"active","source":"OSM Overpass 2026-09-21 (T4) — 지형도면 1~10·13~15장 벡터화로 T1 치환 예정"}},{"type":"Feature","geometry":{"type":"LineString","coordinates":[[129.1869402,35.7498814],[129.1874125,35.7477206],[129.1877989,35.745604]]},"properties":{"osm_id":407197671,"railway":"rail","name":"경부고속선","cls":"active","source":"OSM Overpass 2026-09-21 (T4) — 지형도면 1~10·13~15장 벡터화로 T1 치환 예정"}},{"type":"Feature","geometry":{"type":"LineString","coordinates":[[129.1365905,35.7995647],[129.1336428,35.8012963],[129.132856,35.8017573],[129.1321221,35.8022688],[129.131287,35.8028339]]},"properties":{"osm_id":407197672,"railway":"rail","name":"","cls":"active","source":"OSM Overpass 2026-09-21 (T4) — 지형도면 1~10·13~15장 벡터화로 T1 치환 예정"}},{"type":"Feature","geometry":{"type":"LineString","coordinates":[[129.1878956,35.7450543],[129.1880991,35.7432681],[129.1884849,35.7385635]]},"properties":{"osm_id":407197673,"railway":"rail","name":"경부고속선","cls":"active","source":"OSM Overpass 2026-09-21 (T4) — 지형도면 1~10·13~15장 벡터화로 T1 치환 예정"}},{"type":"Feature","geometry":{"type":"LineString","coordinates":[[129.1653729,35.7822152],[129.1676592,35.780379],[129.1707075,35.7775229]]},"properties":{"osm_id":407197679,"railway":"rail","name":"경부고속선","cls":"active","source":"OSM Overpass 2026-09-21 (T4) — 지형도면 1~10·13~15장 벡터화로 T1 치환 예정"}},{"type":"Feature","geometry":{"type":"LineString","coordinates":[[129.0792373,35.8321329],[129.086556,35.828227],[129.0975766,35.8218656]]},"properties":{"osm_id":407197685,"railway":"rail","name":"경부고속선","cls":"active","source":"OSM Overpass 2026-09-21 (T4) — 지형도면 1~10·13~15장 벡터화로 T1 치환 예정"}},{"type":"Feature","geometry":{"type":"LineString","coordinates":[[129.1475684,35.7935526],[129.1555951,35.7888922],[129.161775,35.7849065],[129.1653729,35.7822152]]},"properties":{"osm_id":407197687,"railway":"rail","name":"경부고속선","cls":"active","source":"OSM Overpass 2026-09-21 (T4) — 지형도면 1~10·13~15장 벡터화로 T1 치환 예정"}},{"type":"Feature","geometry":{"type":"LineString","coordinates":[[129.1741623,35.7739142],[129.1759558,35.7718481],[129.1777818,35.7694473],[129.179408,35.7670043]]},"properties":{"osm_id":407197689,"railway":"rail","name":"경부고속선","cls":"active","source":"OSM Overpass 2026-09-21 (T4) — 지형도면 1~10·13~15장 벡터화로 T1 치환 예정"}},{"type":"Feature","geometry":{"type":"LineString","coordinates":[[129.1313721,35.8029516],[129.1319356,35.8025812],[129.1325559,35.8021797],[129.1333468,35.8016859],[129.1341029,35.8012268]]},"properties":{"osm_id":407197691,"railway":"rail","name":"경부고속선","cls":"active","source":"OSM Overpass 2026-09-21 (T4) — 지형도면 1~10·13~15장 벡터화로 T1 치환 예정"}},{"type":"Feature","geometry":{"type":"LineString","coordinates":[[129.1412052,35.7970271],[129.1432925,35.7960085],[129.1435247,35.7958858],[129.1441346,35.7955634],[129.1451067,35.7949784],[129.1472833,35.793716],[129.1475684,35.7935526]]},"properties":{"osm_id":407197694,"railway":"rail","name":"경부고속선","cls":"active","source":"OSM Overpass 2026-09-21 (T4) — 지형도면 1~10·13~15장 벡터화로 T1 치환 예정"}},{"type":"Feature","geometry":{"type":"LineString","coordinates":[[129.1828714,35.7609196],[129.1837301,35.7590991],[129.1845782,35.7571042],[129.1852439,35.7553965],[129.1859095,35.7534624],[129.1863819,35.7519251]]},"properties":{"osm_id":407197701,"railway":"rail","name":"경부고속선","cls":"active","source":"OSM Overpass 2026-09-21 (T4) — 지형도면 1~10·13~15장 벡터화로 T1 치환 예정"}},{"type":"Feature","geometry":{"type":"LineString","coordinates":[[129.1406397,35.7970095],[129.1363497,35.7994746]]},"properties":{"osm_id":407204545,"railway":"rail","name":"동해선","cls":"active","source":"OSM Overpass 2026-09-21 (T4) — 지형도면 1~10·13~15장 벡터화로 T1 치환 예정"}},{"type":"Feature","geometry":{"type":"LineString","coordinates":[[129.1376381,35.7994594],[129.1392772,35.7985282],[129.1408572,35.7976056]]},"properties":{"osm_id":407204547,"railway":"rail","name":"동해선","cls":"active","source":"OSM Overpass 2026-09-21 (T4) — 지형도면 1~10·13~15장 벡터화로 T1 치환 예정"}},{"type":"Feature","geometry":{"type":"LineString","coordinates":[[129.141082,35.7967808],[129.1406397,35.7970095]]},"properties":{"osm_id":407204548,"railway":"rail","name":"동해선","cls":"active","source":"OSM Overpass 2026-09-21 (T4) — 지형도면 1~10·13~15장 벡터화로 T1 치환 예정"}},{"type":"Feature","geometry":{"type":"LineString","coordinates":[[129.1408572,35.7976056],[129.1414454,35.7972818]]},"properties":{"osm_id":407204549,"railway":"rail","name":"동해선","cls":"active","source":"OSM Overpass 2026-09-21 (T4) — 지형도면 1~10·13~15장 벡터화로 T1 치환 예정"}},{"type":"Feature","geometry":{"type":"LineString","coordinates":[[129.1363497,35.7994746],[129.1362143,35.7995459],[129.1351894,35.8001748],[129.1341755,35.8007592],[129.1335749,35.8011235],[129.1312699,35.8024876]]},"properties":{"osm_id":407204551,"railway":"rail","name":"동해선","cls":"active","source":"OSM Overpass 2026-09-21 (T4) — 지형도면 1~10·13~15장 벡터화로 T1 치환 예정"}},{"type":"Feature","geometry":{"type":"LineString","coordinates":[[129.1473635,35.7933649],[129.1451381,35.79473],[129.1436955,35.795515],[129.1428796,35.7958989],[129.142261,35.7962024],[129.141082,35.7967808]]},"properties":{"osm_id":407204552,"railway":"rail","name":"동해선","cls":"active","source":"OSM Overpass 2026-09-21 (T4) — 지형도면 1~10·13~15장 벡터화로 T1 치환 예정"}},{"type":"Feature","geometry":{"type":"LineString","coordinates":[[129.1411258,35.7969546],[129.1406996,35.7971938]]},"properties":{"osm_id":407204559,"railway":"rail","name":"","cls":"active","source":"OSM Overpass 2026-09-21 (T4) — 지형도면 1~10·13~15장 벡터화로 T1 치환 예정"}},{"type":"Feature","geometry":{"type":"LineString","coordinates":[[129.1407968,35.797301],[129.1413043,35.797055]]},"properties":{"osm_id":407204560,"railway":"rail","name":"","cls":"active","source":"OSM Overpass 2026-09-21 (T4) — 지형도면 1~10·13~15장 벡터화로 T1 치환 예정"}},{"type":"Feature","geometry":{"type":"LineString","coordinates":[[129.1370319,35.7992931],[129.1365905,35.7995647]]},"properties":{"osm_id":407204561,"railway":"rail","name":"","cls":"active","source":"OSM Overpass 2026-09-21 (T4) — 지형도면 1~10·13~15장 벡터화로 T1 치환 예정"}},{"type":"Feature","geometry":{"type":"LineString","coordinates":[[129.1370976,35.7994118],[129.137261,35.799318],[129.1397174,35.7979075],[129.1403533,35.7975502],[129.1407968,35.797301]]},"properties":{"osm_id":407204563,"railway":"rail","name":"","cls":"active","source":"OSM Overpass 2026-09-21 (T4) — 지형도면 1~10·13~15장 벡터화로 T1 치환 예정"}},{"type":"Feature","geometry":{"type":"LineString","coordinates":[[129.1644364,35.7829632],[129.1632961,35.7833617],[129.1631076,35.7834539],[129.1622397,35.7838784],[129.1610643,35.7845841],[129.1579016,35.7867926],[129.1574713,35.7870931],[129.1534959,35.7895402],[129.1500795,35.7916455],[129.1473635,35.7933649]]},"properties":{"osm_id":483629188,"railway":"rail","name":"동해선","cls":"active","source":"OSM Overpass 2026-09-21 (T4) — 지형도면 1~10·13~15장 벡터화로 T1 치환 예정"}},{"type":"Feature","geometry":{"type":"LineString","coordinates":[[129.1655312,35.7831884],[129.166288,35.782583],[129.1665926,35.7823662],[129.1674936,35.7816954],[129.1676263,35.7815966]]},"properties":{"osm_id":483629189,"railway":"rail","name":"동해선","cls":"active","source":"OSM Overpass 2026-09-21 (T4) — 지형도면 1~10·13~15장 벡터화로 T1 치환 예정"}},{"type":"Feature","geometry":{"type":"LineString","coordinates":[[129.1745404,35.774103],[129.1761029,35.7721988],[129.1767749,35.7713593],[129.1773976,35.7705549],[129.1780805,35.7696224],[129.1787667,35.7685826],[129.1801383,35.7664305]]},"properties":{"osm_id":483629895,"railway":"rail","name":"동해선","cls":"active","source":"OSM Overpass 2026-09-21 (T4) — 지형도면 1~10·13~15장 벡터화로 T1 치환 예정"}},{"type":"Feature","geometry":{"type":"LineString","coordinates":[[129.2075039,35.7396669],[129.2062046,35.7402238]]},"properties":{"osm_id":483629896,"railway":"rail","name":"동해선","cls":"active","source":"OSM Overpass 2026-09-21 (T4) — 지형도면 1~10·13~15장 벡터화로 T1 치환 예정"}},{"type":"Feature","geometry":{"type":"LineString","coordinates":[[129.1193828,35.8081246],[129.1184177,35.8086076],[129.1171909,35.809366],[129.116434,35.8100167],[129.1159201,35.8107086],[129.115621,35.8114233],[129.1154038,35.8122505],[129.1153989,35.8129973],[129.1155688,35.8137818],[129.1158066,35.8143844],[129.1163994,35.8153279],[129.1177492,35.8170295]]},"properties":{"osm_id":483635713,"railway":"rail","name":"동해선","cls":"active","source":"OSM Overpass 2026-09-21 (T4) — 지형도면 1~10·13~15장 벡터화로 T1 치환 예정"}},{"type":"Feature","geometry":{"type":"LineString","coordinates":[[129.17688,35.8802284],[129.1362325,35.8392682],[129.1356065,35.8386371]]},"properties":{"osm_id":483635714,"railway":"rail","name":"동해선","cls":"active","source":"OSM Overpass 2026-09-21 (T4) — 지형도면 1~10·13~15장 벡터화로 T1 치환 예정"}},{"type":"Feature","geometry":{"type":"LineString","coordinates":[[129.1322745,35.8348816],[129.1336243,35.8365071]]},"properties":{"osm_id":483635715,"railway":"rail","name":"동해선","cls":"active","source":"OSM Overpass 2026-09-21 (T4) — 지형도면 1~10·13~15장 벡터화로 T1 치환 예정"}},{"type":"Feature","geometry":{"type":"LineString","coordinates":[[129.1202425,35.8200331],[129.1188362,35.8182747],[129.1183934,35.8176863],[129.1180993,35.8172702],[129.1179055,35.8169325]]},"properties":{"osm_id":483635716,"railway":"rail","name":"동해선","cls":"active","source":"OSM Overpass 2026-09-21 (T4) — 지형도면 1~10·13~15장 벡터화로 T1 치환 예정"}},{"type":"Feature","geometry":{"type":"LineString","coordinates":[[129.1201977,35.8200609],[129.1203705,35.8202743],[129.120521,35.8204601],[129.120675,35.8206488],[129.1208731,35.8208949]]},"properties":{"osm_id":483635717,"railway":"rail","name":"동해선","cls":"active","source":"OSM Overpass 2026-09-21 (T4) — 지형도면 1~10·13~15장 벡터화로 T1 치환 예정"}},{"type":"Feature","geometry":{"type":"LineString","coordinates":[[129.1208731,35.8208949],[129.1219591,35.8222175]]},"properties":{"osm_id":483635718,"railway":"rail","name":"동해선","cls":"active","source":"OSM Overpass 2026-09-21 (T4) — 지형도면 1~10·13~15장 벡터화로 T1 치환 예정"}},{"type":"Feature","geometry":{"type":"LineString","coordinates":[[129.1209231,35.8208699],[129.1207246,35.8206253],[129.1205729,35.8204352],[129.1204163,35.8202453],[129.1202425,35.8200331]]},"properties":{"osm_id":483635720,"railway":"rail","name":"동해선","cls":"active","source":"OSM Overpass 2026-09-21 (T4) — 지형도면 1~10·13~15장 벡터화로 T1 치환 예정"}},{"type":"Feature","geometry":{"type":"LineString","coordinates":[[129.1220098,35.8221946],[129.1219101,35.8220731],[129.1217339,35.8218583],[129.1209231,35.8208699]]},"properties":{"osm_id":483635721,"railway":"rail","name":"동해선","cls":"active","source":"OSM Overpass 2026-09-21 (T4) — 지형도면 1~10·13~15장 벡터화로 T1 치환 예정"}},{"type":"Feature","geometry":{"type":"LineString","coordinates":[[129.1219591,35.8222175],[129.1235656,35.8241723],[129.1239745,35.824673],[129.1246745,35.8255325],[129.1256446,35.8267448],[129.1271003,35.8285151],[129.1279061,35.8295469],[129.1282641,35.8299761],[129.1283406,35.8300746],[129.1295291,35.8315409],[129.1322745,35.8348816]]},"properties":{"osm_id":483635723,"railway":"rail","name":"동해선","cls":"active","source":"OSM Overpass 2026-09-21 (T4) — 지형도면 1~10·13~15장 벡터화로 T1 치환 예정"}},{"type":"Feature","geometry":{"type":"LineString","coordinates":[[129.1235656,35.8241723],[129.1237458,35.8244318],[129.1239295,35.8246962],[129.1255889,35.8267494],[129.125941,35.827163],[129.1265688,35.8279892],[129.1273373,35.8289316],[129.128895,35.8308545],[129.1293489,35.8314001],[129.1296145,35.8317516]]},"properties":{"osm_id":483635725,"railway":"rail","name":"중앙선","cls":"active","source":"OSM Overpass 2026-09-21 (T4) — 지형도면 1~10·13~15장 벡터화로 T1 치환 예정"}},{"type":"Feature","geometry":{"type":"LineString","coordinates":[[129.1279061,35.8295469],[129.1273373,35.8289316]]},"properties":{"osm_id":483635727,"railway":"rail","name":"","cls":"active","source":"OSM Overpass 2026-09-21 (T4) — 지형도면 1~10·13~15장 벡터화로 T1 치환 예정"}},{"type":"Feature","geometry":{"type":"LineString","coordinates":[[129.127755,35.8292806],[129.1282641,35.8299761]]},"properties":{"osm_id":483635728,"railway":"rail","name":"","cls":"active","source":"OSM Overpass 2026-09-21 (T4) — 지형도면 1~10·13~15장 벡터화로 T1 치환 예정"}},{"type":"Feature","geometry":{"type":"LineString","coordinates":[[129.1239295,35.8246962],[129.1235229,35.8241967]]},"properties":{"osm_id":483635732,"railway":"rail","name":"","cls":"active","source":"OSM Overpass 2026-09-21 (T4) — 지형도면 1~10·13~15장 벡터화로 T1 치환 예정"}},{"type":"Feature","geometry":{"type":"LineString","coordinates":[[129.0983089,35.821496],[129.0994425,35.8209225],[129.1005423,35.8204291]]},"properties":{"osm_id":483635734,"railway":"rail","name":"건천연결선","cls":"active","source":"OSM Overpass 2026-09-21 (T4) — 지형도면 1~10·13~15장 벡터화로 T1 치환 예정"}},{"type":"Feature","geometry":{"type":"LineString","coordinates":[[129.1194062,35.8197663],[129.1196778,35.8200597],[129.1198411,35.8202361],[129.1200202,35.8204295],[129.1201793,35.8206013],[129.1203526,35.8207885],[129.1206076,35.8210639]]},"properties":{"osm_id":483635735,"railway":"rail","name":"건천연결선","cls":"active","source":"OSM Overpass 2026-09-21 (T4) — 지형도면 1~10·13~15장 벡터화로 T1 치환 예정"}},{"type":"Feature","geometry":{"type":"LineString","coordinates":[[129.1206076,35.8210639],[129.1214849,35.8219823]]},"properties":{"osm_id":483635736,"railway":"rail","name":"건천연결선","cls":"active","source":"OSM Overpass 2026-09-21 (T4) — 지형도면 1~10·13~15장 벡터화로 T1 치환 예정"}},{"type":"Feature","geometry":{"type":"LineString","coordinates":[[129.1214849,35.8219823],[129.12166,35.8221636],[129.122358,35.8229083],[129.1226946,35.8232643],[129.1230883,35.8236921],[129.1235229,35.8241967]]},"properties":{"osm_id":483635737,"railway":"rail","name":"건천연결선","cls":"active","source":"OSM Overpass 2026-09-21 (T4) — 지형도면 1~10·13~15장 벡터화로 T1 치환 예정"}},{"type":"Feature","geometry":{"type":"LineString","coordinates":[[129.1240343,35.8246719],[129.1238083,35.8243583],[129.1235389,35.8239843],[129.123422,35.8238221],[129.1230405,35.82328],[129.1224997,35.8225256],[129.1219465,35.8217362]]},"properties":{"osm_id":483635738,"railway":"rail","name":"건천연결선","cls":"active","source":"OSM Overpass 2026-09-21 (T4) — 지형도면 1~10·13~15장 벡터화로 T1 치환 예정"}},{"type":"Feature","geometry":{"type":"LineString","coordinates":[[129.1204836,35.8196766],[129.1197426,35.8187087],[129.119262,35.8179967],[129.1188799,35.8174595],[129.1186427,35.8171497],[129.1183685,35.8168124],[129.1181466,35.8165526],[129.1179217,35.8162928]]},"properties":{"osm_id":483635739,"railway":"rail","name":"건천연결선","cls":"active","source":"OSM Overpass 2026-09-21 (T4) — 지형도면 1~10·13~15장 벡터화로 T1 치환 예정"}},{"type":"Feature","geometry":{"type":"LineString","coordinates":[[129.1215269,35.8211454],[129.1213188,35.8208666],[129.1211602,35.8206406],[129.1210177,35.8204375],[129.1208867,35.8202509],[129.1207555,35.8200641],[129.1206196,35.8198703],[129.1204836,35.8196766]]},"properties":{"osm_id":483635740,"railway":"rail","name":"건천연결선","cls":"active","source":"OSM Overpass 2026-09-21 (T4) — 지형도면 1~10·13~15장 벡터화로 T1 치환 예정"}},{"type":"Feature","geometry":{"type":"LineString","coordinates":[[129.1219465,35.8217362],[129.1215269,35.8211454]]},"properties":{"osm_id":483635741,"railway":"rail","name":"건천연결선","cls":"active","source":"OSM Overpass 2026-09-21 (T4) — 지형도면 1~10·13~15장 벡터화로 T1 치환 예정"}},{"type":"Feature","geometry":{"type":"LineString","coordinates":[[129.1101738,35.8155838],[129.1108492,35.8155387],[129.1115803,35.815534],[129.1123697,35.8155738],[129.1130735,35.8156484],[129.1136592,35.8157474],[129.1142676,35.8159029],[129.1147648,35.8160664],[129.1152184,35.8162552],[129.1156353,35.8164408],[129.1158849,35.8165887],[129.1161794,35.8167666],[129.116462,35.8169458],[129.1167762,35.8171811],[129.1170119,35.8173669],[129.117269,35.8175832],[129.1175863,35.8178768],[129.1179379,35.8182161],[129.1186235,35.8189267],[129.1194062,35.8197663]]},"properties":{"osm_id":483635742,"railway":"rail","name":"건천연결선","cls":"active","source":"OSM Overpass 2026-09-21 (T4) — 지형도면 1~10·13~15장 벡터화로 T1 치환 예정"}},{"type":"Feature","geometry":{"type":"LineString","coordinates":[[129.1086933,35.8159611],[129.1089659,35.8158475],[129.109319,35.8157426],[129.1097381,35.8156481],[129.1101738,35.8155838]]},"properties":{"osm_id":483635744,"railway":"rail","name":"건천연결선","cls":"active","source":"OSM Overpass 2026-09-21 (T4) — 지형도면 1~10·13~15장 벡터화로 T1 치환 예정"}},{"type":"Feature","geometry":{"type":"LineString","coordinates":[[129.1005423,35.8204291],[129.1012772,35.820055],[129.1019478,35.819694],[129.1026344,35.8193199],[129.1047856,35.8180824]]},"properties":{"osm_id":483635745,"railway":"rail","name":"건천연결선","cls":"active","source":"OSM Overpass 2026-09-21 (T4) — 지형도면 1~10·13~15장 벡터화로 T1 치환 예정"}},{"type":"Feature","geometry":{"type":"LineString","coordinates":[[129.1047856,35.8180824],[129.1061535,35.8172929]]},"properties":{"osm_id":483635746,"railway":"rail","name":"건천연결선","cls":"active","source":"OSM Overpass 2026-09-21 (T4) — 지형도면 1~10·13~15장 벡터화로 T1 치환 예정"}},{"type":"Feature","geometry":{"type":"LineString","coordinates":[[129.1061535,35.8172929],[129.1077574,35.8164446]]},"properties":{"osm_id":483635747,"railway":"rail","name":"건천연결선","cls":"active","source":"OSM Overpass 2026-09-21 (T4) — 지형도면 1~10·13~15장 벡터화로 T1 치환 예정"}},{"type":"Feature","geometry":{"type":"LineString","coordinates":[[129.1077574,35.8164446],[129.1084187,35.816097],[129.1086933,35.8159611]]},"properties":{"osm_id":483635748,"railway":"rail","name":"건천연결선","cls":"active","source":"OSM Overpass 2026-09-21 (T4) — 지형도면 1~10·13~15장 벡터화로 T1 치환 예정"}},{"type":"Feature","geometry":{"type":"LineString","coordinates":[[129.1046786,35.8173984],[129.1026408,35.8187348]]},"properties":{"osm_id":483635749,"railway":"rail","name":"건천연결선","cls":"active","source":"OSM Overpass 2026-09-21 (T4) — 지형도면 1~10·13~15장 벡터화로 T1 치환 예정"}},{"type":"Feature","geometry":{"type":"LineString","coordinates":[[129.1065247,35.8161877],[129.1046786,35.8173984]]},"properties":{"osm_id":483635750,"railway":"rail","name":"건천연결선","cls":"active","source":"OSM Overpass 2026-09-21 (T4) — 지형도면 1~10·13~15장 벡터화로 T1 치환 예정"}},{"type":"Feature","geometry":{"type":"LineString","coordinates":[[129.1026408,35.8187348],[129.1015307,35.819449],[129.1003897,35.820183]]},"properties":{"osm_id":483635751,"railway":"rail","name":"건천연결선","cls":"active","source":"OSM Overpass 2026-09-21 (T4) — 지형도면 1~10·13~15장 벡터화로 T1 치환 예정"}},{"type":"Feature","geometry":{"type":"LineString","coordinates":[[129.1003897,35.820183],[129.0993396,35.820811],[129.0982696,35.8214599]]},"properties":{"osm_id":483635752,"railway":"rail","name":"건천연결선","cls":"active","source":"OSM Overpass 2026-09-21 (T4) — 지형도면 1~10·13~15장 벡터화로 T1 치환 예정"}},{"type":"Feature","geometry":{"type":"LineString","coordinates":[[129.1086487,35.8150218],[129.1084224,35.8151058],[129.1079258,35.815321],[129.1074953,35.8155557],[129.107098,35.8158117],[129.1065247,35.8161877]]},"properties":{"osm_id":483635753,"railway":"rail","name":"건천연결선","cls":"active","source":"OSM Overpass 2026-09-21 (T4) — 지형도면 1~10·13~15장 벡터화로 T1 치환 예정"}},{"type":"Feature","geometry":{"type":"LineString","coordinates":[[129.1179217,35.8162928],[129.117277,35.8156955],[129.1166201,35.8152214],[129.1155927,35.8147284],[129.1145241,35.8143975],[129.1134129,35.8142685],[129.1123244,35.8142687],[129.1112399,35.8143872],[129.1101773,35.8145932],[129.1093458,35.8148055],[129.1086487,35.8150218]]},"properties":{"osm_id":483635754,"railway":"rail","name":"건천연결선","cls":"active","source":"OSM Overpass 2026-09-21 (T4) — 지형도면 1~10·13~15장 벡터화로 T1 치환 예정"}},{"type":"Feature","geometry":{"type":"LineString","coordinates":[[129.1323121,35.8348531],[129.129526,35.8314649],[129.1291231,35.8309535],[129.127755,35.8292806],[129.1256825,35.8267238],[129.1247135,35.8255064],[129.1240343,35.8246719],[129.123778,35.8243583],[129.1220098,35.8221946]]},"properties":{"osm_id":483640396,"railway":"rail","name":"동해선","cls":"active","source":"OSM Overpass 2026-09-21 (T4) — 지형도면 1~10·13~15장 벡터화로 T1 치환 예정"}},{"type":"Feature","geometry":{"type":"LineString","coordinates":[[129.1179055,35.8169325],[129.11764,35.8162566],[129.1174921,35.8155057],[129.1174486,35.8145241],[129.1175553,35.8137164],[129.1178388,35.8126171],[129.1183194,35.8115777],[129.1188863,35.8107582],[129.1196504,35.8099986],[129.1205624,35.809309]]},"properties":{"osm_id":483642077,"railway":"rail","name":"동해선","cls":"active","source":"OSM Overpass 2026-09-21 (T4) — 지형도면 1~10·13~15장 벡터화로 T1 치환 예정"}},{"type":"Feature","geometry":{"type":"LineString","coordinates":[[129.1177492,35.8170295],[129.1185114,35.8179731],[129.1201977,35.8200609]]},"properties":{"osm_id":483642078,"railway":"rail","name":"동해선","cls":"active","source":"OSM Overpass 2026-09-21 (T4) — 지형도면 1~10·13~15장 벡터화로 T1 치환 예정"}},{"type":"Feature","geometry":{"type":"LineString","coordinates":[[129.176822,35.8802666],[129.1780848,35.8817149],[129.1802569,35.8840613],[129.1808397,35.8846877],[129.1834409,35.8874213],[129.184242,35.8882131]]},"properties":{"osm_id":483994614,"railway":"rail","name":"동해선","cls":"active","source":"OSM Overpass 2026-09-21 (T4) — 지형도면 1~10·13~15장 벡터화로 T1 치환 예정"}},{"type":"Feature","geometry":{"type":"LineString","coordinates":[[129.1843417,35.8881578],[129.183784,35.8876482],[129.1833449,35.8872469],[129.1832862,35.8871932],[129.1829056,35.8867965],[129.1808586,35.8846625],[129.1802744,35.8840293],[129.1783699,35.8819482],[129.1782256,35.8817963],[129.17688,35.8802284]]},"properties":{"osm_id":483994617,"railway":"rail","name":"동해선","cls":"active","source":"OSM Overpass 2026-09-21 (T4) — 지형도면 1~10·13~15장 벡터화로 T1 치환 예정"}},{"type":"Feature","geometry":{"type":"LineString","coordinates":[[129.184242,35.8882131],[129.1850277,35.8889717]]},"properties":{"osm_id":483994619,"railway":"rail","name":"동해선","cls":"active","source":"OSM Overpass 2026-09-21 (T4) — 지형도면 1~10·13~15장 벡터화로 T1 치환 예정"}},{"type":"Feature","geometry":{"type":"LineString","coordinates":[[129.1850786,35.8889402],[129.1848675,35.888716],[129.1843417,35.8881578]]},"properties":{"osm_id":483994636,"railway":"rail","name":"동해선","cls":"active","source":"OSM Overpass 2026-09-21 (T4) — 지형도면 1~10·13~15장 벡터화로 T1 치환 예정"}},{"type":"Feature","geometry":{"type":"LineString","coordinates":[[129.1850277,35.8889717],[129.1860139,35.8900099]]},"properties":{"osm_id":483994640,"railway":"rail","name":"동해선","cls":"active","source":"OSM Overpass 2026-09-21 (T4) — 지형도면 1~10·13~15장 벡터화로 T1 치환 예정"}},{"type":"Feature","geometry":{"type":"LineString","coordinates":[[129.1860627,35.8899736],[129.1850786,35.8889402]]},"properties":{"osm_id":483994642,"railway":"rail","name":"동해선","cls":"active","source":"OSM Overpass 2026-09-21 (T4) — 지형도면 1~10·13~15장 벡터화로 T1 치환 예정"}},{"type":"Feature","geometry":{"type":"LineString","coordinates":[[129.1860139,35.8900099],[129.1862099,35.890239]]},"properties":{"osm_id":483994644,"railway":"rail","name":"동해선","cls":"active","source":"OSM Overpass 2026-09-21 (T4) — 지형도면 1~10·13~15장 벡터화로 T1 치환 예정"}},{"type":"Feature","geometry":{"type":"LineString","coordinates":[[129.1863082,35.890232],[129.1862119,35.8901306],[129.1860627,35.8899736]]},"properties":{"osm_id":483994645,"railway":"rail","name":"동해선","cls":"active","source":"OSM Overpass 2026-09-21 (T4) — 지형도면 1~10·13~15장 벡터화로 T1 치환 예정"}},{"type":"Feature","geometry":{"type":"LineString","coordinates":[[129.1862099,35.890239],[129.1867779,35.8908285]]},"properties":{"osm_id":483994648,"railway":"rail","name":"동해선","cls":"active","source":"OSM Overpass 2026-09-21 (T4) — 지형도면 1~10·13~15장 벡터화로 T1 치환 예정"}},{"type":"Feature","geometry":{"type":"LineString","coordinates":[[129.2034634,35.9086153],[129.2073639,35.9128853],[129.2077794,35.9133926],[129.2081763,35.9139],[129.2084751,35.9143232],[129.2087506,35.9147388],[129.2090618,35.9152504],[129.2092997,35.9156842],[129.2188379,35.9343759]]},"properties":{"osm_id":483994651,"railway":"rail","name":"동해선","cls":"active","source":"OSM Overpass 2026-09-21 (T4) — 지형도면 1~10·13~15장 벡터화로 T1 치환 예정"}},{"type":"Feature","geometry":{"type":"LineString","coordinates":[[129.202135,35.9071038],[129.18719,35.8911542]]},"properties":{"osm_id":483994652,"railway":"rail","name":"동해선","cls":"active","source":"OSM Overpass 2026-09-21 (T4) — 지형도면 1~10·13~15장 벡터화로 T1 치환 예정"}},{"type":"Feature","geometry":{"type":"LineString","coordinates":[[129.2020759,35.907133],[129.2024843,35.9075693]]},"properties":{"osm_id":483994653,"railway":"rail","name":"동해선","cls":"active","source":"OSM Overpass 2026-09-21 (T4) — 지형도면 1~10·13~15장 벡터화로 T1 치환 예정"}},{"type":"Feature","geometry":{"type":"LineString","coordinates":[[129.18713,35.8911939],[129.1891493,35.893299],[129.2020759,35.907133]]},"properties":{"osm_id":483994654,"railway":"rail","name":"동해선","cls":"active","source":"OSM Overpass 2026-09-21 (T4) — 지형도면 1~10·13~15장 벡터화로 T1 치환 예정"}},{"type":"Feature","geometry":{"type":"LineString","coordinates":[[129.2189115,35.9343461],[129.2093842,35.9156552],[129.2091395,35.9152081],[129.2088668,35.9147533],[129.2084431,35.9141204],[129.2079712,35.9134932],[129.2074063,35.9128177],[129.2035202,35.9085774]]},"properties":{"osm_id":483994656,"railway":"rail","name":"동해선","cls":"active","source":"OSM Overpass 2026-09-21 (T4) — 지형도면 1~10·13~15장 벡터화로 T1 치환 예정"}},{"type":"Feature","geometry":{"type":"LineString","coordinates":[[129.2290732,35.9584908],[129.2229885,35.9429676],[129.2225995,35.9421139],[129.2210925,35.9389803]]},"properties":{"osm_id":483994658,"railway":"rail","name":"동해선","cls":"active","source":"OSM Overpass 2026-09-21 (T4) — 지형도면 1~10·13~15장 벡터화로 T1 치환 예정"}},{"type":"Feature","geometry":{"type":"LineString","coordinates":[[129.2204438,35.937682],[129.2198359,35.9364654],[129.2196382,35.9360698]]},"properties":{"osm_id":483994659,"railway":"rail","name":"동해선","cls":"active","source":"OSM Overpass 2026-09-21 (T4) — 지형도면 1~10·13~15장 벡터화로 T1 치환 예정"}},{"type":"Feature","geometry":{"type":"LineString","coordinates":[[129.2203852,35.9376983],[129.2210298,35.9389963]]},"properties":{"osm_id":483994660,"railway":"rail","name":"동해선","cls":"active","source":"OSM Overpass 2026-09-21 (T4) — 지형도면 1~10·13~15장 벡터화로 T1 치환 예정"}},{"type":"Feature","geometry":{"type":"LineString","coordinates":[[129.2196382,35.9360698],[129.2189115,35.9343461]]},"properties":{"osm_id":483994661,"railway":"rail","name":"동해선","cls":"active","source":"OSM Overpass 2026-09-21 (T4) — 지형도면 1~10·13~15장 벡터화로 T1 치환 예정"}},{"type":"Feature","geometry":{"type":"LineString","coordinates":[[129.2195784,35.9360863],[129.2203852,35.9376983]]},"properties":{"osm_id":483994662,"railway":"rail","name":"동해선","cls":"active","source":"OSM Overpass 2026-09-21 (T4) — 지형도면 1~10·13~15장 벡터화로 T1 치환 예정"}},{"type":"Feature","geometry":{"type":"LineString","coordinates":[[129.2376772,35.9795552],[129.2372391,35.9790861],[129.2368503,35.9786244],[129.2363624,35.9778871],[129.2359588,35.977174],[129.2355829,35.9763961],[129.2353058,35.9757277],[129.2352944,35.9756956],[129.2350248,35.9749357],[129.2349449,35.9747114],[129.2349138,35.9746239],[129.2347924,35.9742833],[129.2326123,35.9681616],[129.2326038,35.9681377],[129.2323767,35.9674803]]},"properties":{"osm_id":484007740,"railway":"rail","name":"동해선","cls":"active","source":"OSM Overpass 2026-09-21 (T4) — 지형도면 1~10·13~15장 벡터화로 T1 치환 예정"}},{"type":"Feature","geometry":{"type":"LineString","coordinates":[[129.2376204,35.9795904],[129.2383642,35.980286],[129.2487482,35.9889747],[129.2519656,35.9916763],[129.252916,35.9924514],[129.2534459,35.9928583],[129.2543748,35.9935715]]},"properties":{"osm_id":484007741,"railway":"rail","name":"동해선","cls":"active","source":"OSM Overpass 2026-09-21 (T4) — 지형도면 1~10·13~15장 벡터화로 T1 치환 예정"}},{"type":"Feature","geometry":{"type":"LineString","coordinates":[[129.2305597,35.962586],[129.2319995,35.9664334]]},"properties":{"osm_id":484007742,"railway":"rail","name":"동해선","cls":"active","source":"OSM Overpass 2026-09-21 (T4) — 지형도면 1~10·13~15장 벡터화로 T1 치환 예정"}},{"type":"Feature","geometry":{"type":"LineString","coordinates":[[129.2306226,35.9625444],[129.2303485,35.9618218],[129.2298425,35.9604882]]},"properties":{"osm_id":484007743,"railway":"rail","name":"동해선","cls":"active","source":"OSM Overpass 2026-09-21 (T4) — 지형도면 1~10·13~15장 벡터화로 T1 치환 예정"}},{"type":"Feature","geometry":{"type":"LineString","coordinates":[[129.2323087,35.9674951],[129.2325674,35.9681653],[129.2345752,35.9738306],[129.2348603,35.9746651],[129.2349109,35.9748131],[129.2349595,35.9749552],[129.2352406,35.9757355],[129.2355141,35.9764112],[129.2358941,35.977179],[129.2362977,35.9779046],[129.236776,35.9786291],[129.2371736,35.9791147],[129.2376204,35.9795904]]},"properties":{"osm_id":484007744,"railway":"rail","name":"동해선","cls":"active","source":"OSM Overpass 2026-09-21 (T4) — 지형도면 1~10·13~15장 벡터화로 T1 치환 예정"}},{"type":"Feature","geometry":{"type":"LineString","coordinates":[[129.2323767,35.9674803],[129.2320666,35.9664202]]},"properties":{"osm_id":484007747,"railway":"rail","name":"동해선","cls":"active","source":"OSM Overpass 2026-09-21 (T4) — 지형도면 1~10·13~15장 벡터화로 T1 치환 예정"}},{"type":"Feature","geometry":{"type":"LineString","coordinates":[[129.2320666,35.9664202],[129.2306226,35.9625444]]},"properties":{"osm_id":484007751,"railway":"rail","name":"동해선","cls":"active","source":"OSM Overpass 2026-09-21 (T4) — 지형도면 1~10·13~15장 벡터화로 T1 치환 예정"}},{"type":"Feature","geometry":{"type":"LineString","coordinates":[[129.2319995,35.9664334],[129.2323087,35.9674951]]},"properties":{"osm_id":484007755,"railway":"rail","name":"동해선","cls":"active","source":"OSM Overpass 2026-09-21 (T4) — 지형도면 1~10·13~15장 벡터화로 T1 치환 예정"}},{"type":"Feature","geometry":{"type":"LineString","coordinates":[[129.2296306,35.959928],[129.2294371,35.9594291],[129.2290732,35.9584908]]},"properties":{"osm_id":484007759,"railway":"rail","name":"동해선","cls":"active","source":"OSM Overpass 2026-09-21 (T4) — 지형도면 1~10·13~15장 벡터화로 T1 치환 예정"}},{"type":"Feature","geometry":{"type":"LineString","coordinates":[[129.2295704,35.9599458],[129.229678,35.9602245],[129.2297856,35.9605031]]},"properties":{"osm_id":484007763,"railway":"rail","name":"동해본선","cls":"active","source":"OSM Overpass 2026-09-21 (T4) — 지형도면 1~10·13~15장 벡터화로 T1 치환 예정"}},{"type":"Feature","geometry":{"type":"LineString","coordinates":[[129.2298425,35.9604882],[129.2296306,35.959928]]},"properties":{"osm_id":484007766,"railway":"rail","name":"동해본선","cls":"active","source":"OSM Overpass 2026-09-21 (T4) — 지형도면 1~10·13~15장 벡터화로 T1 치환 예정"}},{"type":"Feature","geometry":{"type":"LineString","coordinates":[[129.2297856,35.9605031],[129.2305597,35.962586]]},"properties":{"osm_id":484007769,"railway":"rail","name":"동해선","cls":"active","source":"OSM Overpass 2026-09-21 (T4) — 지형도면 1~10·13~15장 벡터화로 T1 치환 예정"}},{"type":"Feature","geometry":{"type":"LineString","coordinates":[[129.2210298,35.9389963],[129.2225616,35.9421885],[129.2229214,35.9429871],[129.2290266,35.9584914]]},"properties":{"osm_id":484007770,"railway":"rail","name":"동해선","cls":"active","source":"OSM Overpass 2026-09-21 (T4) — 지형도면 1~10·13~15장 벡터화로 T1 치환 예정"}},{"type":"Feature","geometry":{"type":"LineString","coordinates":[[129.2210925,35.9389803],[129.2204438,35.937682]]},"properties":{"osm_id":484007771,"railway":"rail","name":"동해선","cls":"active","source":"OSM Overpass 2026-09-21 (T4) — 지형도면 1~10·13~15장 벡터화로 T1 치환 예정"}},{"type":"Feature","geometry":{"type":"LineString","coordinates":[[129.1355689,35.8386624],[129.1356771,35.8387715],[129.1556521,35.8588521],[129.1697887,35.873175],[129.176822,35.8802666]]},"properties":{"osm_id":484011668,"railway":"rail","name":"동해선","cls":"active","source":"OSM Overpass 2026-09-21 (T4) — 지형도면 1~10·13~15장 벡터화로 T1 치환 예정"}},{"type":"Feature","geometry":{"type":"LineString","coordinates":[[129.1356065,35.8386371],[129.1336762,35.8364795]]},"properties":{"osm_id":484011670,"railway":"rail","name":"동해선","cls":"active","source":"OSM Overpass 2026-09-21 (T4) — 지형도면 1~10·13~15장 벡터화로 T1 치환 예정"}},{"type":"Feature","geometry":{"type":"LineString","coordinates":[[129.2035202,35.9085774],[129.2030979,35.9081281],[129.2028244,35.9078372]]},"properties":{"osm_id":485655153,"railway":"rail","name":"동해선","cls":"active","source":"OSM Overpass 2026-09-21 (T4) — 지형도면 1~10·13~15장 벡터화로 T1 치환 예정"}},{"type":"Feature","geometry":{"type":"LineString","coordinates":[[129.2188379,35.9343759],[129.2195784,35.9360863]]},"properties":{"osm_id":485655154,"railway":"rail","name":"동해선","cls":"active","source":"OSM Overpass 2026-09-21 (T4) — 지형도면 1~10·13~15장 벡터화로 T1 치환 예정"}},{"type":"Feature","geometry":{"type":"LineString","coordinates":[[129.1266138,35.8385498],[129.1269322,35.8382862],[129.1272205,35.838082],[129.1274915,35.8378647],[129.1277693,35.8376342],[129.1280064,35.8374361],[129.1282685,35.8372086],[129.128569,35.8369727],[129.1288574,35.8367527],[129.1291153,35.8365493],[129.1294547,35.8362854],[129.1297074,35.836072],[129.1299238,35.835874],[129.130109,35.8356804],[129.1302866,35.835454],[129.1304611,35.8351816],[129.1306031,35.8348816],[129.1307174,35.8345701],[129.1308059,35.834229],[129.1308737,35.8339176],[129.1309047,35.8336431],[129.1308706,35.8332818],[129.1308119,35.8329305],[129.1307391,35.8326462],[129.1306456,35.8323796],[129.130491,35.8320976],[129.1303155,35.8317923],[129.1300886,35.8315113],[129.1298412,35.8312418],[129.129605,35.8309673],[129.1292485,35.8306003],[129.1290633,35.8303998],[129.1288535,35.830169],[129.1286344,35.8299546],[129.128425,35.8297403],[129.1282249,35.8295005],[129.1279876,35.8292528],[129.1276546,35.8288873],[129.1273303,35.8285421],[129.1269826,35.8281707],[129.1267296,35.827887],[129.1263335,35.8274379],[129.1256825,35.8267238]]},"properties":{"osm_id":487556493,"railway":"rail","name":"중앙선","cls":"active","source":"OSM Overpass 2026-09-21 (T4) — 지형도면 1~10·13~15장 벡터화로 T1 치환 예정"}},{"type":"Feature","geometry":{"type":"LineString","coordinates":[[129.1703011,35.7791913],[129.1738908,35.7749282]]},"properties":{"osm_id":549026532,"railway":"rail","name":"동해선","cls":"active","source":"OSM Overpass 2026-09-21 (T4) — 지형도면 1~10·13~15장 벡터화로 T1 치환 예정"}},{"type":"Feature","geometry":{"type":"LineString","coordinates":[[129.1702354,35.7791585],[129.169694,35.7796964],[129.1692435,35.7800923],[129.168759,35.7804681],[129.168336,35.7808022],[129.1682942,35.7808319],[129.1678757,35.7811298]]},"properties":{"osm_id":549026533,"railway":"rail","name":"동해선","cls":"active","source":"OSM Overpass 2026-09-21 (T4) — 지형도면 1~10·13~15장 벡터화로 T1 치환 예정"}},{"type":"Feature","geometry":{"type":"LineString","coordinates":[[129.1678949,35.7813911],[129.1682619,35.7810821],[129.1686041,35.780783],[129.1692348,35.780204],[129.1697489,35.7797473],[129.1703011,35.7791913]]},"properties":{"osm_id":549026534,"railway":"rail","name":"동해선","cls":"active","source":"OSM Overpass 2026-09-21 (T4) — 지형도면 1~10·13~15장 벡터화로 T1 치환 예정"}},{"type":"Feature","geometry":{"type":"LineString","coordinates":[[129.1676263,35.7815966],[129.1678949,35.7813911]]},"properties":{"osm_id":549026535,"railway":"rail","name":"동해선","cls":"active","source":"OSM Overpass 2026-09-21 (T4) — 지형도면 1~10·13~15장 벡터화로 T1 치환 예정"}},{"type":"Feature","geometry":{"type":"LineString","coordinates":[[129.1678757,35.7811298],[129.1674975,35.7813824]]},"properties":{"osm_id":549026536,"railway":"rail","name":"동해선","cls":"active","source":"OSM Overpass 2026-09-21 (T4) — 지형도면 1~10·13~15장 벡터화로 T1 치환 예정"}},{"type":"Feature","geometry":{"type":"LineString","coordinates":[[129.1674975,35.7813824],[129.1667792,35.7817859],[129.1659242,35.7822303],[129.1657734,35.7823087],[129.1644364,35.7829632]]},"properties":{"osm_id":549026537,"railway":"rail","name":"동해선","cls":"active","source":"OSM Overpass 2026-09-21 (T4) — 지형도면 1~10·13~15장 벡터화로 T1 치환 예정"}},{"type":"Feature","geometry":{"type":"LineString","coordinates":[[129.1834409,35.8874213],[129.1828379,35.886844],[129.1823991,35.8864801],[129.1820508,35.8861266],[129.1812991,35.8853224],[129.180528,35.884542],[129.1801233,35.8841206],[129.1793984,35.883307],[129.1790633,35.8828253],[129.1786494,35.8823556],[129.1780848,35.8817149]]},"properties":{"osm_id":587433858,"railway":"rail","name":"","cls":"active","source":"OSM Overpass 2026-09-21 (T4) — 지형도면 1~10·13~15장 벡터화로 T1 치환 예정"}},{"type":"Feature","geometry":{"type":"LineString","coordinates":[[129.1868305,35.8907782],[129.1863082,35.890232]]},"properties":{"osm_id":587433860,"railway":"rail","name":"동해선","cls":"active","source":"OSM Overpass 2026-09-21 (T4) — 지형도면 1~10·13~15장 벡터화로 T1 치환 예정"}},{"type":"Feature","geometry":{"type":"LineString","coordinates":[[129.1867779,35.8908285],[129.18713,35.8911939]]},"properties":{"osm_id":587433862,"railway":"rail","name":"동해선","cls":"active","source":"OSM Overpass 2026-09-21 (T4) — 지형도면 1~10·13~15장 벡터화로 T1 치환 예정"}},{"type":"Feature","geometry":{"type":"LineString","coordinates":[[129.18719,35.8911542],[129.1870527,35.8910106],[129.1868305,35.8907782]]},"properties":{"osm_id":587433869,"railway":"rail","name":"동해선","cls":"active","source":"OSM Overpass 2026-09-21 (T4) — 지형도면 1~10·13~15장 벡터화로 T1 치환 예정"}},{"type":"Feature","geometry":{"type":"LineString","coordinates":[[129.202532,35.9075262],[129.202135,35.9071038]]},"properties":{"osm_id":587433872,"railway":"rail","name":"동해선","cls":"active","source":"OSM Overpass 2026-09-21 (T4) — 지형도면 1~10·13~15장 벡터화로 T1 치환 예정"}},{"type":"Feature","geometry":{"type":"LineString","coordinates":[[129.2028244,35.9078372],[129.202532,35.9075262]]},"properties":{"osm_id":587433877,"railway":"rail","name":"동해선","cls":"active","source":"OSM Overpass 2026-09-21 (T4) — 지형도면 1~10·13~15장 벡터화로 T1 치환 예정"}},{"type":"Feature","geometry":{"type":"LineString","coordinates":[[129.2024843,35.9075693],[129.2026595,35.9077583],[129.2027583,35.9078648]]},"properties":{"osm_id":587433881,"railway":"rail","name":"동해선","cls":"active","source":"OSM Overpass 2026-09-21 (T4) — 지형도면 1~10·13~15장 벡터화로 T1 치환 예정"}},{"type":"Feature","geometry":{"type":"LineString","coordinates":[[129.2027583,35.9078648],[129.2034634,35.9086153]]},"properties":{"osm_id":587433886,"railway":"rail","name":"동해선","cls":"active","source":"OSM Overpass 2026-09-21 (T4) — 지형도면 1~10·13~15장 벡터화로 T1 치환 예정"}},{"type":"Feature","geometry":{"type":"LineString","coordinates":[[129.2345752,35.9738306],[129.2341721,35.9730767],[129.2330684,35.9700871],[129.2327408,35.9691163],[129.2325674,35.9681653]]},"properties":{"osm_id":587433896,"railway":"rail","name":"","cls":"active","source":"OSM Overpass 2026-09-21 (T4) — 지형도면 1~10·13~15장 벡터화로 T1 치환 예정"}},{"type":"Feature","geometry":{"type":"LineString","coordinates":[[129.2029208,35.7417511],[129.2012554,35.7425525]]},"properties":{"osm_id":654466303,"railway":"rail","name":"동해선","cls":"active","source":"OSM Overpass 2026-09-21 (T4) — 지형도면 1~10·13~15장 벡터화로 T1 치환 예정"}},{"type":"Feature","geometry":{"type":"LineString","coordinates":[[129.2029515,35.7417826],[129.2032844,35.7416258],[129.2034852,35.7415318],[129.2040384,35.7412714],[129.2042742,35.7411586],[129.2045212,35.7410429],[129.204772,35.7409226]]},"properties":{"osm_id":654466308,"railway":"rail","name":"동해선","cls":"active","source":"OSM Overpass 2026-09-21 (T4) — 지형도면 1~10·13~15장 벡터화로 T1 치환 예정"}},{"type":"Feature","geometry":{"type":"LineString","coordinates":[[129.2012554,35.7425525],[129.2010338,35.7426538],[129.2007923,35.7427651],[129.2004943,35.7429],[129.2002041,35.7430317],[129.1998922,35.7431732],[129.1995952,35.743308],[129.1992242,35.7434907],[129.1989017,35.7436462],[129.1985766,35.7438078],[129.1982827,35.7439563],[129.1979757,35.7441087],[129.1976294,35.7442851],[129.1972777,35.7444633],[129.1969425,35.7446373],[129.1966187,35.7448076],[129.1963063,35.7449739],[129.1959718,35.745162],[129.1956868,35.7453352],[129.1954078,35.7455073],[129.1948384,35.7458577],[129.1945532,35.7460542]]},"properties":{"osm_id":654466309,"railway":"rail","name":"동해선","cls":"active","source":"OSM Overpass 2026-09-21 (T4) — 지형도면 1~10·13~15장 벡터화로 T1 치환 예정"}},{"type":"Feature","geometry":{"type":"LineString","coordinates":[[129.2012833,35.7426003],[129.2029515,35.7417826]]},"properties":{"osm_id":654466310,"railway":"rail","name":"동해선","cls":"active","source":"OSM Overpass 2026-09-21 (T4) — 지형도면 1~10·13~15장 벡터화로 T1 치환 예정"}},{"type":"Feature","geometry":{"type":"LineString","coordinates":[[129.1946014,35.746099],[129.1948935,35.7459042],[129.1954484,35.7455551],[129.1957266,35.7453792],[129.1960186,35.7451988],[129.1963415,35.745017],[129.1966475,35.7448539],[129.1969782,35.7446809],[129.1973141,35.7445036],[129.1976589,35.7443343],[129.1980125,35.7441581],[129.198317,35.7440064],[129.198618,35.743856],[129.1989366,35.7436972],[129.1992579,35.7435425],[129.1996211,35.7433639],[129.1999217,35.7432258],[129.2002261,35.7430873],[129.2005205,35.7429533],[129.2008191,35.7428141],[129.2010558,35.742705],[129.2012833,35.7426003]]},"properties":{"osm_id":654466311,"railway":"rail","name":"동해선","cls":"active","source":"OSM Overpass 2026-09-21 (T4) — 지형도면 1~10·13~15장 벡터화로 T1 치환 예정"}},{"type":"Feature","geometry":{"type":"LineString","coordinates":[[129.1945532,35.7460542],[129.1929493,35.7471694]]},"properties":{"osm_id":654466312,"railway":"rail","name":"동해선","cls":"active","source":"OSM Overpass 2026-09-21 (T4) — 지형도면 1~10·13~15장 벡터화로 T1 치환 예정"}},{"type":"Feature","geometry":{"type":"LineString","coordinates":[[129.1929493,35.7471694],[129.1927278,35.7473247],[129.192391,35.7475769],[129.1920328,35.7478553],[129.191862,35.7479905],[129.1916734,35.7481481],[129.1914823,35.7483069],[129.1913087,35.7484554],[129.1910916,35.7486402],[129.1908965,35.7488171],[129.1907219,35.7489772],[129.1905558,35.7491421],[129.1903733,35.7493278],[129.1901797,35.7495193],[129.1900124,35.7497009],[129.1898618,35.7498643],[129.1896989,35.7500411],[129.189536,35.750218],[129.1893668,35.7504065],[129.1891976,35.750595],[129.1890376,35.7507823],[129.1888775,35.7509697],[129.1887141,35.751162],[129.1885606,35.7513514],[129.1884071,35.7515344],[129.1882576,35.7517177],[129.1880749,35.7519416],[129.1879567,35.7521032],[129.1878351,35.7522697],[129.1876867,35.7524903],[129.1875542,35.7526871],[129.1874218,35.7528839],[129.187296,35.7530732],[129.1871703,35.7532624],[129.1870382,35.753471],[129.1869155,35.7536777],[129.1865708,35.7542751],[129.1861194,35.7551176],[129.1857045,35.7559752],[129.1854096,35.7566044],[129.1840369,35.7595828]]},"properties":{"osm_id":654466313,"railway":"rail","name":"동해선","cls":"active","source":"OSM Overpass 2026-09-21 (T4) — 지형도면 1~10·13~15장 벡터화로 T1 치환 예정"}},{"type":"Feature","geometry":{"type":"LineString","coordinates":[[129.1929914,35.7472026],[129.1946014,35.746099]]},"properties":{"osm_id":654466314,"railway":"rail","name":"동해선","cls":"active","source":"OSM Overpass 2026-09-21 (T4) — 지형도면 1~10·13~15장 벡터화로 T1 치환 예정"}},{"type":"Feature","geometry":{"type":"LineString","coordinates":[[129.1840938,35.7595945],[129.1854695,35.7566152],[129.1857637,35.7559838],[129.1861772,35.7551325],[129.1866283,35.7542917],[129.1869714,35.7536928],[129.1870939,35.7534879],[129.1872235,35.753283],[129.1873482,35.7530929],[129.1874729,35.7529028],[129.1876068,35.7527061],[129.1877407,35.7525095],[129.1878893,35.7522913],[129.1880077,35.752123],[129.1881267,35.7519602],[129.1883006,35.7517398],[129.1884531,35.7515585],[129.1886081,35.7513754],[129.1887604,35.7511901],[129.1889246,35.7509961],[129.1890861,35.7508086],[129.1892475,35.7506211],[129.1894174,35.7504314],[129.1895874,35.7502417],[129.189748,35.7500686],[129.1899109,35.7498931],[129.1900698,35.749722],[129.1902286,35.7495509],[129.190423,35.7493534],[129.1906033,35.7491719],[129.1907719,35.7490066],[129.1909426,35.7488512],[129.1911393,35.748671],[129.1913513,35.7484895],[129.1915357,35.7483363],[129.1917209,35.7481825],[129.1919089,35.748026],[129.1920804,35.7478895],[129.192436,35.7476144],[129.1927674,35.7473615],[129.1929914,35.7472026]]},"properties":{"osm_id":654466315,"railway":"rail","name":"동해선","cls":"active","source":"OSM Overpass 2026-09-21 (T4) — 지형도면 1~10·13~15장 벡터화로 T1 치환 예정"}},{"type":"Feature","geometry":{"type":"LineString","coordinates":[[129.1838768,35.7599092],[129.1835088,35.7606594],[129.1830819,35.761447],[129.1825989,35.7622921]]},"properties":{"osm_id":654466316,"railway":"rail","name":"동해선","cls":"active","source":"OSM Overpass 2026-09-21 (T4) — 지형도면 1~10·13~15장 벡터화로 T1 치환 예정"}},{"type":"Feature","geometry":{"type":"LineString","coordinates":[[129.1826469,35.7623137],[129.1831331,35.7614763],[129.1835613,35.7606825],[129.1839276,35.7599342]]},"properties":{"osm_id":654466317,"railway":"rail","name":"동해선","cls":"active","source":"OSM Overpass 2026-09-21 (T4) — 지형도면 1~10·13~15장 벡터화로 T1 치환 예정"}},{"type":"Feature","geometry":{"type":"LineString","coordinates":[[129.1825989,35.7622921],[129.1816607,35.7639077],[129.1809699,35.7650439]]},"properties":{"osm_id":654466318,"railway":"rail","name":"동해선","cls":"active","source":"OSM Overpass 2026-09-21 (T4) — 지형도면 1~10·13~15장 벡터화로 T1 치환 예정"}},{"type":"Feature","geometry":{"type":"LineString","coordinates":[[129.1810302,35.7650569],[129.1817022,35.7639402],[129.1822157,35.7630562],[129.1824855,35.7625916],[129.1826469,35.7623137]]},"properties":{"osm_id":654466319,"railway":"rail","name":"동해선","cls":"active","source":"OSM Overpass 2026-09-21 (T4) — 지형도면 1~10·13~15장 벡터화로 T1 치환 예정"}},{"type":"Feature","geometry":{"type":"LineString","coordinates":[[129.1809699,35.7650439],[129.1808149,35.7652839],[129.1807733,35.7653484],[129.180086,35.766413]]},"properties":{"osm_id":654466320,"railway":"rail","name":"동해선","cls":"active","source":"OSM Overpass 2026-09-21 (T4) — 지형도면 1~10·13~15장 벡터화로 T1 치환 예정"}},{"type":"Feature","geometry":{"type":"LineString","coordinates":[[129.1801383,35.7664305],[129.1810302,35.7650569]]},"properties":{"osm_id":654466321,"railway":"rail","name":"동해선","cls":"active","source":"OSM Overpass 2026-09-21 (T4) — 지형도면 1~10·13~15장 벡터화로 T1 치환 예정"}},{"type":"Feature","geometry":{"type":"LineString","coordinates":[[129.180086,35.766413],[129.1786754,35.7686174],[129.1777956,35.7699232],[129.1768301,35.7712028],[129.1744772,35.7740794]]},"properties":{"osm_id":654466322,"railway":"rail","name":"동해선","cls":"active","source":"OSM Overpass 2026-09-21 (T4) — 지형도면 1~10·13~15장 벡터화로 T1 치환 예정"}},{"type":"Feature","geometry":{"type":"LineString","coordinates":[[129.1738908,35.7749282],[129.1745404,35.774103]]},"properties":{"osm_id":654466323,"railway":"rail","name":"동해선","cls":"active","source":"OSM Overpass 2026-09-21 (T4) — 지형도면 1~10·13~15장 벡터화로 T1 치환 예정"}},{"type":"Feature","geometry":{"type":"LineString","coordinates":[[129.1738284,35.7748985],[129.1735139,35.7752714],[129.1702354,35.7791585]]},"properties":{"osm_id":654466324,"railway":"rail","name":"동해선","cls":"active","source":"OSM Overpass 2026-09-21 (T4) — 지형도면 1~10·13~15장 벡터화로 T1 치환 예정"}},{"type":"Feature","geometry":{"type":"LineString","coordinates":[[129.2047503,35.7408915],[129.2045007,35.7410091],[129.2043741,35.7410688],[129.2042571,35.7411239],[129.2040135,35.7412387],[129.20347,35.7414948],[129.2032603,35.7415937],[129.2029208,35.7417511]]},"properties":{"osm_id":692532464,"railway":"rail","name":"동해선","cls":"active","source":"OSM Overpass 2026-09-21 (T4) — 지형도면 1~10·13~15장 벡터화로 T1 치환 예정"}},{"type":"Feature","geometry":{"type":"LineString","coordinates":[[129.204772,35.7409226],[129.2062284,35.7402567]]},"properties":{"osm_id":692532465,"railway":"rail","name":"동해선","cls":"active","source":"OSM Overpass 2026-09-21 (T4) — 지형도면 1~10·13~15장 벡터화로 T1 치환 예정"}},{"type":"Feature","geometry":{"type":"LineString","coordinates":[[129.2062284,35.7402567],[129.207535,35.739706]]},"properties":{"osm_id":692532466,"railway":"rail","name":"동해선","cls":"active","source":"OSM Overpass 2026-09-21 (T4) — 지형도면 1~10·13~15장 벡터화로 T1 치환 예정"}},{"type":"Feature","geometry":{"type":"LineString","coordinates":[[129.2062046,35.7402238],[129.2047503,35.7408915]]},"properties":{"osm_id":692532467,"railway":"rail","name":"동해선","cls":"active","source":"OSM Overpass 2026-09-21 (T4) — 지형도면 1~10·13~15장 벡터화로 T1 치환 예정"}},{"type":"Feature","geometry":{"type":"LineString","coordinates":[[129.1336762,35.8364795],[129.1323121,35.8348531]]},"properties":{"osm_id":708858420,"railway":"rail","name":"동해선","cls":"active","source":"OSM Overpass 2026-09-21 (T4) — 지형도면 1~10·13~15장 벡터화로 T1 치환 예정"}},{"type":"Feature","geometry":{"type":"LineString","coordinates":[[129.1336243,35.8365071],[129.1345904,35.8375769],[129.1355689,35.8386624]]},"properties":{"osm_id":708858421,"railway":"rail","name":"동해선","cls":"active","source":"OSM Overpass 2026-09-21 (T4) — 지형도면 1~10·13~15장 벡터화로 T1 치환 예정"}},{"type":"Feature","geometry":{"type":"LineString","coordinates":[[129.1283406,35.8300746],[129.128895,35.8308545]]},"properties":{"osm_id":708858423,"railway":"rail","name":"","cls":"active","source":"OSM Overpass 2026-09-21 (T4) — 지형도면 1~10·13~15장 벡터화로 T1 치환 예정"}},{"type":"Feature","geometry":{"type":"LineString","coordinates":[[129.1262737,35.8384178],[129.1265624,35.8382047],[129.1268058,35.8379955],[129.1269956,35.8378233],[129.1272093,35.8376441],[129.1274773,35.8374099],[129.1276795,35.8372572],[129.1278878,35.8371056],[129.128104,35.8369613],[129.1283338,35.8368385],[129.1285789,35.8367174],[129.1288431,35.8366088],[129.1291153,35.8365493],[129.1293665,35.8364762],[129.1296631,35.8364107],[129.1299217,35.8363619],[129.1302022,35.8363238],[129.1304748,35.836302],[129.1307555,35.8362989],[129.1310427,35.8363027],[129.1313066,35.8363159],[129.1315541,35.8363387],[129.131818,35.8363765],[129.1320862,35.8364315],[129.13235,35.8364997],[129.1326436,35.8365876]]},"properties":{"osm_id":710482736,"railway":"rail","name":"경주삼각선","cls":"active","source":"OSM Overpass 2026-09-21 (T4) — 지형도면 1~10·13~15장 벡터화로 T1 치환 예정"}},{"type":"Feature","geometry":{"type":"LineString","coordinates":[[129.1326436,35.8365876],[129.133013,35.8367216],[129.133425,35.8368935]]},"properties":{"osm_id":710482737,"railway":"rail","name":"경주삼각선","cls":"active","source":"OSM Overpass 2026-09-21 (T4) — 지형도면 1~10·13~15장 벡터화로 T1 치환 예정"}},{"type":"Feature","geometry":{"type":"LineString","coordinates":[[129.1148883,35.8495053],[129.1149854,35.8494069]]},"properties":{"osm_id":710482764,"railway":"rail","name":"중앙선","cls":"active","source":"OSM Overpass 2026-09-21 (T4) — 지형도면 1~10·13~15장 벡터화로 T1 치환 예정"}},{"type":"Feature","geometry":{"type":"LineString","coordinates":[[129.1211356,35.8430351],[129.120156,35.8439823]]},"properties":{"osm_id":710482765,"railway":"rail","name":"중앙선","cls":"active","source":"OSM Overpass 2026-09-21 (T4) — 지형도면 1~10·13~15장 벡터화로 T1 치환 예정"}},{"type":"Feature","geometry":{"type":"LineString","coordinates":[[129.1296145,35.8317516],[129.1297807,35.8319999],[129.1299082,35.8322721],[129.1299861,35.8324829],[129.1300427,35.8327172],[129.1300989,35.832977],[129.1301478,35.8332581],[129.1301659,35.8335196],[129.1301575,35.8337706],[129.1301129,35.8340438],[129.1300599,35.8343237],[129.1299519,35.8345809],[129.1298426,35.8348294],[129.1297253,35.835066],[129.1295801,35.8353035],[129.1293996,35.8355285],[129.1292108,35.8357549],[129.1289825,35.8359645],[129.1287792,35.836161],[129.128547,35.8363533],[129.1283116,35.8365754],[129.1280762,35.8367759],[129.1278617,35.8369713],[129.1276512,35.8371651],[129.1262737,35.8384178]]},"properties":{"osm_id":710482774,"railway":"rail","name":"중앙선","cls":"active","source":"OSM Overpass 2026-09-21 (T4) — 지형도면 1~10·13~15장 벡터화로 T1 치환 예정"}},{"type":"Feature","geometry":{"type":"LineString","coordinates":[[129.120156,35.8439823],[129.1160896,35.8481955]]},"properties":{"osm_id":710498382,"railway":"rail","name":"중앙선","cls":"active","source":"OSM Overpass 2026-09-21 (T4) — 지형도면 1~10·13~15장 벡터화로 T1 치환 예정"}},{"type":"Feature","geometry":{"type":"LineString","coordinates":[[129.1211927,35.8430695],[129.1240933,35.8405337]]},"properties":{"osm_id":710498383,"railway":"rail","name":"중앙선","cls":"active","source":"OSM Overpass 2026-09-21 (T4) — 지형도면 1~10·13~15장 벡터화로 T1 치환 예정"}},{"type":"Feature","geometry":{"type":"LineString","coordinates":[[129.1160896,35.8481955],[129.1151287,35.8491682]]},"properties":{"osm_id":710498384,"railway":"rail","name":"중앙선","cls":"active","source":"OSM Overpass 2026-09-21 (T4) — 지형도면 1~10·13~15장 벡터화로 T1 치환 예정"}},{"type":"Feature","geometry":{"type":"LineString","coordinates":[[129.1161435,35.848233],[129.1202155,35.8440103]]},"properties":{"osm_id":710498385,"railway":"rail","name":"중앙선","cls":"active","source":"OSM Overpass 2026-09-21 (T4) — 지형도면 1~10·13~15장 벡터화로 T1 치환 예정"}},{"type":"Feature","geometry":{"type":"LineString","coordinates":[[129.1151287,35.8491682],[129.1149224,35.849377]]},"properties":{"osm_id":710498386,"railway":"rail","name":"중앙선","cls":"active","source":"OSM Overpass 2026-09-21 (T4) — 지형도면 1~10·13~15장 벡터화로 T1 치환 예정"}},{"type":"Feature","geometry":{"type":"LineString","coordinates":[[129.1151947,35.8491947],[129.1161435,35.848233]]},"properties":{"osm_id":710498387,"railway":"rail","name":"중앙선","cls":"active","source":"OSM Overpass 2026-09-21 (T4) — 지형도면 1~10·13~15장 벡터화로 T1 치환 예정"}},{"type":"Feature","geometry":{"type":"LineString","coordinates":[[129.1145773,35.8497466],[129.1033467,35.8620113],[129.1009419,35.8642773],[129.0988608,35.8655733],[129.0963811,35.8666039]]},"properties":{"osm_id":710498388,"railway":"rail","name":"중앙선","cls":"active","source":"OSM Overpass 2026-09-21 (T4) — 지형도면 1~10·13~15장 벡터화로 T1 치환 예정"}},{"type":"Feature","geometry":{"type":"LineString","coordinates":[[129.1149854,35.8494069],[129.1151947,35.8491947]]},"properties":{"osm_id":710498389,"railway":"rail","name":"중앙선","cls":"active","source":"OSM Overpass 2026-09-21 (T4) — 지형도면 1~10·13~15장 벡터화로 T1 치환 예정"}},{"type":"Feature","geometry":{"type":"LineString","coordinates":[[129.0963811,35.8666039],[129.0953802,35.8670598]]},"properties":{"osm_id":710498390,"railway":"rail","name":"중앙선","cls":"active","source":"OSM Overpass 2026-09-21 (T4) — 지형도면 1~10·13~15장 벡터화로 T1 치환 예정"}},{"type":"Feature","geometry":{"type":"LineString","coordinates":[[129.0953802,35.8670598],[129.0826007,35.8728809]]},"properties":{"osm_id":710498392,"railway":"rail","name":"중앙선","cls":"active","source":"OSM Overpass 2026-09-21 (T4) — 지형도면 1~10·13~15장 벡터화로 T1 치환 예정"}},{"type":"Feature","geometry":{"type":"LineString","coordinates":[[129.0964159,35.8666546],[129.0989028,35.8656136],[129.1009872,35.8643149],[129.1034053,35.8620435],[129.1146309,35.8497864]]},"properties":{"osm_id":710498393,"railway":"rail","name":"중앙선","cls":"active","source":"OSM Overpass 2026-09-21 (T4) — 지형도면 1~10·13~15장 벡터화로 T1 치환 예정"}},{"type":"Feature","geometry":{"type":"LineString","coordinates":[[129.0826007,35.8728809],[129.0766802,35.8755776]]},"properties":{"osm_id":710498394,"railway":"rail","name":"중앙선","cls":"active","source":"OSM Overpass 2026-09-21 (T4) — 지형도면 1~10·13~15장 벡터화로 T1 치환 예정"}},{"type":"Feature","geometry":{"type":"LineString","coordinates":[[129.0826286,35.8729235],[129.0953878,35.867122]]},"properties":{"osm_id":710498395,"railway":"rail","name":"중앙선","cls":"active","source":"OSM Overpass 2026-09-21 (T4) — 지형도면 1~10·13~15장 벡터화로 T1 치환 예정"}},{"type":"Feature","geometry":{"type":"LineString","coordinates":[[129.1725948,35.7756027],[129.1731488,35.775013],[129.1741623,35.7739142]]},"properties":{"osm_id":825155416,"railway":"rail","name":"경부고속선","cls":"active","source":"OSM Overpass 2026-09-21 (T4) — 지형도면 1~10·13~15장 벡터화로 T1 치환 예정"}},{"type":"Feature","geometry":{"type":"LineString","coordinates":[[129.0767037,35.8756173],[129.0826286,35.8729235]]},"properties":{"osm_id":968527279,"railway":"rail","name":"중앙선","cls":"active","source":"OSM Overpass 2026-09-21 (T4) — 지형도면 1~10·13~15장 벡터화로 T1 치환 예정"}},{"type":"Feature","geometry":{"type":"LineString","coordinates":[[129.1149224,35.849377],[129.1148306,35.84947],[129.1145773,35.8497466]]},"properties":{"osm_id":968527283,"railway":"rail","name":"중앙선","cls":"active","source":"OSM Overpass 2026-09-21 (T4) — 지형도면 1~10·13~15장 벡터화로 T1 치환 예정"}},{"type":"Feature","geometry":{"type":"LineString","coordinates":[[129.1146309,35.8497864],[129.1148883,35.8495053]]},"properties":{"osm_id":968527284,"railway":"rail","name":"중앙선","cls":"active","source":"OSM Overpass 2026-09-21 (T4) — 지형도면 1~10·13~15장 벡터화로 T1 치환 예정"}},{"type":"Feature","geometry":{"type":"LineString","coordinates":[[129.0953878,35.867122],[129.0964159,35.8666546]]},"properties":{"osm_id":968527285,"railway":"rail","name":"중앙선","cls":"active","source":"OSM Overpass 2026-09-21 (T4) — 지형도면 1~10·13~15장 벡터화로 T1 치환 예정"}},{"type":"Feature","geometry":{"type":"LineString","coordinates":[[129.133425,35.8368935],[129.1340309,35.8372621],[129.1343286,35.837487],[129.1346322,35.8377653],[129.1350128,35.8381533],[129.1353751,35.8385118],[129.1355294,35.8386847]]},"properties":{"osm_id":968527286,"railway":"rail","name":"경주삼각선","cls":"active","source":"OSM Overpass 2026-09-21 (T4) — 지형도면 1~10·13~15장 벡터화로 T1 치환 예정"}},{"type":"Feature","geometry":{"type":"LineString","coordinates":[[129.1240933,35.8405337],[129.1253039,35.8393782],[129.1258392,35.8388553],[129.1262737,35.8384178]]},"properties":{"osm_id":968527287,"railway":"rail","name":"경주삼각선","cls":"active","source":"OSM Overpass 2026-09-21 (T4) — 지형도면 1~10·13~15장 벡터화로 T1 치환 예정"}},{"type":"Feature","geometry":{"type":"LineString","coordinates":[[129.1202155,35.8440103],[129.1211927,35.8430695]]},"properties":{"osm_id":968527288,"railway":"rail","name":"중앙선","cls":"active","source":"OSM Overpass 2026-09-21 (T4) — 지형도면 1~10·13~15장 벡터화로 T1 치환 예정"}},{"type":"Feature","geometry":{"type":"LineString","coordinates":[[129.1239863,35.8404733],[129.1211356,35.8430351]]},"properties":{"osm_id":968527289,"railway":"rail","name":"중앙선","cls":"active","source":"OSM Overpass 2026-09-21 (T4) — 지형도면 1~10·13~15장 벡터화로 T1 치환 예정"}},{"type":"Feature","geometry":{"type":"LineString","coordinates":[[129.1235229,35.8241967],[129.1237458,35.8244318],[129.1239745,35.824673]]},"properties":{"osm_id":997749424,"railway":"rail","name":"건천연결선","cls":"active","source":"OSM Overpass 2026-09-21 (T4) — 지형도면 1~10·13~15장 벡터화로 T1 치환 예정"}},{"type":"Feature","geometry":{"type":"LineString","coordinates":[[129.1312699,35.8024876],[129.1193828,35.8081246]]},"properties":{"osm_id":997749425,"railway":"rail","name":"동해선","cls":"active","source":"OSM Overpass 2026-09-21 (T4) — 지형도면 1~10·13~15장 벡터화로 T1 치환 예정"}},{"type":"Feature","geometry":{"type":"LineString","coordinates":[[129.1205624,35.809309],[129.1315304,35.8029546]]},"properties":{"osm_id":997749426,"railway":"rail","name":"동해선","cls":"active","source":"OSM Overpass 2026-09-21 (T4) — 지형도면 1~10·13~15장 벡터화로 T1 치환 예정"}},{"type":"Feature","geometry":{"type":"LineString","coordinates":[[129.1240933,35.8405337],[129.1266138,35.8385498]]},"properties":{"osm_id":1000314978,"railway":"rail","name":"중앙선","cls":"active","source":"OSM Overpass 2026-09-21 (T4) — 지형도면 1~10·13~15장 벡터화로 T1 치환 예정"}},{"type":"Feature","geometry":{"type":"LineString","coordinates":[[129.2811875,35.8356706],[129.2808663,35.8356788],[129.2806587,35.8356803],[129.2805816,35.8356585],[129.2805594,35.8355894],[129.2805769,35.8355308],[129.2806295,35.8354853],[129.2807217,35.8354607],[129.2809365,35.8354257],[129.2811478,35.835403],[129.2813557,35.8353566],[129.2816102,35.8353074],[129.2817433,35.8353017],[129.2818016,35.8353102],[129.281881,35.8353689],[129.2818962,35.8354342],[129.2818904,35.8355005],[129.2818168,35.8355856],[129.2817234,35.8356084],[129.2815273,35.8356462],[129.2813031,35.8356661],[129.2811875,35.8356706]]},"properties":{"osm_id":1006699706,"railway":"rail","name":"","cls":"active","source":"OSM Overpass 2026-09-21 (T4) — 지형도면 1~10·13~15장 벡터화로 T1 치환 예정"}},{"type":"Feature","geometry":{"type":"LineString","coordinates":[[129.2814271,35.8365927],[129.2813859,35.8365347],[129.2813366,35.8364373],[129.2813566,35.8363137],[129.2814074,35.8361876],[129.2814121,35.8361014],[129.2814537,35.8360377],[129.2815122,35.8360077],[129.2815969,35.836014],[129.2816431,35.8360289],[129.2816693,35.8360589],[129.2817017,35.8361039],[129.2817648,35.8362088],[129.2818388,35.8363037],[129.2818796,35.8364168],[129.2818634,35.8364723],[129.2818465,35.8365447],[129.2818387,35.836586],[129.2818478,35.8366271],[129.2818881,35.8366971],[129.2819204,35.8368083],[129.2819097,35.836852],[129.281885,35.8368882],[129.2818511,35.8369007],[129.2817957,35.8368969],[129.281606,35.8367559],[129.2814271,35.8365927]]},"properties":{"osm_id":1006701739,"railway":"rail","name":"클라우드라이드","cls":"active","source":"OSM Overpass 2026-09-21 (T4) — 지형도면 1~10·13~15장 벡터화로 T1 치환 예정"}},{"type":"Feature","geometry":{"type":"LineString","coordinates":[[129.1783699,35.8819482],[129.1786651,35.8822226],[129.1787191,35.8822737],[129.1793273,35.8828488],[129.1796469,35.8831929],[129.18008,35.8836424],[129.1804743,35.8840852],[129.1815563,35.8852186],[129.1819742,35.8856647],[129.1823394,35.886093],[129.1827393,35.8865817],[129.1829056,35.8867965]]},"properties":{"osm_id":1017532370,"railway":"rail","name":"","cls":"active","source":"OSM Overpass 2026-09-21 (T4) — 지형도면 1~10·13~15장 벡터화로 T1 치환 예정"}},{"type":"Feature","geometry":{"type":"LineString","coordinates":[[129.1780228,35.8813841],[129.1787449,35.8820721],[129.1792456,35.8825723],[129.1795924,35.882959],[129.1796273,35.882998],[129.1796419,35.883014],[129.1797718,35.8831563],[129.1800441,35.8834546],[129.181374,35.884894],[129.1818446,35.8853872],[129.1823069,35.8859191],[129.1828082,35.8865569]]},"properties":{"osm_id":1017532372,"railway":"rail","name":"","cls":"active","source":"OSM Overpass 2026-09-21 (T4) — 지형도면 1~10·13~15장 벡터화로 T1 치환 예정"}},{"type":"Feature","geometry":{"type":"LineString","coordinates":[[129.183784,35.8876482],[129.1832742,35.8871102],[129.1830816,35.8869212],[129.1828082,35.8865569],[129.1826458,35.8862734],[129.1823038,35.8858203],[129.1816078,35.8850631],[129.1810994,35.8845419],[129.1803968,35.883782],[129.1799443,35.8832874],[129.1797718,35.8831563]]},"properties":{"osm_id":1017532373,"railway":"rail","name":"","cls":"active","source":"OSM Overpass 2026-09-21 (T4) — 지형도면 1~10·13~15장 벡터화로 T1 치환 예정"}},{"type":"Feature","geometry":{"type":"LineString","coordinates":[[129.1830816,35.8869212],[129.1833449,35.8872469]]},"properties":{"osm_id":1017532374,"railway":"rail","name":"","cls":"active","source":"OSM Overpass 2026-09-21 (T4) — 지형도면 1~10·13~15장 벡터화로 T1 치환 예정"}},{"type":"Feature","geometry":{"type":"LineString","coordinates":[[129.1830816,35.8869212],[129.1827365,35.8865242],[129.1822742,35.8859377],[129.1817575,35.8853564],[129.1808443,35.8844099],[129.1802734,35.883798],[129.179969,35.8834487],[129.1796419,35.883014]]},"properties":{"osm_id":1017532375,"railway":"rail","name":"","cls":"active","source":"OSM Overpass 2026-09-21 (T4) — 지형도면 1~10·13~15장 벡터화로 T1 치환 예정"}},{"type":"Feature","geometry":{"type":"LineString","coordinates":[[129.1787191,35.8822737],[129.1791225,35.8825834],[129.1795924,35.882959]]},"properties":{"osm_id":1017532376,"railway":"rail","name":"","cls":"active","source":"OSM Overpass 2026-09-21 (T4) — 지형도면 1~10·13~15장 벡터화로 T1 치환 예정"}},{"type":"Feature","geometry":{"type":"LineString","coordinates":[[129.1355294,35.8386847],[129.1358685,35.8390544],[129.1362325,35.8392682]]},"properties":{"osm_id":1019974746,"railway":"rail","name":"경주삼각선","cls":"active","source":"OSM Overpass 2026-09-21 (T4) — 지형도면 1~10·13~15장 벡터화로 T1 치환 예정"}},{"type":"Feature","geometry":{"type":"LineString","coordinates":[[129.1353751,35.8385118],[129.1355556,35.8386681]]},"properties":{"osm_id":1019974747,"railway":"rail","name":"","cls":"active","source":"OSM Overpass 2026-09-21 (T4) — 지형도면 1~10·13~15장 벡터화로 T1 치환 예정"}},{"type":"Feature","geometry":{"type":"LineString","coordinates":[[129.1355556,35.8386681],[129.1356771,35.8387715]]},"properties":{"osm_id":1019974748,"railway":"rail","name":"","cls":"active","source":"OSM Overpass 2026-09-21 (T4) — 지형도면 1~10·13~15장 벡터화로 T1 치환 예정"}},{"type":"Feature","geometry":{"type":"LineString","coordinates":[[129.1410762,35.7968364],[129.140673,35.7970478],[129.1406111,35.7970803],[129.1378012,35.7986947],[129.136514,35.7994342],[129.136464,35.7994629]]},"properties":{"osm_id":1025593618,"railway":"rail","name":"","cls":"active","source":"OSM Overpass 2026-09-21 (T4) — 지형도면 1~10·13~15장 벡터화로 T1 치환 예정"}},{"type":"Feature","geometry":{"type":"LineString","coordinates":[[129.1436317,35.7957038],[129.1424611,35.7961724]]},"properties":{"osm_id":1025593619,"railway":"rail","name":"","cls":"active","source":"OSM Overpass 2026-09-21 (T4) — 지형도면 1~10·13~15장 벡터화로 T1 치환 예정"}},{"type":"Feature","geometry":{"type":"LineString","coordinates":[[129.1350801,35.8002976],[129.1341931,35.8009139],[129.1336428,35.8012963]]},"properties":{"osm_id":1025593620,"railway":"rail","name":"","cls":"active","source":"OSM Overpass 2026-09-21 (T4) — 지형도면 1~10·13~15장 벡터화로 T1 치환 예정"}},{"type":"Feature","geometry":{"type":"LineString","coordinates":[[129.1420546,35.7968694],[129.1425464,35.7965166],[129.1435514,35.795951],[129.1438518,35.795782]]},"properties":{"osm_id":1025593622,"railway":"rail","name":"","cls":"active","source":"OSM Overpass 2026-09-21 (T4) — 지형도면 1~10·13~15장 벡터화로 T1 치환 예정"}},{"type":"Feature","geometry":{"type":"LineString","coordinates":[[129.2326123,35.9681616],[129.2330905,35.9690853],[129.2334871,35.9700523],[129.2340115,35.9715303],[129.2344054,35.9725965],[129.2347028,35.9737177],[129.2347924,35.9742833]]},"properties":{"osm_id":1081735516,"railway":"rail","name":"","cls":"active","source":"OSM Overpass 2026-09-21 (T4) — 지형도면 1~10·13~15장 벡터화로 T1 치환 예정"}},{"type":"Feature","geometry":{"type":"LineString","coordinates":[[129.283215,35.8372682],[129.2832275,35.8371749],[129.2832266,35.8371052],[129.2832088,35.8370401],[129.2831886,35.8370001],[129.2831543,35.8369594],[129.2831249,35.8369276],[129.2830323,35.8368776],[129.282935,35.8368563],[129.2828712,35.8368672],[129.2828227,35.8368961],[129.2827901,35.8369587],[129.2828032,35.8370365],[129.2828398,35.837082],[129.2829348,35.8371274],[129.2831299,35.837248]]},"properties":{"osm_id":1238736225,"railway":"rail","name":"","cls":"active","source":"OSM Overpass 2026-09-21 (T4) — 지형도면 1~10·13~15장 벡터화로 T1 치환 예정"}},{"type":"Feature","geometry":{"type":"LineString","coordinates":[[129.2831299,35.837248],[129.2832908,35.8373666],[129.2835201,35.8375149],[129.2836127,35.8375702]]},"properties":{"osm_id":1238736226,"railway":"rail","name":"","cls":"active","source":"OSM Overpass 2026-09-21 (T4) — 지형도면 1~10·13~15장 벡터화로 T1 치환 예정"}},{"type":"Feature","geometry":{"type":"LineString","coordinates":[[129.2831372,35.8378509],[129.2832051,35.837342]]},"properties":{"osm_id":1238736227,"railway":"rail","name":"","cls":"active","source":"OSM Overpass 2026-09-21 (T4) — 지형도면 1~10·13~15장 벡터화로 T1 치환 예정"}},{"type":"Feature","geometry":{"type":"LineString","coordinates":[[129.2832051,35.837342],[129.283215,35.8372682]]},"properties":{"osm_id":1238736228,"railway":"rail","name":"","cls":"active","source":"OSM Overpass 2026-09-21 (T4) — 지형도면 1~10·13~15장 벡터화로 T1 치환 예정"}},{"type":"Feature","geometry":{"type":"LineString","coordinates":[[129.2838297,35.8376473],[129.2839082,35.8376931]]},"properties":{"osm_id":1238736229,"railway":"rail","name":"","cls":"active","source":"OSM Overpass 2026-09-21 (T4) — 지형도면 1~10·13~15장 벡터화로 T1 치환 예정"}},{"type":"Feature","geometry":{"type":"LineString","coordinates":[[129.2839082,35.8376931],[129.2839859,35.8377437],[129.2840532,35.8378114],[129.2841293,35.8378796],[129.2841734,35.8379146],[129.284214,35.8379311],[129.2842393,35.8379262],[129.2842524,35.8379115],[129.2842534,35.8378853],[129.2841747,35.8377561],[129.2841313,35.8377127]]},"properties":{"osm_id":1238736230,"railway":"rail","name":"","cls":"active","source":"OSM Overpass 2026-09-21 (T4) — 지형도면 1~10·13~15장 벡터화로 T1 치환 예정"}},{"type":"Feature","geometry":{"type":"LineString","coordinates":[[129.2841313,35.8377127],[129.2840763,35.8376755],[129.2840213,35.8376366]]},"properties":{"osm_id":1238736231,"railway":"rail","name":"","cls":"active","source":"OSM Overpass 2026-09-21 (T4) — 지형도면 1~10·13~15장 벡터화로 T1 치환 예정"}},{"type":"Feature","geometry":{"type":"LineString","coordinates":[[129.2829843,35.8374265],[129.2829258,35.837486],[129.2828907,35.8375534],[129.2827375,35.8378029],[129.2826674,35.8378755],[129.2825791,35.8379155],[129.2825116,35.8379292],[129.2824687,35.8379134],[129.2824519,35.8378818],[129.2824713,35.837824],[129.2825648,35.8377239],[129.282683,35.8376292],[129.2827791,35.837585],[129.2828843,35.8375345]]},"properties":{"osm_id":1238736232,"railway":"rail","name":"","cls":"active","source":"OSM Overpass 2026-09-21 (T4) — 지형도면 1~10·13~15장 벡터화로 T1 치환 예정"}},{"type":"Feature","geometry":{"type":"LineString","coordinates":[[129.2840213,35.8376366],[129.2839568,35.8376018],[129.2839191,35.8375945],[129.2838909,35.8375971],[129.2838659,35.8376103],[129.2838464,35.8376734],[129.2838257,35.8376882],[129.2837958,35.8376934],[129.2837477,35.8376724],[129.2835309,35.8374945],[129.2834867,35.8374566],[129.2834205,35.837405],[129.2833153,35.8373324],[129.2832673,35.8373187],[129.2832401,35.8373163]]},"properties":{"osm_id":1238736233,"railway":"rail","name":"","cls":"active","source":"OSM Overpass 2026-09-21 (T4) — 지형도면 1~10·13~15장 벡터화로 T1 치환 예정"}},{"type":"Feature","geometry":{"type":"LineString","coordinates":[[129.2830343,35.8373756],[129.2829843,35.8374265]]},"properties":{"osm_id":1238736234,"railway":"rail","name":"","cls":"active","source":"OSM Overpass 2026-09-21 (T4) — 지형도면 1~10·13~15장 벡터화로 T1 치환 예정"}},{"type":"Feature","geometry":{"type":"LineString","coordinates":[[129.2831816,35.8373113],[129.2831141,35.8373229],[129.2830479,35.8373618],[129.2830343,35.8373756]]},"properties":{"osm_id":1238736235,"railway":"rail","name":"","cls":"active","source":"OSM Overpass 2026-09-21 (T4) — 지형도면 1~10·13~15장 벡터화로 T1 치환 예정"}},{"type":"Feature","geometry":{"type":"LineString","coordinates":[[129.2832401,35.8373163],[129.2831816,35.8373113]]},"properties":{"osm_id":1238736236,"railway":"rail","name":"","cls":"active","source":"OSM Overpass 2026-09-21 (T4) — 지형도면 1~10·13~15장 벡터화로 T1 치환 예정"}},{"type":"Feature","geometry":{"type":"LineString","coordinates":[[129.2831815,35.8376226],[129.2832617,35.8376524],[129.2833285,35.8376469],[129.2833903,35.8376429],[129.2834522,35.8376632],[129.2834856,35.8377011],[129.2834923,35.8377567],[129.2834438,35.8379083],[129.2833536,35.8380384],[129.2833335,35.8381196],[129.2832684,35.8381901],[129.2831882,35.8382144],[129.283128,35.8382077],[129.2830879,35.8381779],[129.2830746,35.8381291],[129.2830887,35.8380664],[129.2831372,35.8378509]]},"properties":{"osm_id":1238736237,"railway":"rail","name":"","cls":"active","source":"OSM Overpass 2026-09-21 (T4) — 지형도면 1~10·13~15장 벡터화로 T1 치환 예정"}},{"type":"Feature","geometry":{"type":"LineString","coordinates":[[129.2828843,35.8375345],[129.2829619,35.8375061]]},"properties":{"osm_id":1238736238,"railway":"rail","name":"","cls":"active","source":"OSM Overpass 2026-09-21 (T4) — 지형도면 1~10·13~15장 벡터화로 T1 치환 예정"}},{"type":"Feature","geometry":{"type":"LineString","coordinates":[[129.2829619,35.8375061],[129.2830254,35.8374966],[129.2830645,35.8375118]]},"properties":{"osm_id":1238736239,"railway":"rail","name":"","cls":"active","source":"OSM Overpass 2026-09-21 (T4) — 지형도면 1~10·13~15장 벡터화로 T1 치환 예정"}},{"type":"Feature","geometry":{"type":"LineString","coordinates":[[129.2831579,35.837587],[129.2831815,35.8376226]]},"properties":{"osm_id":1238736240,"railway":"rail","name":"","cls":"active","source":"OSM Overpass 2026-09-21 (T4) — 지형도면 1~10·13~15장 벡터화로 T1 치환 예정"}},{"type":"Feature","geometry":{"type":"LineString","coordinates":[[129.28372,35.8376098],[129.2837956,35.8376295],[129.2838297,35.8376473]]},"properties":{"osm_id":1238736241,"railway":"rail","name":"","cls":"active","source":"OSM Overpass 2026-09-21 (T4) — 지형도면 1~10·13~15장 벡터화로 T1 치환 예정"}},{"type":"Feature","geometry":{"type":"LineString","coordinates":[[129.2836127,35.8375702],[129.28372,35.8376098]]},"properties":{"osm_id":1238736242,"railway":"rail","name":"","cls":"active","source":"OSM Overpass 2026-09-21 (T4) — 지형도면 1~10·13~15장 벡터화로 T1 치환 예정"}},{"type":"Feature","geometry":{"type":"LineString","coordinates":[[129.283123,35.8375345],[129.2831579,35.837587]]},"properties":{"osm_id":1238736243,"railway":"rail","name":"","cls":"active","source":"OSM Overpass 2026-09-21 (T4) — 지형도면 1~10·13~15장 벡터화로 T1 치환 예정"}},{"type":"Feature","geometry":{"type":"LineString","coordinates":[[129.2830645,35.8375118],[129.283123,35.8375345]]},"properties":{"osm_id":1238736244,"railway":"rail","name":"","cls":"active","source":"OSM Overpass 2026-09-21 (T4) — 지형도면 1~10·13~15장 벡터화로 T1 치환 예정"}},{"type":"Feature","geometry":{"type":"LineString","coordinates":[[129.1341029,35.8012268],[129.1366954,35.7996707]]},"properties":{"osm_id":1279011153,"railway":"rail","name":"","cls":"active","source":"OSM Overpass 2026-09-21 (T4) — 지형도면 1~10·13~15장 벡터화로 T1 치환 예정"}},{"type":"Feature","geometry":{"type":"LineString","coordinates":[[129.1368585,35.7998752],[129.1371441,35.7997229],[129.1376381,35.7994594]]},"properties":{"osm_id":1279064569,"railway":"rail","name":"동해선","cls":"active","source":"OSM Overpass 2026-09-21 (T4) — 지형도면 1~10·13~15장 벡터화로 T1 치환 예정"}},{"type":"Feature","geometry":{"type":"LineString","coordinates":[[129.136816,35.7998419],[129.1376176,35.7994311],[129.1379989,35.7992279],[129.1398093,35.7981699],[129.1408713,35.7975493],[129.1414072,35.7972598]]},"properties":{"osm_id":1279064570,"railway":"rail","name":"","cls":"active","source":"OSM Overpass 2026-09-21 (T4) — 지형도면 1~10·13~15장 벡터화로 T1 치환 예정"}},{"type":"Feature","geometry":{"type":"LineString","coordinates":[[129.1341029,35.8012268],[129.1344551,35.8010536],[129.1355719,35.800516],[129.135916,35.8003494],[129.136116,35.8002526],[129.136816,35.7998419]]},"properties":{"osm_id":1279064571,"railway":"rail","name":"","cls":"active","source":"OSM Overpass 2026-09-21 (T4) — 지형도면 1~10·13~15장 벡터화로 T1 치환 예정"}},{"type":"Feature","geometry":{"type":"LineString","coordinates":[[129.1414072,35.7972598],[129.1420546,35.7968694],[129.1435829,35.7960396]]},"properties":{"osm_id":1279064572,"railway":"rail","name":"","cls":"active","source":"OSM Overpass 2026-09-21 (T4) — 지형도면 1~10·13~15장 벡터화로 T1 치환 예정"}},{"type":"Feature","geometry":{"type":"LineString","coordinates":[[129.1413043,35.797055],[129.1418772,35.7967771],[129.1424047,35.7965177],[129.1435247,35.7958858]]},"properties":{"osm_id":1279064573,"railway":"rail","name":"","cls":"active","source":"OSM Overpass 2026-09-21 (T4) — 지형도면 1~10·13~15장 벡터화로 T1 치환 예정"}},{"type":"Feature","geometry":{"type":"LineString","coordinates":[[129.135916,35.8003494],[129.1348678,35.8009979]]},"properties":{"osm_id":1279064574,"railway":"rail","name":"","cls":"active","source":"OSM Overpass 2026-09-21 (T4) — 지형도면 1~10·13~15장 벡터화로 T1 치환 예정"}},{"type":"Feature","geometry":{"type":"LineString","coordinates":[[129.136464,35.7994629],[129.1357816,35.7998686],[129.1354615,35.8000644],[129.1350801,35.8002976],[129.1341755,35.8007592]]},"properties":{"osm_id":1279064575,"railway":"rail","name":"","cls":"active","source":"OSM Overpass 2026-09-21 (T4) — 지형도면 1~10·13~15장 벡터화로 T1 치환 예정"}},{"type":"Feature","geometry":{"type":"LineString","coordinates":[[129.1436955,35.795515],[129.1424611,35.7961724],[129.1414793,35.7966249],[129.1410762,35.7968364]]},"properties":{"osm_id":1279064580,"railway":"rail","name":"","cls":"active","source":"OSM Overpass 2026-09-21 (T4) — 지형도면 1~10·13~15장 벡터화로 T1 치환 예정"}},{"type":"Feature","geometry":{"type":"LineString","coordinates":[[129.1840369,35.7595828],[129.1839768,35.7597054],[129.1839224,35.7598163]]},"properties":{"osm_id":1369159427,"railway":"rail","name":"동해선","cls":"active","source":"OSM Overpass 2026-09-21 (T4) — 지형도면 1~10·13~15장 벡터화로 T1 치환 예정"}},{"type":"Feature","geometry":{"type":"LineString","coordinates":[[129.1839224,35.7598163],[129.1838768,35.7599092]]},"properties":{"osm_id":1369159428,"railway":"rail","name":"동해선","cls":"active","source":"OSM Overpass 2026-09-21 (T4) — 지형도면 1~10·13~15장 벡터화로 T1 치환 예정"}},{"type":"Feature","geometry":{"type":"LineString","coordinates":[[129.183973,35.7598412],[129.1840457,35.7596929],[129.1840938,35.7595945]]},"properties":{"osm_id":1369159429,"railway":"rail","name":"동해선","cls":"active","source":"OSM Overpass 2026-09-21 (T4) — 지형도면 1~10·13~15장 벡터화로 T1 치환 예정"}},{"type":"Feature","geometry":{"type":"LineString","coordinates":[[129.1839276,35.7599342],[129.183973,35.7598412]]},"properties":{"osm_id":1369159430,"railway":"rail","name":"동해선","cls":"active","source":"OSM Overpass 2026-09-21 (T4) — 지형도면 1~10·13~15장 벡터화로 T1 치환 예정"}},{"type":"Feature","geometry":{"type":"LineString","coordinates":[[129.1262737,35.8384178],[129.1239863,35.8404733]]},"properties":{"osm_id":1458728828,"railway":"rail","name":"중앙선","cls":"active","source":"OSM Overpass 2026-09-21 (T4) — 지형도면 1~10·13~15장 벡터화로 T1 치환 예정"}}]}