{"type":"FeatureCollection","features":[{"type":"Feature","geometry":{"type":"LineString","coordinates":[[129.2116834,35.8811357],[129.2109828,35.8803624],[129.2099927,35.8792826],[129.2097013,35.878948],[129.2094976,35.8786885],[129.2093299,35.8784536],[129.2091492,35.8781382],[129.2090021,35.8777847],[129.2089101,35.8775012],[129.2088532,35.8772243],[129.2088191,35.8768855],[129.2088246,35.8765039],[129.2088714,35.8761667],[129.2089287,35.8759723],[129.2090543,35.8756432],[129.2091225,35.8754701],[129.2091888,35.8753245],[129.2093088,35.875093],[129.2094616,35.8748618],[129.2097345,35.8745556]]},"properties":{"osm_id":42412139,"railway":"abandoned","name":"동해선","cls":"abandoned","source":"OSM Overpass 2026-09-21 (T4) — 지형도면 1~10·13~15장 벡터화로 T1 치환 예정"}},{"type":"Feature","geometry":{"type":"LineString","coordinates":[[129.2169538,35.8662214],[129.2163006,35.8668778],[129.2147767,35.8686345],[129.2138907,35.8696557],[129.2128822,35.8707772],[129.2116376,35.8720987]]},"properties":{"osm_id":67147249,"railway":"abandoned","name":"중앙선","cls":"abandoned","source":"OSM Overpass 2026-09-21 (T4) — 지형도면 1~10·13~15장 벡터화로 T1 치환 예정"}},{"type":"Feature","geometry":{"type":"LineString","coordinates":[[129.2097345,35.8745556],[129.2099465,35.8743076],[129.2117736,35.8721745]]},"properties":{"osm_id":67147292,"railway":"abandoned","name":"동해선","cls":"abandoned","source":"OSM Overpass 2026-09-21 (T4) — 지형도면 1~10·13~15장 벡터화로 T1 치환 예정"}},{"type":"Feature","geometry":{"type":"LineString","coordinates":[[129.1925735,35.8288612],[129.1925494,35.8290856]]},"properties":{"osm_id":133431165,"railway":"abandoned","name":"중앙선","cls":"abandoned","source":"OSM Overpass 2026-09-21 (T4) — 지형도면 1~10·13~15장 벡터화로 T1 치환 예정"}},{"type":"Feature","geometry":{"type":"LineString","coordinates":[[129.1925494,35.8290856],[129.1922611,35.8314298],[129.1918663,35.8341211],[129.1916308,35.835727],[129.1915906,35.8367449],[129.1918355,35.8384487],[129.1922876,35.8403671],[129.1925317,35.8413477]]},"properties":{"osm_id":133431166,"railway":"abandoned","name":"중앙선","cls":"abandoned","source":"OSM Overpass 2026-09-21 (T4) — 지형도면 1~10·13~15장 벡터화로 T1 치환 예정"}},{"type":"Feature","geometry":{"type":"LineString","coordinates":[[129.2225623,35.8906454],[129.22311,35.8908757],[129.2235163,35.8910676],[129.2238865,35.891299],[129.2241455,35.8915043],[129.2244323,35.8917636],[129.2247519,35.8921784],[129.2249701,35.8925226],[129.225113,35.8928144],[129.225225,35.8931167],[129.2253158,35.893474],[129.2253625,35.8937871],[129.2253787,35.8940963],[129.2252208,35.8974986],[129.2252225,35.8978736],[129.2252843,35.8983304],[129.225469,35.8989205],[129.2263872,35.9017709],[129.226952,35.9034043],[129.2278772,35.9053875],[129.2282779,35.9060718],[129.2291454,35.9072669],[129.230581,35.9089102],[129.2317511,35.9103302],[129.2320069,35.9106646],[129.2322419,35.9110501],[129.2323593,35.9113179],[129.2324723,35.9116645],[129.2325854,35.912212],[129.2330104,35.9159952],[129.233235,35.9180945],[129.2332827,35.9194295],[129.2332263,35.9206299],[129.2330713,35.9217588],[129.2329445,35.9224332],[129.2321874,35.9257547],[129.2320202,35.9261979],[129.23153,35.9271062],[129.2313847,35.9273965],[129.2312394,35.9277274],[129.2311163,35.9281778],[129.2310739,35.928574],[129.2310677,35.9288521],[129.2313016,35.9310656],[129.2314928,35.9329762],[129.2315968,35.933596],[129.231703,35.9341451],[129.2319798,35.9351572]]},"properties":{"osm_id":133901465,"railway":"abandoned","name":"동해선","cls":"abandoned","source":"OSM Overpass 2026-09-21 (T4) — 지형도면 1~10·13~15장 벡터화로 T1 치환 예정"}},{"type":"Feature","geometry":{"type":"LineString","coordinates":[[129.3130249,35.7371723],[129.3132854,35.7380232],[129.3137232,35.7396325],[129.3138888,35.740395],[129.3140161,35.7412529],[129.3141149,35.74195],[129.3141754,35.7423171],[129.3145258,35.7450101],[129.3148495,35.7471469],[129.3149108,35.747759],[129.314914,35.748134],[129.3148841,35.7484845],[129.3148145,35.7489551],[129.3146086,35.7501068],[129.3141206,35.7528212]]},"properties":{"osm_id":143755168,"railway":"abandoned","name":"동해선","cls":"abandoned","source":"OSM Overpass 2026-09-21 (T4) — 지형도면 1~10·13~15장 벡터화로 T1 치환 예정"}},{"type":"Feature","geometry":{"type":"LineString","coordinates":[[129.3141206,35.7528212],[129.3140612,35.7530783]]},"properties":{"osm_id":143755169,"railway":"abandoned","name":"동해선","cls":"abandoned","source":"OSM Overpass 2026-09-21 (T4) — 지형도면 1~10·13~15장 벡터화로 T1 치환 예정"}},{"type":"Feature","geometry":{"type":"LineString","coordinates":[[129.3140612,35.7530783],[129.3135922,35.7558157],[129.3135297,35.7561484],[129.3131129,35.7584897],[129.3130297,35.7593198],[129.3129995,35.7598831],[129.3129695,35.761234],[129.312799,35.7623323],[129.312628,35.7629095],[129.3125962,35.7630033],[129.3122567,35.7637361],[129.3120637,35.764082],[129.3118912,35.7643695]]},"properties":{"osm_id":143755170,"railway":"abandoned","name":"동해선","cls":"abandoned","source":"OSM Overpass 2026-09-21 (T4) — 지형도면 1~10·13~15장 벡터화로 T1 치환 예정"}},{"type":"Feature","geometry":{"type":"LineString","coordinates":[[129.3030048,35.7720282],[129.3020633,35.772646]]},"properties":{"osm_id":143755594,"railway":"abandoned","name":"동해선","cls":"abandoned","source":"OSM Overpass 2026-09-21 (T4) — 지형도면 1~10·13~15장 벡터화로 T1 치환 예정"}},{"type":"Feature","geometry":{"type":"LineString","coordinates":[[129.3020633,35.772646],[129.3006693,35.7735727],[129.3000845,35.7739475],[129.2988312,35.774721],[129.2973377,35.7757003],[129.295714,35.7767914],[129.294696,35.7774429],[129.2945907,35.7775244],[129.2943347,35.7777225],[129.293391,35.7783655],[129.2922842,35.779104],[129.2910571,35.7799129],[129.290057,35.7805777],[129.2895455,35.7809242],[129.2884863,35.7816147],[129.287642,35.7821844],[129.2871659,35.7824836],[129.286592,35.7828616],[129.2859421,35.7832346],[129.2855526,35.7834053],[129.285135,35.783576],[129.2840522,35.7838891],[129.2826825,35.7843041],[129.2826414,35.7843165],[129.2812078,35.7847673],[129.2808088,35.7849553],[129.2802123,35.7852973],[129.2797822,35.7856938],[129.2794133,35.7860723],[129.2791662,35.7864442],[129.2789751,35.7867953],[129.2787873,35.7873544],[129.2786586,35.7880382],[129.2785721,35.7885288]]},"properties":{"osm_id":143755597,"railway":"abandoned","name":"동해선","cls":"abandoned","source":"OSM Overpass 2026-09-21 (T4) — 지형도면 1~10·13~15장 벡터화로 T1 치환 예정"}},{"type":"Feature","geometry":{"type":"LineString","coordinates":[[129.2785721,35.7885288],[129.2785439,35.7886635]]},"properties":{"osm_id":143755791,"railway":"abandoned","name":"동해선","cls":"abandoned","source":"OSM Overpass 2026-09-21 (T4) — 지형도면 1~10·13~15장 벡터화로 T1 치환 예정"}},{"type":"Feature","geometry":{"type":"LineString","coordinates":[[129.2761416,35.7915923],[129.2751193,35.7924452],[129.2743461,35.7931895],[129.2739339,35.7936065],[129.2738822,35.7936588],[129.2732143,35.7943581],[129.2725881,35.7950569],[129.2720812,35.7956014],[129.2717768,35.7959578],[129.2714723,35.7962687],[129.2713312,35.7963846]]},"properties":{"osm_id":143755793,"railway":"abandoned","name":"동해선","cls":"abandoned","source":"OSM Overpass 2026-09-21 (T4) — 지형도면 1~10·13~15장 벡터화로 T1 치환 예정"}},{"type":"Feature","geometry":{"type":"LineString","coordinates":[[129.2169538,35.8662214],[129.2187989,35.8640434],[129.2189121,35.8639127],[129.2207354,35.8618088],[129.2209359,35.8615828],[129.2211458,35.8613463],[129.2212021,35.8612828],[129.2214489,35.8609524],[129.2217321,35.8605291],[129.2218931,35.8602379],[129.2220379,35.8598574],[129.2221248,35.8596481],[129.2221881,35.859377],[129.2222428,35.8590786],[129.2222643,35.8588699],[129.2222686,35.8586771],[129.2222482,35.8582916],[129.2222149,35.8580032],[129.2221774,35.8577553],[129.2221184,35.8575336],[129.2220594,35.857364],[129.2217497,35.8566553],[129.2208785,35.8547262],[129.2204923,35.8538696],[129.2204137,35.8537046],[129.2196949,35.8521263]]},"properties":{"osm_id":143755983,"railway":"abandoned","name":"동해선","cls":"abandoned","source":"OSM Overpass 2026-09-21 (T4) — 지형도면 1~10·13~15장 벡터화로 T1 치환 예정"}},{"type":"Feature","geometry":{"type":"LineString","coordinates":[[129.0536608,35.8896285],[129.0550651,35.889024],[129.0564185,35.888362],[129.0591317,35.8864586],[129.0648012,35.8824429],[129.0654263,35.8820001],[129.0666672,35.8810766],[129.0696525,35.8781724],[129.0733679,35.8746083],[129.0741696,35.8737967],[129.0788621,35.8697365],[129.0794774,35.8692334],[129.080942,35.8679679],[129.0837629,35.8655302],[129.0858383,35.8637368],[129.092705,35.85782],[129.0928726,35.8576754],[129.0946502,35.8561103],[129.0953601,35.8555558],[129.0960206,35.8550029],[129.0963352,35.8547243],[129.0970272,35.854136],[129.0982192,35.8531027],[129.0985235,35.8528427],[129.0993149,35.8521505]]},"properties":{"osm_id":153282139,"railway":"abandoned","name":"중앙선","cls":"abandoned","source":"OSM Overpass 2026-09-21 (T4) — 지형도면 1~10·13~15장 벡터화로 T1 치환 예정"}},{"type":"Feature","geometry":{"type":"LineString","coordinates":[[129.2196949,35.8521263],[129.2188258,35.8502393]]},"properties":{"osm_id":177849860,"railway":"abandoned","name":"동해선","cls":"abandoned","source":"OSM Overpass 2026-09-21 (T4) — 지형도면 1~10·13~15장 벡터화로 T1 치환 예정"}},{"type":"Feature","geometry":{"type":"LineString","coordinates":[[129.2225384,35.836625],[129.2228827,35.8365542],[129.2233649,35.8364861],[129.2257395,35.8363208],[129.2266884,35.8361703],[129.2277207,35.8358845],[129.2282467,35.8356673],[129.2287687,35.8354069],[129.2292111,35.8351387],[129.2296942,35.8347945],[129.2364428,35.8288876]]},"properties":{"osm_id":177849861,"railway":"abandoned","name":"동해선","cls":"abandoned","source":"OSM Overpass 2026-09-21 (T4) — 지형도면 1~10·13~15장 벡터화로 T1 치환 예정"}},{"type":"Feature","geometry":{"type":"LineString","coordinates":[[129.2195682,35.8476018],[129.2193292,35.847027],[129.2191797,35.8466674],[129.2191698,35.8466442],[129.2190704,35.8464122],[129.2189517,35.8461224],[129.2188975,35.845979],[129.2188558,35.8458345],[129.2188283,35.8457057],[129.2188031,35.8455712],[129.2187567,35.8452606]]},"properties":{"osm_id":177851897,"railway":"abandoned","name":"","cls":"abandoned","source":"OSM Overpass 2026-09-21 (T4) — 지형도면 1~10·13~15장 벡터화로 T1 치환 예정"}},{"type":"Feature","geometry":{"type":"LineString","coordinates":[[129.2184369,35.847293],[129.2185205,35.8469228],[129.2186174,35.8465583],[129.2186847,35.8463233],[129.2187098,35.8461988],[129.2187229,35.8460581],[129.2187213,35.8457738],[129.2187163,35.8451819],[129.2187093,35.8448843],[129.2187112,35.8442761]]},"properties":{"osm_id":177851904,"railway":"disused","name":"","cls":"abandoned","source":"OSM Overpass 2026-09-21 (T4) — 지형도면 1~10·13~15장 벡터화로 T1 치환 예정"}},{"type":"Feature","geometry":{"type":"LineString","coordinates":[[129.205522,35.8761975],[129.2049346,35.8761172],[129.2044708,35.8760216],[129.2039891,35.8758747],[129.2034554,35.8756703],[129.2030307,35.8754294],[129.2025107,35.8750313],[129.2022437,35.8747761]]},"properties":{"osm_id":177851906,"railway":"abandoned","name":"중앙선","cls":"abandoned","source":"OSM Overpass 2026-09-21 (T4) — 지형도면 1~10·13~15장 벡터화로 T1 치환 예정"}},{"type":"Feature","geometry":{"type":"LineString","coordinates":[[129.2116376,35.8720987],[129.2095785,35.8744733]]},"properties":{"osm_id":177851907,"railway":"abandoned","name":"중앙선","cls":"abandoned","source":"OSM Overpass 2026-09-21 (T4) — 지형도면 1~10·13~15장 벡터화로 T1 치환 예정"}},{"type":"Feature","geometry":{"type":"LineString","coordinates":[[129.0946502,35.8561103],[129.0951823,35.8556417],[129.0953559,35.8554899],[129.0961085,35.854832],[129.097176,35.8538513],[129.0976219,35.8534699],[129.0977975,35.8533215],[129.0983537,35.8528459],[129.0986599,35.8525947],[129.0989244,35.8523869],[129.0991428,35.8522137],[129.0993521,35.8520363]]},"properties":{"osm_id":182824946,"railway":"abandoned","name":"","cls":"abandoned","source":"OSM Overpass 2026-09-21 (T4) — 지형도면 1~10·13~15장 벡터화로 T1 치환 예정"}},{"type":"Feature","geometry":{"type":"LineString","coordinates":[[129.1000331,35.8514733],[129.09968,35.8518363]]},"properties":{"osm_id":182824947,"railway":"abandoned","name":"중앙선","cls":"abandoned","source":"OSM Overpass 2026-09-21 (T4) — 지형도면 1~10·13~15장 벡터화로 T1 치환 예정"}},{"type":"Feature","geometry":{"type":"LineString","coordinates":[[129.1023398,35.8492161],[129.1024615,35.8490824]]},"properties":{"osm_id":182824948,"railway":"abandoned","name":"중앙선","cls":"abandoned","source":"OSM Overpass 2026-09-21 (T4) — 지형도면 1~10·13~15장 벡터화로 T1 치환 예정"}},{"type":"Feature","geometry":{"type":"LineString","coordinates":[[129.0943151,35.8563307],[129.0945795,35.8561103],[129.0948911,35.8558551],[129.0951823,35.8556417]]},"properties":{"osm_id":182824953,"railway":"abandoned","name":"","cls":"abandoned","source":"OSM Overpass 2026-09-21 (T4) — 지형도면 1~10·13~15장 벡터화로 T1 치환 예정"}},{"type":"Feature","geometry":{"type":"LineString","coordinates":[[129.0997815,35.8516816],[129.099471,35.8518829],[129.0992577,35.8520354],[129.0986226,35.8525613],[129.0976525,35.8533901],[129.0957538,35.8550712],[129.0953559,35.8554899]]},"properties":{"osm_id":182824954,"railway":"abandoned","name":"","cls":"abandoned","source":"OSM Overpass 2026-09-21 (T4) — 지형도면 1~10·13~15장 벡터화로 T1 치환 예정"}},{"type":"Feature","geometry":{"type":"LineString","coordinates":[[129.1000331,35.8514733],[129.1008801,35.8507286],[129.1020866,35.8494945],[129.1023398,35.8492161]]},"properties":{"osm_id":182824955,"railway":"abandoned","name":"중앙선","cls":"abandoned","source":"OSM Overpass 2026-09-21 (T4) — 지형도면 1~10·13~15장 벡터화로 T1 치환 예정"}},{"type":"Feature","geometry":{"type":"LineString","coordinates":[[129.0988147,35.8526388],[129.0986594,35.8528054],[129.098532,35.8529399],[129.0983329,35.8531178],[129.0978329,35.8535465],[129.0973735,35.8539266]]},"properties":{"osm_id":182824956,"railway":"abandoned","name":"","cls":"abandoned","source":"OSM Overpass 2026-09-21 (T4) — 지형도면 1~10·13~15장 벡터화로 T1 치환 예정"}},{"type":"Feature","geometry":{"type":"LineString","coordinates":[[129.0993149,35.8521505],[129.0990866,35.8524001],[129.0988147,35.8526388],[129.0981136,35.8532458]]},"properties":{"osm_id":182824957,"railway":"abandoned","name":"","cls":"abandoned","source":"OSM Overpass 2026-09-21 (T4) — 지형도면 1~10·13~15장 벡터화로 T1 치환 예정"}},{"type":"Feature","geometry":{"type":"LineString","coordinates":[[129.0981136,35.8532458],[129.0975995,35.8536851],[129.097059,35.8541589],[129.0968069,35.8543792],[129.0964881,35.8546541],[129.0963799,35.8547381],[129.0962626,35.8548233],[129.0960206,35.8550029]]},"properties":{"osm_id":182824958,"railway":"abandoned","name":"","cls":"abandoned","source":"OSM Overpass 2026-09-21 (T4) — 지형도면 1~10·13~15장 벡터화로 T1 치환 예정"}},{"type":"Feature","geometry":{"type":"LineString","coordinates":[[129.1031672,35.8483003],[129.1038933,35.8474956]]},"properties":{"osm_id":200294071,"railway":"abandoned","name":"중앙선","cls":"abandoned","source":"OSM Overpass 2026-09-21 (T4) — 지형도면 1~10·13~15장 벡터화로 T1 치환 예정"}},{"type":"Feature","geometry":{"type":"LineString","coordinates":[[129.1038933,35.8474956],[129.1043975,35.8469347]]},"properties":{"osm_id":200294072,"railway":"abandoned","name":"중앙선","cls":"abandoned","source":"OSM Overpass 2026-09-21 (T4) — 지형도면 1~10·13~15장 벡터화로 T1 치환 예정"}},{"type":"Feature","geometry":{"type":"LineString","coordinates":[[129.1473301,35.8180706],[129.1482978,35.8181277],[129.1491128,35.8181594],[129.1552969,35.8188496],[129.1579742,35.8191527],[129.159507,35.8191698],[129.1603151,35.8191105],[129.1610211,35.8189897],[129.1617594,35.8188196],[129.1630121,35.8184403],[129.1637555,35.8181464],[129.1642173,35.8179419],[129.1649242,35.8175623],[129.1690533,35.8148286],[129.1701554,35.8142435],[129.1718793,35.8135491],[129.1722505,35.813413],[129.17307,35.8131519],[129.1746681,35.81268],[129.1752376,35.8125285],[129.1758288,35.8124679],[129.17642,35.8124664],[129.1777192,35.8126923],[129.1780585,35.8128163],[129.1786392,35.8130817],[129.1790241,35.813285]]},"properties":{"osm_id":200294075,"railway":"abandoned","name":"중앙선","cls":"abandoned","source":"OSM Overpass 2026-09-21 (T4) — 지형도면 1~10·13~15장 벡터화로 T1 치환 예정"}},{"type":"Feature","geometry":{"type":"LineString","coordinates":[[129.1864594,35.8187371],[129.1870118,35.820544]]},"properties":{"osm_id":463772502,"railway":"abandoned","name":"중앙선","cls":"abandoned","source":"OSM Overpass 2026-09-21 (T4) — 지형도면 1~10·13~15장 벡터화로 T1 치환 예정"}},{"type":"Feature","geometry":{"type":"LineString","coordinates":[[129.1806904,35.8142635],[129.1809798,35.8144347],[129.1830994,35.8157371],[129.1847076,35.8166936],[129.1851413,35.817014],[129.1858349,35.81772],[129.1861978,35.8182219],[129.1864594,35.8187371]]},"properties":{"osm_id":463772504,"railway":"abandoned","name":"중앙선","cls":"abandoned","source":"OSM Overpass 2026-09-21 (T4) — 지형도면 1~10·13~15장 벡터화로 T1 치환 예정"}},{"type":"Feature","geometry":{"type":"LineString","coordinates":[[129.1792919,35.8134363],[129.1806904,35.8142635]]},"properties":{"osm_id":463772509,"railway":"abandoned","name":"중앙선","cls":"abandoned","source":"OSM Overpass 2026-09-21 (T4) — 지형도면 1~10·13~15장 벡터화로 T1 치환 예정"}},{"type":"Feature","geometry":{"type":"LineString","coordinates":[[129.1791703,35.8133644],[129.1792919,35.8134363]]},"properties":{"osm_id":463772511,"railway":"abandoned","name":"중앙선","cls":"abandoned","source":"OSM Overpass 2026-09-21 (T4) — 지형도면 1~10·13~15장 벡터화로 T1 치환 예정"}},{"type":"Feature","geometry":{"type":"LineString","coordinates":[[129.1870118,35.820544],[129.187913,35.8220218],[129.1895225,35.8238165],[129.1919805,35.8266433],[129.1923135,35.827205],[129.1924714,35.8276095],[129.1925491,35.8279724],[129.1926033,35.8284375],[129.1925735,35.8288612]]},"properties":{"osm_id":463772516,"railway":"abandoned","name":"중앙선","cls":"abandoned","source":"OSM Overpass 2026-09-21 (T4) — 지형도면 1~10·13~15장 벡터화로 T1 치환 예정"}},{"type":"Feature","geometry":{"type":"LineString","coordinates":[[129.1790241,35.813285],[129.1791703,35.8133644]]},"properties":{"osm_id":463772517,"railway":"abandoned","name":"중앙선","cls":"abandoned","source":"OSM Overpass 2026-09-21 (T4) — 지형도면 1~10·13~15장 벡터화로 T1 치환 예정"}},{"type":"Feature","geometry":{"type":"LineString","coordinates":[[129.2188258,35.8502393],[129.2186259,35.849741],[129.2185072,35.8494599],[129.218461,35.8492044],[129.2184279,35.8489901],[129.2184094,35.8487991],[129.2184079,35.8478387],[129.2184077,35.8476617],[129.2184074,35.8470694],[129.2183948,35.8434861],[129.2183887,35.8430351]]},"properties":{"osm_id":585788879,"railway":"disused","name":"동해선","cls":"abandoned","source":"OSM Overpass 2026-09-21 (T4) — 지형도면 1~10·13~15장 벡터화로 T1 치환 예정"}},{"type":"Feature","geometry":{"type":"LineString","coordinates":[[129.2117736,35.8721745],[129.2137458,35.8698948],[129.2148115,35.8686775],[129.2156448,35.8677256],[129.2169538,35.8662214]]},"properties":{"osm_id":585788880,"railway":"abandoned","name":"동해선","cls":"abandoned","source":"OSM Overpass 2026-09-21 (T4) — 지형도면 1~10·13~15장 벡터화로 T1 치환 예정"}},{"type":"Feature","geometry":{"type":"LineString","coordinates":[[129.09968,35.8518363],[129.0993149,35.8521505]]},"properties":{"osm_id":585788881,"railway":"abandoned","name":"중앙선","cls":"abandoned","source":"OSM Overpass 2026-09-21 (T4) — 지형도면 1~10·13~15장 벡터화로 T1 치환 예정"}},{"type":"Feature","geometry":{"type":"LineString","coordinates":[[129.0993521,35.8520363],[129.0997815,35.8516816],[129.1000331,35.8514733]]},"properties":{"osm_id":585788893,"railway":"abandoned","name":"","cls":"abandoned","source":"OSM Overpass 2026-09-21 (T4) — 지형도면 1~10·13~15장 벡터화로 T1 치환 예정"}},{"type":"Feature","geometry":{"type":"LineString","coordinates":[[129.1003224,35.8512896],[129.0999434,35.8516142],[129.09968,35.8518363]]},"properties":{"osm_id":585788894,"railway":"abandoned","name":"","cls":"abandoned","source":"OSM Overpass 2026-09-21 (T4) — 지형도면 1~10·13~15장 벡터화로 T1 치환 예정"}},{"type":"Feature","geometry":{"type":"LineString","coordinates":[[129.2020713,35.8748497],[129.2022986,35.8750783],[129.2025358,35.8752951],[129.203052,35.8756966],[129.2073732,35.8783936],[129.2077525,35.8786303],[129.2091527,35.8794956],[129.2108473,35.8805504],[129.2111544,35.880784],[129.2115098,35.8810804],[129.2118656,35.8814221],[129.212125,35.8816971],[129.2126268,35.8822469],[129.2127412,35.8823769],[129.213772,35.8835652]]},"properties":{"osm_id":636502847,"railway":"disused","name":"금장삼각선","cls":"abandoned","source":"OSM Overpass 2026-09-21 (T4) — 지형도면 1~10·13~15장 벡터화로 T1 치환 예정"}},{"type":"Feature","geometry":{"type":"LineString","coordinates":[[129.199508,35.8632412],[129.1998602,35.865071],[129.1999366,35.8654682],[129.2002334,35.8670957],[129.2010859,35.8714861],[129.2011929,35.8720436],[129.2012995,35.8725991],[129.2013802,35.8730193]]},"properties":{"osm_id":791380044,"railway":"disused","name":"중앙선","cls":"abandoned","source":"OSM Overpass 2026-09-21 (T4) — 지형도면 1~10·13~15장 벡터화로 T1 치환 예정"}},{"type":"Feature","geometry":{"type":"LineString","coordinates":[[129.1925317,35.8413477],[129.1927249,35.8421806]]},"properties":{"osm_id":791380045,"railway":"abandoned","name":"중앙선","cls":"abandoned","source":"OSM Overpass 2026-09-21 (T4) — 지형도면 1~10·13~15장 벡터화로 T1 치환 예정"}},{"type":"Feature","geometry":{"type":"LineString","coordinates":[[129.2183674,35.8419479],[129.2183699,35.8417686],[129.2183752,35.841125],[129.2183719,35.8408858],[129.2184031,35.8405894],[129.2184785,35.8401883],[129.2185531,35.839878],[129.2187722,35.8392638],[129.218917,35.8390116],[129.2192067,35.8385985],[129.2195791,35.8381776],[129.2198282,35.8379292],[129.2200368,35.8377552],[129.2202206,35.8376156],[129.2202747,35.8375766]]},"properties":{"osm_id":1000945165,"railway":"abandoned","name":"동해선","cls":"abandoned","source":"OSM Overpass 2026-09-21 (T4) — 지형도면 1~10·13~15장 벡터화로 T1 치환 예정"}},{"type":"Feature","geometry":{"type":"LineString","coordinates":[[129.2202747,35.8375766],[129.2203654,35.8375113]]},"properties":{"osm_id":1000945166,"railway":"abandoned","name":"동해선","cls":"abandoned","source":"OSM Overpass 2026-09-21 (T4) — 지형도면 1~10·13~15장 벡터화로 T1 치환 예정"}},{"type":"Feature","geometry":{"type":"LineString","coordinates":[[129.2203654,35.8375113],[129.2205693,35.8373677],[129.2208911,35.8371894],[129.2211379,35.837072],[129.2214061,35.8369633],[129.2218406,35.8368111],[129.2222805,35.836685],[129.2223185,35.8366753]]},"properties":{"osm_id":1000945167,"railway":"abandoned","name":"동해선","cls":"abandoned","source":"OSM Overpass 2026-09-21 (T4) — 지형도면 1~10·13~15장 벡터화로 T1 치환 예정"}},{"type":"Feature","geometry":{"type":"LineString","coordinates":[[129.2223185,35.8366753],[129.2225384,35.836625]]},"properties":{"osm_id":1000945168,"railway":"abandoned","name":"동해선","cls":"abandoned","source":"OSM Overpass 2026-09-21 (T4) — 지형도면 1~10·13~15장 벡터화로 T1 치환 예정"}},{"type":"Feature","geometry":{"type":"LineString","coordinates":[[129.2332732,35.9616351],[129.2335633,35.9626311],[129.233578,35.9627106],[129.233608,35.9628926],[129.2336409,35.9632031],[129.2336373,35.9636042],[129.2335618,35.9639174],[129.2333836,35.964403],[129.2328763,35.9656593],[129.2325818,35.9661582],[129.2322234,35.9666374],[129.2315545,35.967464],[129.230775,35.96851],[129.2304341,35.969162],[129.2303158,35.9695265],[129.2300586,35.9720776],[129.2299263,35.9726163],[129.2297972,35.97294],[129.2295929,35.9733125],[129.2287341,35.97487],[129.2285588,35.975312],[129.2284187,35.9757278],[129.2282689,35.976327],[129.2281579,35.9771054],[129.2281582,35.9778851],[129.2282284,35.9785128],[129.228626,35.9800577],[129.2295593,35.9834449]]},"properties":{"osm_id":1002195533,"railway":"abandoned","name":"동해선","cls":"abandoned","source":"OSM Overpass 2026-09-21 (T4) — 지형도면 1~10·13~15장 벡터화로 T1 치환 예정"}},{"type":"Feature","geometry":{"type":"LineString","coordinates":[[129.3113429,35.7650873],[129.3109199,35.7655713],[129.3102873,35.7662561],[129.3097171,35.7668609],[129.309701,35.7668771],[129.3085159,35.7680672],[129.3081343,35.7685224],[129.3070993,35.7693121],[129.3061223,35.7699854],[129.3041447,35.7712541],[129.3030048,35.7720282]]},"properties":{"osm_id":1002517390,"railway":"abandoned","name":"동해선","cls":"abandoned","source":"OSM Overpass 2026-09-21 (T4) — 지형도면 1~10·13~15장 벡터화로 T1 치환 예정"}},{"type":"Feature","geometry":{"type":"LineString","coordinates":[[129.1927249,35.8421806],[129.1929284,35.842879],[129.1931643,35.8435443],[129.1935021,35.844379],[129.1941801,35.8456726]]},"properties":{"osm_id":1009487899,"railway":"abandoned","name":"중앙선","cls":"abandoned","source":"OSM Overpass 2026-09-21 (T4) — 지형도면 1~10·13~15장 벡터화로 T1 치환 예정"}},{"type":"Feature","geometry":{"type":"LineString","coordinates":[[129.19421,35.845731],[129.1947716,35.8468909],[129.1951913,35.8478388],[129.1954112,35.8482272],[129.1964704,35.8503511],[129.1979388,35.8531992],[129.1980923,35.8536153],[129.1981922,35.8542419],[129.1982194,35.8548281],[129.19824,35.8562502],[129.1983656,35.8572056],[129.1984787,35.8579128],[129.1986042,35.8585483]]},"properties":{"osm_id":1009487901,"railway":"abandoned","name":"중앙선","cls":"abandoned","source":"OSM Overpass 2026-09-21 (T4) — 지형도면 1~10·13~15장 벡터화로 T1 치환 예정"}},{"type":"Feature","geometry":{"type":"LineString","coordinates":[[129.1986042,35.8585483],[129.1986299,35.8587128]]},"properties":{"osm_id":1009487906,"railway":"abandoned","name":"중앙선","cls":"abandoned","source":"OSM Overpass 2026-09-21 (T4) — 지형도면 1~10·13~15장 벡터화로 T1 치환 예정"}},{"type":"Feature","geometry":{"type":"LineString","coordinates":[[129.1098498,35.8403618],[129.1102085,35.839927],[129.1109627,35.8390236],[129.1116945,35.8380911],[129.1129758,35.8364984],[129.1139095,35.8353282],[129.1153514,35.8335735],[129.11603,35.8329299],[129.1166564,35.8323747],[129.1176845,35.8316271],[129.1194808,35.8304544],[129.1197195,35.8302827]]},"properties":{"osm_id":1116477053,"railway":"abandoned","name":"중앙선","cls":"abandoned","source":"OSM Overpass 2026-09-21 (T4) — 지형도면 1~10·13~15장 벡터화로 T1 치환 예정"}},{"type":"Feature","geometry":{"type":"LineString","coordinates":[[129.1197195,35.8302827],[129.120157,35.8299928]]},"properties":{"osm_id":1116477054,"railway":"abandoned","name":"중앙선","cls":"abandoned","source":"OSM Overpass 2026-09-21 (T4) — 지형도면 1~10·13~15장 벡터화로 T1 치환 예정"}},{"type":"Feature","geometry":{"type":"LineString","coordinates":[[129.120157,35.8299928],[129.1216367,35.8289456],[129.1237464,35.8275902],[129.1243127,35.8271794],[129.1265627,35.8256233],[129.1271568,35.8251572],[129.1295055,35.8235576],[129.1304247,35.8229094],[129.1342188,35.8203341],[129.1348727,35.8199721],[129.1356163,35.819642],[129.1365793,35.8193328],[129.1375532,35.8191068],[129.1401205,35.8187837],[129.1432573,35.8184797]]},"properties":{"osm_id":1116477055,"railway":"abandoned","name":"중앙선","cls":"abandoned","source":"OSM Overpass 2026-09-21 (T4) — 지형도면 1~10·13~15장 벡터화로 T1 치환 예정"}},{"type":"Feature","geometry":{"type":"LineString","coordinates":[[129.1432573,35.8184797],[129.1436918,35.8184309]]},"properties":{"osm_id":1116477058,"railway":"abandoned","name":"중앙선","cls":"abandoned","source":"OSM Overpass 2026-09-21 (T4) — 지형도면 1~10·13~15장 벡터화로 T1 치환 예정"}},{"type":"Feature","geometry":{"type":"LineString","coordinates":[[129.1024615,35.8490824],[129.1030942,35.8483812]]},"properties":{"osm_id":1116477059,"railway":"abandoned","name":"중앙선","cls":"abandoned","source":"OSM Overpass 2026-09-21 (T4) — 지형도면 1~10·13~15장 벡터화로 T1 치환 예정"}},{"type":"Feature","geometry":{"type":"LineString","coordinates":[[129.1030942,35.8483812],[129.1031672,35.8483003]]},"properties":{"osm_id":1116477060,"railway":"abandoned","name":"중앙선","cls":"abandoned","source":"OSM Overpass 2026-09-21 (T4) — 지형도면 1~10·13~15장 벡터화로 T1 치환 예정"}},{"type":"Feature","geometry":{"type":"LineString","coordinates":[[129.3118912,35.7643695],[129.3118652,35.7644145],[129.3114354,35.7649815],[129.3114128,35.7650074]]},"properties":{"osm_id":1166282150,"railway":"abandoned","name":"동해선","cls":"abandoned","source":"OSM Overpass 2026-09-21 (T4) — 지형도면 1~10·13~15장 벡터화로 T1 치환 예정"}},{"type":"Feature","geometry":{"type":"LineString","coordinates":[[129.3114128,35.7650074],[129.3113429,35.7650873]]},"properties":{"osm_id":1166282151,"railway":"abandoned","name":"동해선","cls":"abandoned","source":"OSM Overpass 2026-09-21 (T4) — 지형도면 1~10·13~15장 벡터화로 T1 치환 예정"}},{"type":"Feature","geometry":{"type":"LineString","coordinates":[[129.2437836,35.8197668],[129.2426369,35.8201148],[129.2421475,35.8203524],[129.2419061,35.8205068],[129.2417263,35.8206357],[129.2414676,35.8208515],[129.241234,35.8211278],[129.2409888,35.8215051],[129.2407682,35.8218826],[129.2393441,35.8245287],[129.2384202,35.8261076],[129.2377146,35.8273652],[129.2374697,35.8277515],[129.237139,35.8282033],[129.2369954,35.8283577],[129.2367567,35.8286173]]},"properties":{"osm_id":1168581845,"railway":"abandoned","name":"동해선","cls":"abandoned","source":"OSM Overpass 2026-09-21 (T4) — 지형도면 1~10·13~15장 벡터화로 T1 치환 예정"}},{"type":"Feature","geometry":{"type":"LineString","coordinates":[[129.243898,35.8197317],[129.2437836,35.8197668]]},"properties":{"osm_id":1168581846,"railway":"abandoned","name":"구 동해선","cls":"abandoned","source":"OSM Overpass 2026-09-21 (T4) — 지형도면 1~10·13~15장 벡터화로 T1 치환 예정"}},{"type":"Feature","geometry":{"type":"LineString","coordinates":[[129.2498797,35.8178845],[129.2489931,35.818196],[129.2473537,35.818702],[129.2440118,35.8196935],[129.243898,35.8197317]]},"properties":{"osm_id":1168581847,"railway":"abandoned","name":"구 동해선","cls":"abandoned","source":"OSM Overpass 2026-09-21 (T4) — 지형도면 1~10·13~15장 벡터화로 T1 치환 예정"}},{"type":"Feature","geometry":{"type":"LineString","coordinates":[[129.2499994,35.8178304],[129.2498797,35.8178845]]},"properties":{"osm_id":1168581848,"railway":"abandoned","name":"구 동해선","cls":"abandoned","source":"OSM Overpass 2026-09-21 (T4) — 지형도면 1~10·13~15장 벡터화로 T1 치환 예정"}},{"type":"Feature","geometry":{"type":"LineString","coordinates":[[129.2513558,35.816887],[129.2507577,35.8173801],[129.2502046,35.8177232],[129.2499994,35.8178304]]},"properties":{"osm_id":1168581869,"railway":"abandoned","name":"구 동해선","cls":"abandoned","source":"OSM Overpass 2026-09-21 (T4) — 지형도면 1~10·13~15장 벡터화로 T1 치환 예정"}},{"type":"Feature","geometry":{"type":"LineString","coordinates":[[129.2514352,35.8168118],[129.2513558,35.816887]]},"properties":{"osm_id":1168581870,"railway":"abandoned","name":"동해선","cls":"abandoned","source":"OSM Overpass 2026-09-21 (T4) — 지형도면 1~10·13~15장 벡터화로 T1 치환 예정"}},{"type":"Feature","geometry":{"type":"LineString","coordinates":[[129.2546473,35.8140441],[129.2530997,35.8152752],[129.2514789,35.8167703],[129.2514352,35.8168118]]},"properties":{"osm_id":1168581871,"railway":"abandoned","name":"동해선","cls":"abandoned","source":"OSM Overpass 2026-09-21 (T4) — 지형도면 1~10·13~15장 벡터화로 T1 치환 예정"}},{"type":"Feature","geometry":{"type":"LineString","coordinates":[[129.2547557,35.8139583],[129.2546473,35.8140441]]},"properties":{"osm_id":1168581872,"railway":"abandoned","name":"동해선","cls":"abandoned","source":"OSM Overpass 2026-09-21 (T4) — 지형도면 1~10·13~15장 벡터화로 T1 치환 예정"}},{"type":"Feature","geometry":{"type":"LineString","coordinates":[[129.2583542,35.8108201],[129.257703,35.8115221],[129.2570888,35.8120697],[129.2559937,35.8129494],[129.2547557,35.8139583]]},"properties":{"osm_id":1168581904,"railway":"abandoned","name":"동해선","cls":"abandoned","source":"OSM Overpass 2026-09-21 (T4) — 지형도면 1~10·13~15장 벡터화로 T1 치환 예정"}},{"type":"Feature","geometry":{"type":"LineString","coordinates":[[129.2597617,35.8090054],[129.2583542,35.8108201]]},"properties":{"osm_id":1168581908,"railway":"abandoned","name":"동해선","cls":"abandoned","source":"OSM Overpass 2026-09-21 (T4) — 지형도면 1~10·13~15장 벡터화로 T1 치환 예정"}},{"type":"Feature","geometry":{"type":"LineString","coordinates":[[129.2598272,35.808922],[129.2597617,35.8090054]]},"properties":{"osm_id":1168581909,"railway":"abandoned","name":"동해선","cls":"abandoned","source":"OSM Overpass 2026-09-21 (T4) — 지형도면 1~10·13~15장 벡터화로 T1 치환 예정"}},{"type":"Feature","geometry":{"type":"LineString","coordinates":[[129.2364428,35.8288876],[129.2367567,35.8286173]]},"properties":{"osm_id":1170868685,"railway":"abandoned","name":"동해선","cls":"abandoned","source":"OSM Overpass 2026-09-21 (T4) — 지형도면 1~10·13~15장 벡터화로 T1 치환 예정"}},{"type":"Feature","geometry":{"type":"LineString","coordinates":[[129.2661895,35.8008639],[129.2657057,35.8014056],[129.2646589,35.8027437],[129.2631474,35.8047045],[129.2618869,35.8063094],[129.261167,35.8072259],[129.2598272,35.808922]]},"properties":{"osm_id":1175050861,"railway":"abandoned","name":"동해선","cls":"abandoned","source":"OSM Overpass 2026-09-21 (T4) — 지형도면 1~10·13~15장 벡터화로 T1 치환 예정"}},{"type":"Feature","geometry":{"type":"LineString","coordinates":[[129.2684111,35.7985904],[129.2683593,35.7986346]]},"properties":{"osm_id":1175050862,"railway":"abandoned","name":"동해선","cls":"abandoned","source":"OSM Overpass 2026-09-21 (T4) — 지형도면 1~10·13~15장 벡터화로 T1 치환 예정"}},{"type":"Feature","geometry":{"type":"LineString","coordinates":[[129.2712827,35.7964245],[129.2708558,35.7967752],[129.2702431,35.7972125],[129.2697704,35.7975551],[129.2688856,35.7982109],[129.2685698,35.7984635],[129.2684111,35.7985904]]},"properties":{"osm_id":1175050863,"railway":"abandoned","name":"동해선","cls":"abandoned","source":"OSM Overpass 2026-09-21 (T4) — 지형도면 1~10·13~15장 벡터화로 T1 치환 예정"}},{"type":"Feature","geometry":{"type":"LineString","coordinates":[[129.2713312,35.7963846],[129.2712827,35.7964245]]},"properties":{"osm_id":1175050864,"railway":"abandoned","name":"동해선","cls":"abandoned","source":"OSM Overpass 2026-09-21 (T4) — 지형도면 1~10·13~15장 벡터화로 T1 치환 예정"}},{"type":"Feature","geometry":{"type":"LineString","coordinates":[[129.2785439,35.7886635],[129.278405,35.7891241],[129.2781284,35.7896541],[129.2777013,35.7901977],[129.2776245,35.7902793]]},"properties":{"osm_id":1175050875,"railway":"abandoned","name":"동해선","cls":"abandoned","source":"OSM Overpass 2026-09-21 (T4) — 지형도면 1~10·13~15장 벡터화로 T1 치환 예정"}},{"type":"Feature","geometry":{"type":"LineString","coordinates":[[129.2776245,35.7902793],[129.2775429,35.7903799]]},"properties":{"osm_id":1175050876,"railway":"abandoned","name":"동해선","cls":"abandoned","source":"OSM Overpass 2026-09-21 (T4) — 지형도면 1~10·13~15장 벡터화로 T1 치환 예정"}},{"type":"Feature","geometry":{"type":"LineString","coordinates":[[129.2775429,35.7903799],[129.2772865,35.7906386],[129.2762111,35.7915343]]},"properties":{"osm_id":1175050899,"railway":"abandoned","name":"동해선","cls":"abandoned","source":"OSM Overpass 2026-09-21 (T4) — 지형도면 1~10·13~15장 벡터화로 T1 치환 예정"}},{"type":"Feature","geometry":{"type":"LineString","coordinates":[[129.2762111,35.7915343],[129.2761416,35.7915923]]},"properties":{"osm_id":1175050900,"railway":"abandoned","name":"동해선","cls":"abandoned","source":"OSM Overpass 2026-09-21 (T4) — 지형도면 1~10·13~15장 벡터화로 T1 치환 예정"}},{"type":"Feature","geometry":{"type":"LineString","coordinates":[[129.1941801,35.8456726],[129.19421,35.845731]]},"properties":{"osm_id":1196816800,"railway":"abandoned","name":"중앙선","cls":"abandoned","source":"OSM Overpass 2026-09-21 (T4) — 지형도면 1~10·13~15장 벡터화로 T1 치환 예정"}},{"type":"Feature","geometry":{"type":"LineString","coordinates":[[129.1996752,35.8643751],[129.1997461,35.8647533],[129.1999626,35.8658575],[129.2010724,35.8716657],[129.2011449,35.8720452],[129.2012499,35.872603],[129.2013282,35.8730473]]},"properties":{"osm_id":1238003462,"railway":"disused","name":"금장삼각선","cls":"abandoned","source":"OSM Overpass 2026-09-21 (T4) — 지형도면 1~10·13~15장 벡터화로 T1 치환 예정"}},{"type":"Feature","geometry":{"type":"LineString","coordinates":[[129.2016592,35.8741789],[129.2018629,35.8745488],[129.2020713,35.8748497]]},"properties":{"osm_id":1238003463,"railway":"disused","name":"금장삼각선","cls":"abandoned","source":"OSM Overpass 2026-09-21 (T4) — 지형도면 1~10·13~15장 벡터화로 T1 치환 예정"}},{"type":"Feature","geometry":{"type":"LineString","coordinates":[[129.2017548,35.8741082],[129.2016051,35.8738097]]},"properties":{"osm_id":1238003466,"railway":"abandoned","name":"중앙선","cls":"abandoned","source":"OSM Overpass 2026-09-21 (T4) — 지형도면 1~10·13~15장 벡터화로 T1 치환 예정"}},{"type":"Feature","geometry":{"type":"LineString","coordinates":[[129.2022437,35.8747761],[129.202028,35.8745209],[129.2017548,35.8741082]]},"properties":{"osm_id":1238003467,"railway":"abandoned","name":"중앙선","cls":"abandoned","source":"OSM Overpass 2026-09-21 (T4) — 지형도면 1~10·13~15장 벡터화로 T1 치환 예정"}},{"type":"Feature","geometry":{"type":"LineString","coordinates":[[129.2319798,35.9351572],[129.2320462,35.9354025]]},"properties":{"osm_id":1238003483,"railway":"abandoned","name":"동해선","cls":"abandoned","source":"OSM Overpass 2026-09-21 (T4) — 지형도면 1~10·13~15장 벡터화로 T1 치환 예정"}},{"type":"Feature","geometry":{"type":"LineString","coordinates":[[129.2180887,35.888322],[129.2184684,35.8887271],[129.2186956,35.8889464],[129.218951,35.8891441],[129.219216,35.8893165],[129.2196151,35.8895175],[129.2223809,35.8905817]]},"properties":{"osm_id":1292590966,"railway":"abandoned","name":"동해선","cls":"abandoned","source":"OSM Overpass 2026-09-21 (T4) — 지형도면 1~10·13~15장 벡터화로 T1 치환 예정"}},{"type":"Feature","geometry":{"type":"LineString","coordinates":[[129.2223809,35.8905817],[129.2225623,35.8906454]]},"properties":{"osm_id":1292590967,"railway":"abandoned","name":"동해선","cls":"abandoned","source":"OSM Overpass 2026-09-21 (T4) — 지형도면 1~10·13~15장 벡터화로 T1 치환 예정"}},{"type":"Feature","geometry":{"type":"LineString","coordinates":[[129.2014308,35.873245],[129.2015112,35.8735447],[129.2016051,35.8738097]]},"properties":{"osm_id":1331285223,"railway":"abandoned","name":"중앙선","cls":"abandoned","source":"OSM Overpass 2026-09-21 (T4) — 지형도면 1~10·13~15장 벡터화로 T1 치환 예정"}},{"type":"Feature","geometry":{"type":"LineString","coordinates":[[129.2013802,35.8730193],[129.2014308,35.873245]]},"properties":{"osm_id":1331285224,"railway":"disused","name":"중앙선","cls":"abandoned","source":"OSM Overpass 2026-09-21 (T4) — 지형도면 1~10·13~15장 벡터화로 T1 치환 예정"}},{"type":"Feature","geometry":{"type":"LineString","coordinates":[[129.2095785,35.8744733],[129.2095507,35.874503],[129.2091999,35.8748772],[129.2089268,35.875143],[129.2087338,35.8753049],[129.2085427,35.8754425],[129.2082987,35.875579],[129.208002,35.8757228],[129.2076686,35.8758662],[129.2073475,35.8759776]]},"properties":{"osm_id":1331500609,"railway":"abandoned","name":"중앙선","cls":"abandoned","source":"OSM Overpass 2026-09-21 (T4) — 지형도면 1~10·13~15장 벡터화로 T1 치환 예정"}},{"type":"Feature","geometry":{"type":"LineString","coordinates":[[129.2073475,35.8759776],[129.2070234,35.8760404],[129.2066737,35.8760952],[129.2062646,35.8761498],[129.2057953,35.8761807],[129.205522,35.8761975]]},"properties":{"osm_id":1331500611,"railway":"abandoned","name":"중앙선","cls":"abandoned","source":"OSM Overpass 2026-09-21 (T4) — 지형도면 1~10·13~15장 벡터화로 T1 치환 예정"}},{"type":"Feature","geometry":{"type":"LineString","coordinates":[[129.1097041,35.8405266],[129.1098498,35.8403618]]},"properties":{"osm_id":1342047557,"railway":"abandoned","name":"중앙선","cls":"abandoned","source":"OSM Overpass 2026-09-21 (T4) — 지형도면 1~10·13~15장 벡터화로 T1 치환 예정"}},{"type":"Feature","geometry":{"type":"LineString","coordinates":[[129.1043975,35.8469347],[129.1057853,35.8453389],[129.1062883,35.8447498],[129.1067732,35.8441588],[129.1078517,35.8428319],[129.1087563,35.8417325],[129.1097041,35.8405266]]},"properties":{"osm_id":1342047558,"railway":"abandoned","name":"중앙선","cls":"abandoned","source":"OSM Overpass 2026-09-21 (T4) — 지형도면 1~10·13~15장 벡터화로 T1 치환 예정"}},{"type":"Feature","geometry":{"type":"LineString","coordinates":[[129.1999366,35.8654682],[129.2000264,35.8658291],[129.2000632,35.8659552],[129.2002879,35.8667237],[129.2003696,35.8670901],[129.2007103,35.8688938],[129.200931,35.8700623],[129.2009905,35.8704464],[129.2010272,35.8707607],[129.2010441,35.8709578],[129.2010583,35.8711372],[129.2010859,35.8714861]]},"properties":{"osm_id":1467849722,"railway":"disused","name":"","cls":"abandoned","source":"OSM Overpass 2026-09-21 (T4) — 지형도면 1~10·13~15장 벡터화로 T1 치환 예정"}},{"type":"Feature","geometry":{"type":"LineString","coordinates":[[129.2000632,35.8659552],[129.2002395,35.8664464],[129.2003344,35.8666892],[129.2004728,35.86716],[129.2007971,35.8688798],[129.2010211,35.8700682],[129.2010445,35.8702491],[129.2010648,35.8704707],[129.2010583,35.8711372]]},"properties":{"osm_id":1467849723,"railway":"disused","name":"","cls":"abandoned","source":"OSM Overpass 2026-09-21 (T4) — 지형도면 1~10·13~15장 벡터화로 T1 치환 예정"}},{"type":"Feature","geometry":{"type":"LineString","coordinates":[[129.2012995,35.8725991],[129.2011449,35.8720452]]},"properties":{"osm_id":1467849724,"railway":"abandoned","name":"","cls":"abandoned","source":"OSM Overpass 2026-09-21 (T4) — 지형도면 1~10·13~15장 벡터화로 T1 치환 예정"}},{"type":"Feature","geometry":{"type":"LineString","coordinates":[[129.2011929,35.8720436],[129.2012499,35.872603]]},"properties":{"osm_id":1467849725,"railway":"abandoned","name":"","cls":"abandoned","source":"OSM Overpass 2026-09-21 (T4) — 지형도면 1~10·13~15장 벡터화로 T1 치환 예정"}},{"type":"Feature","geometry":{"type":"LineString","coordinates":[[129.1998602,35.865071],[129.1996752,35.8643751]]},"properties":{"osm_id":1467849726,"railway":"abandoned","name":"","cls":"abandoned","source":"OSM Overpass 2026-09-21 (T4) — 지형도면 1~10·13~15장 벡터화로 T1 치환 예정"}},{"type":"Feature","geometry":{"type":"LineString","coordinates":[[129.1999626,35.8658575],[129.200013,35.8662454],[129.2001231,35.8674803],[129.2001711,35.8678109],[129.200581,35.8699369],[129.2006719,35.8703032],[129.2008942,35.8710778],[129.2010724,35.8716657]]},"properties":{"osm_id":1467849727,"railway":"disused","name":"","cls":"abandoned","source":"OSM Overpass 2026-09-21 (T4) — 지형도면 1~10·13~15장 벡터화로 T1 치환 예정"}},{"type":"Feature","geometry":{"type":"LineString","coordinates":[[129.2013704,35.8732435],[129.2014433,35.8735962],[129.2015453,35.8739034],[129.2016592,35.8741789]]},"properties":{"osm_id":1467849728,"railway":"disused","name":"금장삼각선","cls":"abandoned","source":"OSM Overpass 2026-09-21 (T4) — 지형도면 1~10·13~15장 벡터화로 T1 치환 예정"}},{"type":"Feature","geometry":{"type":"LineString","coordinates":[[129.2013282,35.8730473],[129.2013704,35.8732435]]},"properties":{"osm_id":1467849729,"railway":"disused","name":"금장삼각선","cls":"abandoned","source":"OSM Overpass 2026-09-21 (T4) — 지형도면 1~10·13~15장 벡터화로 T1 치환 예정"}},{"type":"Feature","geometry":{"type":"LineString","coordinates":[[129.2127412,35.8823769],[129.2129258,35.8826159],[129.213014,35.8827437],[129.2132006,35.8830137],[129.2135435,35.8834733],[129.2138098,35.8837654]]},"properties":{"osm_id":1467849730,"railway":"abandoned","name":"","cls":"abandoned","source":"OSM Overpass 2026-09-21 (T4) — 지형도면 1~10·13~15장 벡터화로 T1 치환 예정"}},{"type":"Feature","geometry":{"type":"LineString","coordinates":[[129.213014,35.8827437],[129.2132225,35.8831173],[129.2133486,35.8833073],[129.2135095,35.8835024],[129.213895,35.8839343]]},"properties":{"osm_id":1467849731,"railway":"abandoned","name":"","cls":"abandoned","source":"OSM Overpass 2026-09-21 (T4) — 지형도면 1~10·13~15장 벡터화로 T1 치환 예정"}},{"type":"Feature","geometry":{"type":"LineString","coordinates":[[129.2127682,35.8823431],[129.2131644,35.8827468],[129.2135994,35.8831706],[129.2137171,35.8832881]]},"properties":{"osm_id":1467849732,"railway":"abandoned","name":"","cls":"abandoned","source":"OSM Overpass 2026-09-21 (T4) — 지형도면 1~10·13~15장 벡터화로 T1 치환 예정"}},{"type":"Feature","geometry":{"type":"LineString","coordinates":[[129.2131644,35.8827468],[129.2135978,35.8830873]]},"properties":{"osm_id":1467849733,"railway":"abandoned","name":"","cls":"abandoned","source":"OSM Overpass 2026-09-21 (T4) — 지형도면 1~10·13~15장 벡터화로 T1 치환 예정"}},{"type":"Feature","geometry":{"type":"LineString","coordinates":[[129.2126695,35.8822283],[129.2123857,35.8819514],[129.212125,35.8816971]]},"properties":{"osm_id":1467849734,"railway":"abandoned","name":"","cls":"abandoned","source":"OSM Overpass 2026-09-21 (T4) — 지형도면 1~10·13~15장 벡터화로 T1 치환 예정"}},{"type":"Feature","geometry":{"type":"LineString","coordinates":[[129.2121594,35.8816791],[129.2123857,35.8819514],[129.2126268,35.8822469]]},"properties":{"osm_id":1467849735,"railway":"abandoned","name":"","cls":"abandoned","source":"OSM Overpass 2026-09-21 (T4) — 지형도면 1~10·13~15장 벡터화로 T1 치환 예정"}},{"type":"Feature","geometry":{"type":"LineString","coordinates":[[129.1271568,35.8251572],[129.1251985,35.8264281],[129.1242254,35.8270982],[129.1216367,35.8289456]]},"properties":{"osm_id":1467849746,"railway":"abandoned","name":"","cls":"abandoned","source":"OSM Overpass 2026-09-21 (T4) — 지형도면 1~10·13~15장 벡터화로 T1 치환 예정"}},{"type":"Feature","geometry":{"type":"LineString","coordinates":[[129.2152256,35.8853502],[129.2145714,35.8846211]]},"properties":{"osm_id":1467849752,"railway":"abandoned","name":"","cls":"abandoned","source":"OSM Overpass 2026-09-21 (T4) — 지형도면 1~10·13~15장 벡터화로 T1 치환 예정"}},{"type":"Feature","geometry":{"type":"LineString","coordinates":[[129.2151925,35.8853704],[129.214681,35.8848063]]},"properties":{"osm_id":1467849753,"railway":"abandoned","name":"","cls":"abandoned","source":"OSM Overpass 2026-09-21 (T4) — 지형도면 1~10·13~15장 벡터화로 T1 치환 예정"}},{"type":"Feature","geometry":{"type":"LineString","coordinates":[[129.2153793,35.8853504],[129.2145409,35.8844201]]},"properties":{"osm_id":1467849754,"railway":"abandoned","name":"","cls":"abandoned","source":"OSM Overpass 2026-09-21 (T4) — 지형도면 1~10·13~15장 벡터화로 T1 치환 예정"}},{"type":"Feature","geometry":{"type":"LineString","coordinates":[[129.2154155,35.8853346],[129.2145508,35.884368]]},"properties":{"osm_id":1467849755,"railway":"abandoned","name":"","cls":"abandoned","source":"OSM Overpass 2026-09-21 (T4) — 지형도면 1~10·13~15장 벡터화로 T1 치환 예정"}},{"type":"Feature","geometry":{"type":"LineString","coordinates":[[129.2155954,35.8853658],[129.2145244,35.8841698]]},"properties":{"osm_id":1467849756,"railway":"abandoned","name":"","cls":"abandoned","source":"OSM Overpass 2026-09-21 (T4) — 지형도면 1~10·13~15장 벡터화로 T1 치환 예정"}},{"type":"Feature","geometry":{"type":"LineString","coordinates":[[129.2156878,35.8854006],[129.2144858,35.8840588]]},"properties":{"osm_id":1467849757,"railway":"abandoned","name":"","cls":"abandoned","source":"OSM Overpass 2026-09-21 (T4) — 지형도면 1~10·13~15장 벡터화로 T1 치환 예정"}},{"type":"Feature","geometry":{"type":"LineString","coordinates":[[129.2145671,35.8840921],[129.215763,35.885421]]},"properties":{"osm_id":1467849758,"railway":"abandoned","name":"","cls":"abandoned","source":"OSM Overpass 2026-09-21 (T4) — 지형도면 1~10·13~15장 벡터화로 T1 치환 예정"}},{"type":"Feature","geometry":{"type":"LineString","coordinates":[[129.2146272,35.8840833],[129.2157995,35.8853949]]},"properties":{"osm_id":1467849759,"railway":"abandoned","name":"","cls":"abandoned","source":"OSM Overpass 2026-09-21 (T4) — 지형도면 1~10·13~15장 벡터화로 T1 치환 예정"}},{"type":"Feature","geometry":{"type":"LineString","coordinates":[[129.2156969,35.8857036],[129.2174066,35.8876245],[129.217759,35.8879928],[129.2180887,35.888322]]},"properties":{"osm_id":1467849760,"railway":"disused","name":"","cls":"abandoned","source":"OSM Overpass 2026-09-21 (T4) — 지형도면 1~10·13~15장 벡터화로 T1 치환 예정"}},{"type":"Feature","geometry":{"type":"LineString","coordinates":[[129.2158704,35.8856895],[129.2168371,35.8867583],[129.2171572,35.8871469],[129.2175505,35.8876837],[129.2178342,35.8880317]]},"properties":{"osm_id":1467849761,"railway":"disused","name":"","cls":"abandoned","source":"OSM Overpass 2026-09-21 (T4) — 지형도면 1~10·13~15장 벡터화로 T1 치환 예정"}},{"type":"Feature","geometry":{"type":"LineString","coordinates":[[129.2161068,35.8858704],[129.2169589,35.8868247],[129.2171349,35.8870471],[129.2172135,35.8871501],[129.2176704,35.8877612],[129.2180101,35.8881557],[129.2183845,35.8885712]]},"properties":{"osm_id":1467849762,"railway":"disused","name":"","cls":"abandoned","source":"OSM Overpass 2026-09-21 (T4) — 지형도면 1~10·13~15장 벡터화로 T1 치환 예정"}},{"type":"Feature","geometry":{"type":"LineString","coordinates":[[129.2172135,35.8871501],[129.2175505,35.8876837]]},"properties":{"osm_id":1467849763,"railway":"abandoned","name":"","cls":"abandoned","source":"OSM Overpass 2026-09-21 (T4) — 지형도면 1~10·13~15장 벡터화로 T1 치환 예정"}},{"type":"Feature","geometry":{"type":"LineString","coordinates":[[129.2162701,35.8859879],[129.2168864,35.8866743],[129.2169719,35.8867946],[129.2171349,35.8870471]]},"properties":{"osm_id":1467849764,"railway":"disused","name":"","cls":"abandoned","source":"OSM Overpass 2026-09-21 (T4) — 지형도면 1~10·13~15장 벡터화로 T1 치환 예정"}},{"type":"Feature","geometry":{"type":"LineString","coordinates":[[129.2163671,35.8860333],[129.2166831,35.8863813],[129.21681,35.8865434],[129.2169719,35.8867946]]},"properties":{"osm_id":1467849765,"railway":"disused","name":"","cls":"abandoned","source":"OSM Overpass 2026-09-21 (T4) — 지형도면 1~10·13~15장 벡터화로 T1 치환 예정"}},{"type":"Feature","geometry":{"type":"LineString","coordinates":[[129.2174066,35.8876245],[129.2169156,35.8871496],[129.2165377,35.8867854],[129.2162585,35.8865061],[129.2155118,35.8856693]]},"properties":{"osm_id":1467849766,"railway":"disused","name":"","cls":"abandoned","source":"OSM Overpass 2026-09-21 (T4) — 지형도면 1~10·13~15장 벡터화로 T1 치환 예정"}},{"type":"Feature","geometry":{"type":"LineString","coordinates":[[129.2154617,35.8856765],[129.2162739,35.8865918],[129.2165273,35.8868411],[129.2169156,35.8871496]]},"properties":{"osm_id":1467849767,"railway":"disused","name":"","cls":"abandoned","source":"OSM Overpass 2026-09-21 (T4) — 지형도면 1~10·13~15장 벡터화로 T1 치환 예정"}},{"type":"Feature","geometry":{"type":"LineString","coordinates":[[129.2321322,35.9356718],[129.2322404,35.9363145],[129.2325488,35.9375681],[129.2330509,35.9394821],[129.2334373,35.9406776]]},"properties":{"osm_id":1467849774,"railway":"abandoned","name":"동해선","cls":"abandoned","source":"OSM Overpass 2026-09-21 (T4) — 지형도면 1~10·13~15장 벡터화로 T1 치환 예정"}},{"type":"Feature","geometry":{"type":"LineString","coordinates":[[129.2320462,35.9354025],[129.2321322,35.9356718],[129.2326915,35.9375578],[129.2332555,35.9397435],[129.2334373,35.9406776],[129.2337126,35.9416789],[129.2337721,35.9422201],[129.233797,35.942791],[129.2337498,35.945164],[129.2336058,35.945787],[129.2327189,35.9481053],[129.2318294,35.9505002],[129.231695,35.9509316],[129.2316303,35.9512827],[129.2316464,35.9516509],[129.2317003,35.9520604],[129.2318198,35.9524785],[129.2320787,35.952987],[129.2326895,35.9539774]]},"properties":{"osm_id":1468021251,"railway":"abandoned","name":"동해선","cls":"abandoned","source":"OSM Overpass 2026-09-21 (T4) — 지형도면 1~10·13~15장 벡터화로 T1 치환 예정"}},{"type":"Feature","geometry":{"type":"LineString","coordinates":[[129.2157452,35.8856917],[129.2162865,35.8863056],[129.2178342,35.8880317],[129.2180887,35.888322]]},"properties":{"osm_id":1468021258,"railway":"disused","name":"동해선","cls":"abandoned","source":"OSM Overpass 2026-09-21 (T4) — 지형도면 1~10·13~15장 벡터화로 T1 치환 예정"}},{"type":"Feature","geometry":{"type":"LineString","coordinates":[[129.2137916,35.8835195],[129.2127682,35.8823431],[129.2126695,35.8822283],[129.2121594,35.8816791],[129.2116834,35.8811357]]},"properties":{"osm_id":1468021259,"railway":"disused","name":"동해선","cls":"abandoned","source":"OSM Overpass 2026-09-21 (T4) — 지형도면 1~10·13~15장 벡터화로 T1 치환 예정"}},{"type":"Feature","geometry":{"type":"LineString","coordinates":[[129.2183887,35.8430351],[129.2183674,35.8419479]]},"properties":{"osm_id":1468021260,"railway":"abandoned","name":"동해선","cls":"abandoned","source":"OSM Overpass 2026-09-21 (T4) — 지형도면 1~10·13~15장 벡터화로 T1 치환 예정"}},{"type":"Feature","geometry":{"type":"LineString","coordinates":[[129.218863,35.8494136],[129.2188849,35.847191]]},"properties":{"osm_id":1468021261,"railway":"disused","name":"","cls":"abandoned","source":"OSM Overpass 2026-09-21 (T4) — 지형도면 1~10·13~15장 벡터화로 T1 치환 예정"}},{"type":"Feature","geometry":{"type":"LineString","coordinates":[[129.2190074,35.8494164],[129.2190187,35.8481844],[129.2190073,35.8480383],[129.2189751,35.8478198]]},"properties":{"osm_id":1468021262,"railway":"disused","name":"","cls":"abandoned","source":"OSM Overpass 2026-09-21 (T4) — 지형도면 1~10·13~15장 벡터화로 T1 치환 예정"}},{"type":"Feature","geometry":{"type":"LineString","coordinates":[[129.2189637,35.8494133],[129.2189751,35.8478198],[129.2189249,35.8474741]]},"properties":{"osm_id":1468021263,"railway":"disused","name":"","cls":"abandoned","source":"OSM Overpass 2026-09-21 (T4) — 지형도면 1~10·13~15장 벡터화로 T1 치환 예정"}},{"type":"Feature","geometry":{"type":"LineString","coordinates":[[129.2192063,35.8481513],[129.2191071,35.8479536],[129.2190442,35.8478169],[129.2190236,35.8477515],[129.2189843,35.8475269],[129.21893,35.8471521],[129.2189207,35.8470395],[129.2189234,35.8468731],[129.218931,35.8464923],[129.218922,35.8463427],[129.2188736,35.8460197]]},"properties":{"osm_id":1468021265,"railway":"disused","name":"","cls":"abandoned","source":"OSM Overpass 2026-09-21 (T4) — 지형도면 1~10·13~15장 벡터화로 T1 치환 예정"}},{"type":"Feature","geometry":{"type":"LineString","coordinates":[[129.2196586,35.8481528],[129.2194635,35.847672],[129.2194229,35.847553],[129.2193732,35.8473461],[129.2193418,35.8472301],[129.2193044,35.8471291],[129.2192602,35.8470291],[129.2191126,35.8466954],[129.2190232,35.8464934],[129.2189273,35.8462479],[129.2188736,35.8460197],[129.2188283,35.8457057]]},"properties":{"osm_id":1468021266,"railway":"abandoned","name":"","cls":"abandoned","source":"OSM Overpass 2026-09-21 (T4) — 지형도면 1~10·13~15장 벡터화로 T1 치환 예정"}},{"type":"Feature","geometry":{"type":"LineString","coordinates":[[129.2190704,35.8464122],[129.2191859,35.8466336],[129.2193332,35.8468791],[129.2193785,35.8469689],[129.2194048,35.8470247],[129.2194366,35.8470919],[129.2196342,35.8475706]]},"properties":{"osm_id":1468021267,"railway":"abandoned","name":"","cls":"abandoned","source":"OSM Overpass 2026-09-21 (T4) — 지형도면 1~10·13~15장 벡터화로 T1 치환 예정"}},{"type":"Feature","geometry":{"type":"LineString","coordinates":[[129.2197047,35.8475427],[129.2196293,35.8473609],[129.2194581,35.847023],[129.2194322,35.8469719],[129.2192593,35.846576],[129.2190344,35.8460609],[129.2189202,35.8457919],[129.2188504,35.8456022],[129.2188089,35.8454698],[129.2187567,35.8452606]]},"properties":{"osm_id":1468021268,"railway":"abandoned","name":"","cls":"abandoned","source":"OSM Overpass 2026-09-21 (T4) — 지형도면 1~10·13~15장 벡터화로 T1 치환 예정"}},{"type":"Feature","geometry":{"type":"LineString","coordinates":[[129.2189162,35.8494143],[129.2189249,35.8474741],[129.2188849,35.847191],[129.2188648,35.8470412],[129.2188508,35.8469374],[129.2188399,35.846761]]},"properties":{"osm_id":1468021269,"railway":"disused","name":"","cls":"abandoned","source":"OSM Overpass 2026-09-21 (T4) — 지형도면 1~10·13~15장 벡터화로 T1 치환 예정"}},{"type":"Feature","geometry":{"type":"LineString","coordinates":[[129.2188182,35.8494072],[129.2188376,35.8470421],[129.2188384,35.8469495],[129.2188399,35.846761],[129.2188336,35.8465767],[129.2187809,35.8462203]]},"properties":{"osm_id":1468021274,"railway":"disused","name":"","cls":"abandoned","source":"OSM Overpass 2026-09-21 (T4) — 지형도면 1~10·13~15장 벡터화로 T1 치환 예정"}},{"type":"Feature","geometry":{"type":"LineString","coordinates":[[129.2187928,35.8471293],[129.2187789,35.8473075],[129.2187506,35.8474616],[129.2187355,35.8475643],[129.2187229,35.8476872],[129.2187155,35.8478209],[129.2187174,35.8493755]]},"properties":{"osm_id":1468021275,"railway":"disused","name":"","cls":"abandoned","source":"OSM Overpass 2026-09-21 (T4) — 지형도면 1~10·13~15장 벡터화로 T1 치환 예정"}},{"type":"Feature","geometry":{"type":"LineString","coordinates":[[129.218772,35.8494007],[129.2187928,35.8471293],[129.2187933,35.8470434],[129.2187935,35.8469924],[129.2187966,35.8464601],[129.2187809,35.8462203],[129.2187432,35.8459787],[129.2187213,35.8457738]]},"properties":{"osm_id":1468021276,"railway":"disused","name":"","cls":"abandoned","source":"OSM Overpass 2026-09-21 (T4) — 지형도면 1~10·13~15장 벡터화로 T1 치환 예정"}},{"type":"Feature","geometry":{"type":"LineString","coordinates":[[129.219772,35.8473281],[129.2196276,35.8470178],[129.2193705,35.8464649],[129.2192829,35.8462768],[129.2191953,35.8460744],[129.2190825,35.8458099],[129.2190053,35.845531],[129.2187563,35.844633],[129.218728,35.8444733],[129.2187112,35.8442761],[129.2187088,35.844173],[129.2186917,35.8439685]]},"properties":{"osm_id":1468021277,"railway":"disused","name":"","cls":"abandoned","source":"OSM Overpass 2026-09-21 (T4) — 지형도면 1~10·13~15장 벡터화로 T1 치환 예정"}},{"type":"Feature","geometry":{"type":"LineString","coordinates":[[129.2191953,35.8460744],[129.2191158,35.8458139],[129.2190726,35.8455993],[129.2188235,35.8447138],[129.2187823,35.8445489],[129.2186917,35.8439685],[129.2186462,35.8436823]]},"properties":{"osm_id":1468021278,"railway":"disused","name":"","cls":"abandoned","source":"OSM Overpass 2026-09-21 (T4) — 지형도면 1~10·13~15장 벡터화로 T1 치환 예정"}},{"type":"Feature","geometry":{"type":"LineString","coordinates":[[129.2186174,35.8465583],[129.2186576,35.8463463],[129.2186713,35.8461672],[129.2186606,35.8440063],[129.2186582,35.8438698],[129.2186462,35.8436823],[129.2185962,35.8433701]]},"properties":{"osm_id":1468021279,"railway":"disused","name":"","cls":"abandoned","source":"OSM Overpass 2026-09-21 (T4) — 지형도면 1~10·13~15장 벡터화로 T1 치환 예정"}},{"type":"Feature","geometry":{"type":"LineString","coordinates":[[129.2185205,35.8469228],[129.2185683,35.8466225],[129.2186221,35.8461162],[129.2186114,35.8437511],[129.2186118,35.8435575],[129.2185962,35.8433701],[129.2185843,35.8432909],[129.2185682,35.8431713],[129.2185611,35.8430347]]},"properties":{"osm_id":1468021280,"railway":"disused","name":"","cls":"abandoned","source":"OSM Overpass 2026-09-21 (T4) — 지형도면 1~10·13~15장 벡터화로 T1 치환 예정"}},{"type":"Feature","geometry":{"type":"LineString","coordinates":[[129.2184077,35.8476617],[129.2184369,35.847293],[129.2184506,35.8471121],[129.2184967,35.8467785],[129.2185243,35.8465148],[129.2185304,35.8463506],[129.2185043,35.8430602]]},"properties":{"osm_id":1468021281,"railway":"disused","name":"","cls":"abandoned","source":"OSM Overpass 2026-09-21 (T4) — 지형도면 1~10·13~15장 벡터화로 T1 치환 예정"}},{"type":"Feature","geometry":{"type":"LineString","coordinates":[[129.2185611,35.8430347],[129.2185799,35.8462642],[129.2185683,35.8466225]]},"properties":{"osm_id":1468021282,"railway":"disused","name":"","cls":"abandoned","source":"OSM Overpass 2026-09-21 (T4) — 지형도면 1~10·13~15장 벡터화로 T1 치환 예정"}},{"type":"Feature","geometry":{"type":"LineString","coordinates":[[129.2183229,35.8430283],[129.2183538,35.8465256],[129.2183581,35.8476189],[129.2183601,35.8480712],[129.2183596,35.8484485],[129.2183695,35.8487839],[129.2183878,35.8489497],[129.2184465,35.8492674],[129.2185072,35.8494599]]},"properties":{"osm_id":1468021283,"railway":"disused","name":"","cls":"abandoned","source":"OSM Overpass 2026-09-21 (T4) — 지형도면 1~10·13~15장 벡터화로 T1 치환 예정"}},{"type":"Feature","geometry":{"type":"LineString","coordinates":[[129.2183581,35.8476189],[129.2183388,35.8473439],[129.2182437,35.8466452],[129.2182343,35.8465304],[129.2182212,35.8462329],[129.2182014,35.8437942],[129.2182114,35.8435882],[129.2182255,35.8433894],[129.218261,35.8430284]]},"properties":{"osm_id":1468021284,"railway":"disused","name":"","cls":"abandoned","source":"OSM Overpass 2026-09-21 (T4) — 지형도면 1~10·13~15장 벡터화로 T1 치환 예정"}},{"type":"Feature","geometry":{"type":"LineString","coordinates":[[129.2183596,35.8484485],[129.2183734,35.8482056],[129.2183952,35.8480521],[129.2184079,35.8478387]]},"properties":{"osm_id":1468021285,"railway":"disused","name":"","cls":"abandoned","source":"OSM Overpass 2026-09-21 (T4) — 지형도면 1~10·13~15장 벡터화로 T1 치환 예정"}},{"type":"Feature","geometry":{"type":"LineString","coordinates":[[129.2182643,35.8473804],[129.2181874,35.8469279],[129.2181735,35.8467555],[129.2181685,35.8465308],[129.2181513,35.8437047],[129.2181519,35.8431755],[129.2181615,35.8430225]]},"properties":{"osm_id":1468021286,"railway":"abandoned","name":"","cls":"abandoned","source":"OSM Overpass 2026-09-21 (T4) — 지형도면 1~10·13~15장 벡터화로 T1 치환 예정"}},{"type":"Feature","geometry":{"type":"LineString","coordinates":[[129.2182954,35.8475423],[129.2183077,35.8477431],[129.2183057,35.8487216],[129.2182844,35.8491294]]},"properties":{"osm_id":1468021289,"railway":"abandoned","name":"","cls":"abandoned","source":"OSM Overpass 2026-09-21 (T4) — 지형도면 1~10·13~15장 벡터화로 T1 치환 예정"}},{"type":"Feature","geometry":{"type":"LineString","coordinates":[[129.218158,35.8470222],[129.21798,35.8464808],[129.2179212,35.8462903],[129.2178968,35.8461471],[129.2178808,35.8458694]]},"properties":{"osm_id":1468021290,"railway":"abandoned","name":"","cls":"abandoned","source":"OSM Overpass 2026-09-21 (T4) — 지형도면 1~10·13~15장 벡터화로 T1 치환 예정"}},{"type":"Feature","geometry":{"type":"LineString","coordinates":[[129.2183601,35.8480712],[129.2183412,35.8478401],[129.2182954,35.8475423],[129.2182643,35.8473804],[129.2182072,35.847188],[129.218158,35.8470222],[129.218094,35.8468876],[129.2179413,35.8465101],[129.2178847,35.8463349],[129.2178594,35.8462302],[129.2178404,35.8460868],[129.2178283,35.8458735]]},"properties":{"osm_id":1468021291,"railway":"abandoned","name":"","cls":"abandoned","source":"OSM Overpass 2026-09-21 (T4) — 지형도면 1~10·13~15장 벡터화로 T1 치환 예정"}},{"type":"Feature","geometry":{"type":"LineString","coordinates":[[129.2181513,35.8437047],[129.2181688,35.8435364],[129.218183,35.843419],[129.218211,35.8432738],[129.218261,35.8430284]]},"properties":{"osm_id":1468021292,"railway":"disused","name":"","cls":"abandoned","source":"OSM Overpass 2026-09-21 (T4) — 지형도면 1~10·13~15장 벡터화로 T1 치환 예정"}},{"type":"Feature","geometry":{"type":"LineString","coordinates":[[129.2186343,35.8429876],[129.2186862,35.843255],[129.2187726,35.8438703],[129.2188281,35.8442236],[129.2188847,35.8445089],[129.2189376,35.8447107],[129.2192854,35.8459522]]},"properties":{"osm_id":1468021293,"railway":"disused","name":"","cls":"abandoned","source":"OSM Overpass 2026-09-21 (T4) — 지형도면 1~10·13~15장 벡터화로 T1 치환 예정"}},{"type":"Feature","geometry":{"type":"LineString","coordinates":[[129.2186149,35.8430906],[129.2187325,35.8439308],[129.2188177,35.8444203],[129.2188537,35.8446099],[129.2189012,35.8447834],[129.2191419,35.8456479],[129.2191718,35.8458033],[129.2191985,35.8459767],[129.2192829,35.8462768]]},"properties":{"osm_id":1468021294,"railway":"disused","name":"","cls":"abandoned","source":"OSM Overpass 2026-09-21 (T4) — 지형도면 1~10·13~15장 벡터화로 T1 치환 예정"}},{"type":"Feature","geometry":{"type":"LineString","coordinates":[[129.2187567,35.8452606],[129.2187322,35.8451196],[129.2187093,35.8448843]]},"properties":{"osm_id":1468021295,"railway":"disused","name":"","cls":"abandoned","source":"OSM Overpass 2026-09-21 (T4) — 지형도면 1~10·13~15장 벡터화로 T1 치환 예정"}},{"type":"Feature","geometry":{"type":"LineString","coordinates":[[129.2183674,35.8419479],[129.2183345,35.84233],[129.2183196,35.8426612],[129.2183229,35.8430283]]},"properties":{"osm_id":1468021296,"railway":"abandoned","name":"","cls":"abandoned","source":"OSM Overpass 2026-09-21 (T4) — 지형도면 1~10·13~15장 벡터화로 T1 치환 예정"}},{"type":"Feature","geometry":{"type":"LineString","coordinates":[[129.2181615,35.8430225],[129.2181654,35.8429607],[129.2181885,35.8427975],[129.2182332,35.842526],[129.2182505,35.8423119]]},"properties":{"osm_id":1468021297,"railway":"abandoned","name":"","cls":"abandoned","source":"OSM Overpass 2026-09-21 (T4) — 지형도면 1~10·13~15장 벡터화로 T1 치환 예정"}},{"type":"Feature","geometry":{"type":"LineString","coordinates":[[129.218261,35.8430284],[129.2183345,35.84233]]},"properties":{"osm_id":1468021298,"railway":"abandoned","name":"","cls":"abandoned","source":"OSM Overpass 2026-09-21 (T4) — 지형도면 1~10·13~15장 벡터화로 T1 치환 예정"}},{"type":"Feature","geometry":{"type":"LineString","coordinates":[[129.2185043,35.8430602],[129.2184955,35.8429502],[129.2184516,35.8426051],[129.2184203,35.8423238],[129.2184059,35.8419266]]},"properties":{"osm_id":1468021299,"railway":"abandoned","name":"","cls":"abandoned","source":"OSM Overpass 2026-09-21 (T4) — 지형도면 1~10·13~15장 벡터화로 T1 치환 예정"}},{"type":"Feature","geometry":{"type":"LineString","coordinates":[[129.2184886,35.8424746],[129.2185504,35.8427165],[129.2185974,35.8429381],[129.2186149,35.8430906]]},"properties":{"osm_id":1468021300,"railway":"abandoned","name":"","cls":"abandoned","source":"OSM Overpass 2026-09-21 (T4) — 지형도면 1~10·13~15장 벡터화로 T1 치환 예정"}},{"type":"Feature","geometry":{"type":"LineString","coordinates":[[129.2185504,35.8427165],[129.2186343,35.8429876]]},"properties":{"osm_id":1468021301,"railway":"abandoned","name":"","cls":"abandoned","source":"OSM Overpass 2026-09-21 (T4) — 지형도면 1~10·13~15장 벡터화로 T1 치환 예정"}},{"type":"Feature","geometry":{"type":"LineString","coordinates":[[129.2184059,35.8419266],[129.2184496,35.8422263],[129.2184886,35.8424746],[129.2185201,35.8427166],[129.2185558,35.8429201],[129.2185611,35.8430347]]},"properties":{"osm_id":1468021302,"railway":"abandoned","name":"","cls":"abandoned","source":"OSM Overpass 2026-09-21 (T4) — 지형도면 1~10·13~15장 벡터화로 T1 치환 예정"}},{"type":"Feature","geometry":{"type":"LineString","coordinates":[[129.2683593,35.7986346],[129.2678081,35.7991043],[129.2672086,35.7996796],[129.267073,35.799831],[129.266781,35.8001568],[129.2665644,35.8004142],[129.2663102,35.8007326],[129.2661895,35.8008639],[129.2659036,35.8012221],[129.2649702,35.802421],[129.2622651,35.8059092],[129.2618869,35.8063094]]},"properties":{"osm_id":1468021303,"railway":"abandoned","name":"동해선","cls":"abandoned","source":"OSM Overpass 2026-09-21 (T4) — 지형도면 1~10·13~15장 벡터화로 T1 치환 예정"}},{"type":"Feature","geometry":{"type":"LineString","coordinates":[[129.1986299,35.8587128],[129.1986485,35.8588186],[129.1989428,35.8604592]]},"properties":{"osm_id":1468021304,"railway":"abandoned","name":"중앙선","cls":"abandoned","source":"OSM Overpass 2026-09-21 (T4) — 지형도면 1~10·13~15장 벡터화로 T1 치환 예정"}},{"type":"Feature","geometry":{"type":"LineString","coordinates":[[129.1989428,35.8604592],[129.1989675,35.8605809]]},"properties":{"osm_id":1468021305,"railway":"abandoned","name":"중앙선","cls":"abandoned","source":"OSM Overpass 2026-09-21 (T4) — 지형도면 1~10·13~15장 벡터화로 T1 치환 예정"}},{"type":"Feature","geometry":{"type":"LineString","coordinates":[[129.1989675,35.8605809],[129.199508,35.8632412]]},"properties":{"osm_id":1468021306,"railway":"abandoned","name":"중앙선","cls":"abandoned","source":"OSM Overpass 2026-09-21 (T4) — 지형도면 1~10·13~15장 벡터화로 T1 치환 예정"}},{"type":"Feature","geometry":{"type":"LineString","coordinates":[[129.199276,35.8622467],[129.1996752,35.8643751]]},"properties":{"osm_id":1468021307,"railway":"abandoned","name":"금장삼각선","cls":"abandoned","source":"OSM Overpass 2026-09-21 (T4) — 지형도면 1~10·13~15장 벡터화로 T1 치환 예정"}},{"type":"Feature","geometry":{"type":"LineString","coordinates":[[129.1436918,35.8184309],[129.146233,35.8181109],[129.1467807,35.8180824]]},"properties":{"osm_id":1518566010,"railway":"abandoned","name":"중앙선","cls":"abandoned","source":"OSM Overpass 2026-09-21 (T4) — 지형도면 1~10·13~15장 벡터화로 T1 치환 예정"}}]}