{"type":"FeatureCollection","features":[{"type":"Feature","geometry":{"type":"Point","coordinates":[129.2175,35.8439]},"properties":{"name":"구경주역 (폐역 2021.12)","note":"등록문화유산 역사 존치. 원화로 266","status":"closed","lbl":"구경주역","source":"OSM·위키 (T4)"}},{"type":"Feature","geometry":{"type":"Point","coordinates":[129.2012,35.8688]},"properties":{"name":"옛 서경주역 (금장, 폐역 2021.12)","note":"중앙선·동해남부선 분기점. 폐선 트램 북측 종점 후보","status":"closed","lbl":"옛 서경주역","source":"OSM·위키 (T4)"}},{"type":"Feature","geometry":{"type":"Point","coordinates":[129.1809,35.8847]},"properties":{"name":"서경주역 (신, 현곡면 하구리)","note":"2021.12.28 이전 개통. 무궁화 7회·ITX-마음 1왕복·누리로. 일평균 173명(2024)→309명(2025) [T4 나무위키, 철도통계연보로 치환 필요]. 폐선과 2.3~2.7km 이격","status":"active","lbl":"서경주역","source":"OSM·위키 (T4)"}},{"type":"Feature","geometry":{"type":"Point","coordinates":[129.3153,35.797]},"properties":{"name":"불국사역 (폐역 2021.12)","note":"폐선 트램 남측 종점 후보 (위치 개략)","status":"closed","lbl":"불국사역","source":"OSM·위키 (T4)"}}]}