{"type":"FeatureCollection","features":[{"type":"Feature","geometry":{"type":"Point","coordinates":[129.246620879246,35.9206069196301]},"properties":{"name":"모아초등학교","kind":"초등학교","addr":"천북면 모아리 588","road":"경북 경주시 천북면 산업로 4974-5","closed":false,"lbl":"모아초등학교","source":"카카오 로컬(Places) 키워드·카테고리 검색, 2026-09-21 수집 (T4 민간 POI — 공식 시설대장 아님, 누락·폐업 미반영 가능)"}},{"type":"Feature","geometry":{"type":"Point","coordinates":[129.16761085899597,35.85378949878079]},"properties":{"name":"문화중학교","kind":"중학교","addr":"충효동 717","road":"경북 경주시 충현로 98","closed":false,"lbl":"문화중학교","source":"카카오 로컬(Places) 키워드·카테고리 검색, 2026-09-21 수집 (T4 민간 POI — 공식 시설대장 아님, 누락·폐업 미반영 가능)"}},{"type":"Feature","geometry":{"type":"Point","coordinates":[129.096491146238,35.8449889230692]},"properties":{"name":"무산중학교","kind":"중학교","addr":"건천읍 천포리 636","road":"경북 경주시 건천읍 천포방내길 18","closed":false,"lbl":"무산중학교","source":"카카오 로컬(Places) 키워드·카테고리 검색, 2026-09-21 수집 (T4 민간 POI — 공식 시설대장 아님, 누락·폐업 미반영 가능)"}},{"type":"Feature","geometry":{"type":"Point","coordinates":[129.332950534771,35.6770953614737]},"properties":{"name":"모화초등학교","kind":"초등학교","addr":"외동읍 모화리 237-4","road":"경북 경주시 외동읍 계동1길 12","closed":false,"lbl":"모화초등학교","source":"카카오 로컬(Places) 키워드·카테고리 검색, 2026-09-21 수집 (T4 민간 POI — 공식 시설대장 아님, 누락·폐업 미반영 가능)"}},{"type":"Feature","geometry":{"type":"Point","coordinates":[129.22590538753,35.9384224873879]},"properties":{"name":"사방초등학교","kind":"초등학교","addr":"안강읍 사방리 646","road":"경북 경주시 안강읍 사방검단길 54","closed":false,"lbl":"사방초등학교","source":"카카오 로컬(Places) 키워드·카테고리 검색, 2026-09-21 수집 (T4 민간 POI — 공식 시설대장 아님, 누락·폐업 미반영 가능)"}},{"type":"Feature","geometry":{"type":"Point","coordinates":[129.279330971666,35.8308892984115]},"properties":{"name":"서라벌초등학교","kind":"초등학교","addr":"천군동 582","road":"경북 경주시 천군2길 24","closed":false,"lbl":"서라벌초등학교","source":"카카오 로컬(Places) 키워드·카테고리 검색, 2026-09-21 수집 (T4 민간 POI — 공식 시설대장 아님, 누락·폐업 미반영 가능)"}},{"type":"Feature","geometry":{"type":"Point","coordinates":[129.223364698912,35.8386131160147]},"properties":{"name":"선덕여자중학교","kind":"중학교","addr":"인왕동 571-1","road":"경북 경주시 양정로 20-11","closed":false,"lbl":"선덕여자중학교","source":"카카오 로컬(Places) 키워드·카테고리 검색, 2026-09-21 수집 (T4 민간 POI — 공식 시설대장 아님, 누락·폐업 미반영 가능)"}},{"type":"Feature","geometry":{"type":"Point","coordinates":[129.223652559599,35.8383014328362]},"properties":{"name":"선덕여자고등학교","kind":"고등학교","addr":"인왕동 571-1","road":"경북 경주시 양정로 20-11","closed":false,"lbl":"선덕여자고등학교","source":"카카오 로컬(Places) 키워드·카테고리 검색, 2026-09-21 수집 (T4 민간 POI — 공식 시설대장 아님, 누락·폐업 미반영 가능)"}},{"type":"Feature","geometry":{"type":"Point","coordinates":[129.20436886442195,35.834845437691044]},"properties":{"name":"신라초등학교","kind":"초등학교","addr":"사정동 446-1","road":"경북 경주시 금성로183번길 28","closed":false,"lbl":"신라초등학교","source":"카카오 로컬(Places) 키워드·카테고리 검색, 2026-09-21 수집 (T4 민간 POI — 공식 시설대장 아님, 누락·폐업 미반영 가능)"}},{"type":"Feature","geometry":{"type":"Point","coordinates":[129.212478380221,35.9931218047651]},"properties":{"name":"안강여자중학교","kind":"중학교","addr":"안강읍 산대리 1866","road":"경북 경주시 안강읍 화전길 62-8","closed":false,"lbl":"안강여자중학교","source":"카카오 로컬(Places) 키워드·카테고리 검색, 2026-09-21 수집 (T4 민간 POI — 공식 시설대장 아님, 누락·폐업 미반영 가능)"}},{"type":"Feature","geometry":{"type":"Point","coordinates":[129.230319577093,35.9929426540131]},"properties":{"name":"안강중학교","kind":"중학교","addr":"안강읍 안강리 597-4","road":"경북 경주시 안강읍 안강중앙로 269","closed":false,"lbl":"안강중학교","source":"카카오 로컬(Places) 키워드·카테고리 검색, 2026-09-21 수집 (T4 민간 POI — 공식 시설대장 아님, 누락·폐업 미반영 가능)"}},{"type":"Feature","geometry":{"type":"Point","coordinates":[129.229377989472,35.9910031438182]},"properties":{"name":"안강초등학교","kind":"초등학교","addr":"안강읍 안강리 321","road":"경북 경주시 안강읍 비화원로 34","closed":false,"lbl":"안강초등학교","source":"카카오 로컬(Places) 키워드·카테고리 검색, 2026-09-21 수집 (T4 민간 POI — 공식 시설대장 아님, 누락·폐업 미반영 가능)"}},{"type":"Feature","geometry":{"type":"Point","coordinates":[129.229776851749,35.992253554493]},"properties":{"name":"경북모빌리티고등학교","kind":"고등학교(특성화·특목)","addr":"안강읍 안강리 233-7","road":"경북 경주시 안강읍 안강중앙로 269","closed":false,"lbl":"경북모빌리티고등학교","source":"카카오 로컬(Places) 키워드·카테고리 검색, 2026-09-21 수집 (T4 민간 POI — 공식 시설대장 아님, 누락·폐업 미반영 가능)"}},{"type":"Feature","geometry":{"type":"Point","coordinates":[129.443518543463,35.7858875782578]},"properties":{"name":"양북중학교","kind":"중학교","addr":"문무대왕면 어일리 701","road":"경북 경주시 문무대왕면 어일남길 2","closed":false,"lbl":"양북중학교","source":"카카오 로컬(Places) 키워드·카테고리 검색, 2026-09-21 수집 (T4 민간 POI — 공식 시설대장 아님, 누락·폐업 미반영 가능)"}},{"type":"Feature","geometry":{"type":"Point","coordinates":[129.461112067551,35.6754110002038]},"properties":{"name":"양남초등학교","kind":"초등학교","addr":"양남면 하서리 566","road":"경북 경주시 양남면 양남로 335-1","closed":false,"lbl":"양남초등학교","source":"카카오 로컬(Places) 키워드·카테고리 검색, 2026-09-21 수집 (T4 민간 POI — 공식 시설대장 아님, 누락·폐업 미반영 가능)"}},{"type":"Feature","geometry":{"type":"Point","coordinates":[129.46111509880396,35.673999949286966]},"properties":{"name":"양남중학교","kind":"중학교","addr":"양남면 하서리 651","road":"경북 경주시 양남면 양남로 325-3","closed":false,"lbl":"양남중학교","source":"카카오 로컬(Places) 키워드·카테고리 검색, 2026-09-21 수집 (T4 민간 POI — 공식 시설대장 아님, 누락·폐업 미반영 가능)"}},{"type":"Feature","geometry":{"type":"Point","coordinates":[129.252899649145,35.9976851626862]},"properties":{"name":"양동초등학교","kind":"초등학교","addr":"강동면 양동리 65-1","road":"경북 경주시 강동면 양동마을길 109","closed":false,"lbl":"양동초등학교","source":"카카오 로컬(Places) 키워드·카테고리 검색, 2026-09-21 수집 (T4 민간 POI — 공식 시설대장 아님, 누락·폐업 미반영 가능)"}},{"type":"Feature","geometry":{"type":"Point","coordinates":[129.443790741286,35.7856766144288]},"properties":{"name":"양북초등학교","kind":"초등학교","addr":"문무대왕면 어일리 701","road":"경북 경주시 문무대왕면 어일남길 2","closed":false,"lbl":"양북초등학교","source":"카카오 로컬(Places) 키워드·카테고리 검색, 2026-09-21 수집 (T4 민간 POI — 공식 시설대장 아님, 누락·폐업 미반영 가능)"}},{"type":"Feature","geometry":{"type":"Point","coordinates":[129.229441125674,35.8760377909073]},"properties":{"name":"용강초등학교","kind":"초등학교","addr":"용강동 1293","road":"경북 경주시 승삼2길 9","closed":false,"lbl":"용강초등학교","source":"카카오 로컬(Places) 키워드·카테고리 검색, 2026-09-21 수집 (T4 민간 POI — 공식 시설대장 아님, 누락·폐업 미반영 가능)"}},{"type":"Feature","geometry":{"type":"Point","coordinates":[129.32528952946,35.7173543611129]},"properties":{"name":"외동중학교","kind":"중학교","addr":"외동읍 입실리 443-1","road":"경북 경주시 외동읍 입실로1길 80-9","closed":false,"lbl":"외동중학교","source":"카카오 로컬(Places) 키워드·카테고리 검색, 2026-09-21 수집 (T4 민간 POI — 공식 시설대장 아님, 누락·폐업 미반영 가능)"}},{"type":"Feature","geometry":{"type":"Point","coordinates":[129.174975023718,35.8419823450347]},"properties":{"name":"월성중학교","kind":"중학교","addr":"충효동 549-6","road":"경북 경주시 충효7길 19","closed":false,"lbl":"월성중학교","source":"카카오 로컬(Places) 키워드·카테고리 검색, 2026-09-21 수집 (T4 민간 POI — 공식 시설대장 아님, 누락·폐업 미반영 가능)"}},{"type":"Feature","geometry":{"type":"Point","coordinates":[129.28340038100276,36.01586990959782]},"properties":{"name":"위덕대학교","kind":"대학교","addr":"강동면 유금리 525","road":"경북 경주시 강동면 동해대로 261","closed":false,"lbl":"위덕대학교","source":"카카오 로컬(Places) 키워드·카테고리 검색, 2026-09-21 수집 (T4 민간 POI — 공식 시설대장 아님, 누락·폐업 미반영 가능)"}},{"type":"Feature","geometry":{"type":"Point","coordinates":[129.267529993383,35.8970140523883]},"properties":{"name":"천북초등학교","kind":"초등학교","addr":"천북면 동산리 434","road":"경북 경주시 천북면 천북로 343","closed":false,"lbl":"천북초등학교","source":"카카오 로컬(Places) 키워드·카테고리 검색, 2026-09-21 수집 (T4 민간 POI — 공식 시설대장 아님, 누락·폐업 미반영 가능)"}},{"type":"Feature","geometry":{"type":"Point","coordinates":[129.094681414001,35.8455250932911]},"properties":{"name":"천포초등학교","kind":"초등학교","addr":"건천읍 천포리 721","road":"경북 경주시 건천읍 단석로 1929","closed":false,"lbl":"천포초등학교","source":"카카오 로컬(Places) 키워드·카테고리 검색, 2026-09-21 수집 (T4 민간 POI — 공식 시설대장 아님, 누락·폐업 미반영 가능)"}},{"type":"Feature","geometry":{"type":"Point","coordinates":[129.501956069358,35.8099705906093]},"properties":{"name":"감포초등학교","kind":"초등학교","addr":"감포읍 감포리 12","road":"경북 경주시 감포읍 감포로10길 21","closed":false,"lbl":"감포초등학교","source":"카카오 로컬(Places) 키워드·카테고리 검색, 2026-09-21 수집 (T4 민간 POI — 공식 시설대장 아님, 누락·폐업 미반영 가능)"}},{"type":"Feature","geometry":{"type":"Point","coordinates":[129.276822752493,35.9921263247372]},"properties":{"name":"강동초등학교","kind":"초등학교","addr":"강동면 유금리 1111","road":"경북 경주시 강동면 강동로 80","closed":false,"lbl":"강동초등학교","source":"카카오 로컬(Places) 키워드·카테고리 검색, 2026-09-21 수집 (T4 민간 POI — 공식 시설대장 아님, 누락·폐업 미반영 가능)"}},{"type":"Feature","geometry":{"type":"Point","coordinates":[129.203434889996,35.8743445522457]},"properties":{"name":"화랑중학교","kind":"중학교","addr":"현곡면 오류리 191","road":"경북 경주시 현곡면 등나무길 18-8","closed":false,"lbl":"화랑중학교","source":"카카오 로컬(Places) 키워드·카테고리 검색, 2026-09-21 수집 (T4 민간 POI — 공식 시설대장 아님, 누락·폐업 미반영 가능)"}},{"type":"Feature","geometry":{"type":"Point","coordinates":[129.229957719117,35.8421707530489]},"properties":{"name":"화랑초등학교","kind":"초등학교","addr":"구황동 862","road":"경북 경주시 임해로 116","closed":false,"lbl":"화랑초등학교","source":"카카오 로컬(Places) 키워드·카테고리 검색, 2026-09-21 수집 (T4 민간 POI — 공식 시설대장 아님, 누락·폐업 미반영 가능)"}},{"type":"Feature","geometry":{"type":"Point","coordinates":[129.204122919143,35.84978749457]},"properties":{"name":"흥무초등학교","kind":"초등학교","addr":"성건동 486","road":"경북 경주시 금성로347번길 30","closed":false,"lbl":"흥무초등학교","source":"카카오 로컬(Places) 키워드·카테고리 검색, 2026-09-21 수집 (T4 민간 POI — 공식 시설대장 아님, 누락·폐업 미반영 가능)"}},{"type":"Feature","geometry":{"type":"Point","coordinates":[129.176325136158,35.8418209308165]},"properties":{"name":"경주정보고등학교","kind":"고등학교(특성화·특목)","addr":"충효동 549-6","road":"경북 경주시 충효7길 19","closed":false,"lbl":"경주정보고등학교","source":"카카오 로컬(Places) 키워드·카테고리 검색, 2026-09-21 수집 (T4 민간 POI — 공식 시설대장 아님, 누락·폐업 미반영 가능)"}},{"type":"Feature","geometry":{"type":"Point","coordinates":[129.21429831762,35.8640314216684]},"properties":{"name":"계림중학교","kind":"중학교","addr":"황성동 469-8","road":"경북 경주시 용담로 68","closed":false,"lbl":"계림중학교","source":"카카오 로컬(Places) 키워드·카테고리 검색, 2026-09-21 수집 (T4 민간 POI — 공식 시설대장 아님, 누락·폐업 미반영 가능)"}},{"type":"Feature","geometry":{"type":"Point","coordinates":[129.163252410871,35.9000738999447]},"properties":{"name":"경주디자인고등학교","kind":"고등학교(특성화·특목)","addr":"현곡면 가정리 49-2","road":"경북 경주시 현곡면 용담로 694","closed":false,"lbl":"경주디자인고등학교","source":"카카오 로컬(Places) 키워드·카테고리 검색, 2026-09-21 수집 (T4 민간 POI — 공식 시설대장 아님, 누락·폐업 미반영 가능)"}},{"type":"Feature","geometry":{"type":"Point","coordinates":[129.19439248007566,35.83934772418632]},"properties":{"name":"경주여자중학교","kind":"중학교","addr":"서악동 254-6","road":"경북 경주시 태종로 613-12","closed":false,"lbl":"경주여자중학교","source":"카카오 로컬(Places) 키워드·카테고리 검색, 2026-09-21 수집 (T4 민간 POI — 공식 시설대장 아님, 누락·폐업 미반영 가능)"}},{"type":"Feature","geometry":{"type":"Point","coordinates":[129.22526325165023,35.84315525417865]},"properties":{"name":"경주중학교","kind":"중학교","addr":"황오동 13","road":"경북 경주시 원효로 231","closed":false,"lbl":"경주중학교","source":"카카오 로컬(Places) 키워드·카테고리 검색, 2026-09-21 수집 (T4 민간 POI — 공식 시설대장 아님, 누락·폐업 미반영 가능)"}},{"type":"Feature","geometry":{"type":"Point","coordinates":[129.103027489078,35.8507784349091]},"properties":{"name":"건천초등학교","kind":"초등학교","addr":"건천읍 건천리 229","road":"경북 경주시 건천읍 내서로 1105","closed":false,"lbl":"건천초등학교","source":"카카오 로컬(Places) 키워드·카테고리 검색, 2026-09-21 수집 (T4 민간 POI — 공식 시설대장 아님, 누락·폐업 미반영 가능)"}},{"type":"Feature","geometry":{"type":"Point","coordinates":[129.226661610383,35.8428626308958]},"properties":{"name":"경주고등학교","kind":"고등학교","addr":"황오동 13","road":"경북 경주시 원효로 231","closed":false,"lbl":"경주고등학교","source":"카카오 로컬(Places) 키워드·카테고리 검색, 2026-09-21 수집 (T4 민간 POI — 공식 시설대장 아님, 누락·폐업 미반영 가능)"}},{"type":"Feature","geometry":{"type":"Point","coordinates":[129.227512762727,35.8712223949728]},"properties":{"name":"근화여자중학교","kind":"중학교","addr":"용강동 870","road":"경북 경주시 승삼2길 55","closed":false,"lbl":"근화여자중학교","source":"카카오 로컬(Places) 키워드·카테고리 검색, 2026-09-21 수집 (T4 민간 POI — 공식 시설대장 아님, 누락·폐업 미반영 가능)"}},{"type":"Feature","geometry":{"type":"Point","coordinates":[129.22743063878,35.8719267280682]},"properties":{"name":"근화여자고등학교","kind":"고등학교","addr":"용강동 870","road":"경북 경주시 승삼2길 55","closed":false,"lbl":"근화여자고등학교","source":"카카오 로컬(Places) 키워드·카테고리 검색, 2026-09-21 수집 (T4 민간 POI — 공식 시설대장 아님, 누락·폐업 미반영 가능)"}},{"type":"Feature","geometry":{"type":"Point","coordinates":[129.228633551185,35.8748742267937]},"properties":{"name":"근화유치원","kind":"유치원","addr":"용강동 1292","road":"경북 경주시 승삼2길 19","closed":false,"lbl":"근화유치원","source":"카카오 로컬(Places) 키워드·카테고리 검색, 2026-09-21 수집 (T4 민간 POI — 공식 시설대장 아님, 누락·폐업 미반영 가능)"}},{"type":"Feature","geometry":{"type":"Point","coordinates":[129.470086687561,35.6978713238056]},"properties":{"name":"나산초등학교","kind":"초등학교","addr":"양남면 읍천리 17","road":"경북 경주시 양남면 동해안로 625-9","closed":false,"lbl":"나산초등학교","source":"카카오 로컬(Places) 키워드·카테고리 검색, 2026-09-21 수집 (T4 민간 POI — 공식 시설대장 아님, 누락·폐업 미반영 가능)"}},{"type":"Feature","geometry":{"type":"Point","coordinates":[129.205238024997,35.8737347822154]},"properties":{"name":"금장초등학교","kind":"초등학교","addr":"현곡면 금장리 339","road":"경북 경주시 현곡면 등나무길 18-6","closed":false,"lbl":"금장초등학교","source":"카카오 로컬(Places) 키워드·카테고리 검색, 2026-09-21 수집 (T4 민간 POI — 공식 시설대장 아님, 누락·폐업 미반영 가능)"}},{"type":"Feature","geometry":{"type":"Point","coordinates":[129.19450495505598,35.862538617367974]},"properties":{"name":"동국대학교 WISE캠퍼스","kind":"대학교","addr":"석장동 707","road":"경북 경주시 동대로 123","closed":false,"lbl":"동국대학교 WISE캠퍼스","source":"카카오 로컬(Places) 키워드·카테고리 검색, 2026-09-21 수집 (T4 민간 POI — 공식 시설대장 아님, 누락·폐업 미반영 가능)"}},{"type":"Feature","geometry":{"type":"Point","coordinates":[129.130943912865,35.8237807870815]},"properties":{"name":"모량초등학교","kind":"초등학교","addr":"건천읍 모량리 612-14","road":"경북 경주시 건천읍 내서로 1504","closed":false,"lbl":"모량초등학교","source":"카카오 로컬(Places) 키워드·카테고리 검색, 2026-09-21 수집 (T4 민간 POI — 공식 시설대장 아님, 누락·폐업 미반영 가능)"}},{"type":"Feature","geometry":{"type":"Point","coordinates":[129.1850622745396,35.839773708651215]},"properties":{"name":"신경주대학교","kind":"대학교","addr":"충효동 165","road":"경북 경주시 태종로 516","closed":false,"lbl":"신경주대학교","source":"카카오 로컬(Places) 키워드·카테고리 검색, 2026-09-21 수집 (T4 민간 POI — 공식 시설대장 아님, 누락·폐업 미반영 가능)"}},{"type":"Feature","geometry":{"type":"Point","coordinates":[129.198982484772,35.7520418380916]},"properties":{"name":"삼성생활예술고등학교","kind":"고등학교(특성화·특목)","addr":"내남면 이조리 575","road":"경북 경주시 내남면 이조중앙길 27","closed":false,"lbl":"삼성생활예술고등학교","source":"카카오 로컬(Places) 키워드·카테고리 검색, 2026-09-21 수집 (T4 민간 POI — 공식 시설대장 아님, 누락·폐업 미반영 가능)"}},{"type":"Feature","geometry":{"type":"Point","coordinates":[129.24261418159088,35.89365184826097]},"properties":{"name":"신라공업고등학교","kind":"고등학교(특성화·특목)","addr":"천북면 신당리 1084","road":"경북 경주시 천북면 천북로 41-21","closed":false,"lbl":"신라공업고등학교","source":"카카오 로컬(Places) 키워드·카테고리 검색, 2026-09-21 수집 (T4 민간 POI — 공식 시설대장 아님, 누락·폐업 미반영 가능)"}},{"type":"Feature","geometry":{"type":"Point","coordinates":[129.047240215418,35.9001189654041]},"properties":{"name":"아화중학교","kind":"중학교","addr":"서면 아화리 123","road":"경북 경주시 서면 아화양지길 41","closed":false,"lbl":"아화중학교","source":"카카오 로컬(Places) 키워드·카테고리 검색, 2026-09-21 수집 (T4 민간 POI — 공식 시설대장 아님, 누락·폐업 미반영 가능)"}},{"type":"Feature","geometry":{"type":"Point","coordinates":[129.2037015726749,35.834403553235546]},"properties":{"name":"신라초등학교 병설유치원","kind":"유치원","addr":"사정동 446-1","road":"경북 경주시 금성로183번길 28","closed":false,"lbl":"신라초등학교 병설유","source":"카카오 로컬(Places) 키워드·카테고리 검색, 2026-09-21 수집 (T4 민간 POI — 공식 시설대장 아님, 누락·폐업 미반영 가능)"}},{"type":"Feature","geometry":{"type":"Point","coordinates":[129.27683881899927,35.99692661563716]},"properties":{"name":"예일유치원","kind":"유치원","addr":"강동면 유금리 1224","road":"경북 경주시 강동면 강동로 129","closed":false,"lbl":"예일유치원","source":"카카오 로컬(Places) 키워드·카테고리 검색, 2026-09-21 수집 (T4 민간 POI — 공식 시설대장 아님, 누락·폐업 미반영 가능)"}},{"type":"Feature","geometry":{"type":"Point","coordinates":[129.212822217919,35.868747650937]},"properties":{"name":"유림초등학교","kind":"초등학교","addr":"황성동 539-1","road":"경북 경주시 용담로104번길 43-4","closed":false,"lbl":"유림초등학교","source":"카카오 로컬(Places) 키워드·카테고리 검색, 2026-09-21 수집 (T4 민간 POI — 공식 시설대장 아님, 누락·폐업 미반영 가능)"}},{"type":"Feature","geometry":{"type":"Point","coordinates":[129.047555001815,35.754939268342]},"properties":{"name":"의곡초등학교","kind":"초등학교","addr":"산내면 의곡리 84","road":"경북 경주시 산내면 문복로 1798-6","closed":false,"lbl":"의곡초등학교","source":"카카오 로컬(Places) 키워드·카테고리 검색, 2026-09-21 수집 (T4 민간 POI — 공식 시설대장 아님, 누락·폐업 미반영 가능)"}},{"type":"Feature","geometry":{"type":"Point","coordinates":[129.221039016202,35.993796089444]},"properties":{"name":"안강제일초등학교","kind":"초등학교","addr":"안강읍 양월리 1146-4","road":"경북 경주시 안강읍 안강중앙로 189","closed":false,"lbl":"안강제일초등학교","source":"카카오 로컬(Places) 키워드·카테고리 검색, 2026-09-21 수집 (T4 민간 POI — 공식 시설대장 아님, 누락·폐업 미반영 가능)"}},{"type":"Feature","geometry":{"type":"Point","coordinates":[129.208183193411,35.842951471715]},"properties":{"name":"월성초등학교","kind":"초등학교","addr":"노서동 35-1","road":"경북 경주시 원효로 67","closed":false,"lbl":"월성초등학교","source":"카카오 로컬(Places) 키워드·카테고리 검색, 2026-09-21 수집 (T4 민간 POI — 공식 시설대장 아님, 누락·폐업 미반영 가능)"}},{"type":"Feature","geometry":{"type":"Point","coordinates":[129.324288544991,35.716670898303]},"properties":{"name":"입실초등학교","kind":"초등학교","addr":"외동읍 입실리 1039","road":"경북 경주시 외동읍 입실로1길 94","closed":false,"lbl":"입실초등학교","source":"카카오 로컬(Places) 키워드·카테고리 검색, 2026-09-21 수집 (T4 민간 POI — 공식 시설대장 아님, 누락·폐업 미반영 가능)"}},{"type":"Feature","geometry":{"type":"Point","coordinates":[129.189717658159,35.8425470608621]},"properties":{"name":"경주초등학교","kind":"초등학교","addr":"충효동 3012","road":"경북 경주시 충효2길 20","closed":false,"lbl":"경주초등학교","source":"카카오 로컬(Places) 키워드·카테고리 검색, 2026-09-21 수집 (T4 민간 POI — 공식 시설대장 아님, 누락·폐업 미반영 가능)"}},{"type":"Feature","geometry":{"type":"Point","coordinates":[129.213151126054,35.849369179305]},"properties":{"name":"계림초등학교","kind":"초등학교","addr":"북부동 9","road":"경북 경주시 동문로43번길 16","closed":false,"lbl":"계림초등학교","source":"카카오 로컬(Places) 키워드·카테고리 검색, 2026-09-21 수집 (T4 민간 POI — 공식 시설대장 아님, 누락·폐업 미반영 가능)"}},{"type":"Feature","geometry":{"type":"Point","coordinates":[129.276805333496,35.9921374676504]},"properties":{"name":"강동초등학교 병설유치원","kind":"유치원","addr":"강동면 유금리 1111","road":"경북 경주시 강동면 강동로 80","closed":false,"lbl":"강동초등학교 병설유","source":"카카오 로컬(Places) 키워드·카테고리 검색, 2026-09-21 수집 (T4 민간 POI — 공식 시설대장 아님, 누락·폐업 미반영 가능)"}},{"type":"Feature","geometry":{"type":"Point","coordinates":[129.333052484979,35.6772591765663]},"properties":{"name":"모화초등학교 병설유치원","kind":"유치원","addr":"외동읍 모화리 237-4","road":"경북 경주시 외동읍 계동1길 12","closed":false,"lbl":"모화초등학교 병설유","source":"카카오 로컬(Places) 키워드·카테고리 검색, 2026-09-21 수집 (T4 민간 POI — 공식 시설대장 아님, 누락·폐업 미반영 가능)"}},{"type":"Feature","geometry":{"type":"Point","coordinates":[129.229382523381,35.9910066636131]},"properties":{"name":"안강초등학교 병설유치원","kind":"유치원","addr":"안강읍 안강리 321","road":"경북 경주시 안강읍 비화원로 34","closed":true,"lbl":"안강초등학교 병설유(휴원)","source":"카카오 로컬(Places) 키워드·카테고리 검색, 2026-09-21 수집 (T4 민간 POI — 공식 시설대장 아님, 누락·폐업 미반영 가능)"}},{"type":"Feature","geometry":{"type":"Point","coordinates":[129.21782162481338,35.86990606010997]},"properties":{"name":"예송유치원","kind":"유치원","addr":"황성동 230","road":"경북 경주시 유림로 69","closed":false,"lbl":"예송유치원","source":"카카오 로컬(Places) 키워드·카테고리 검색, 2026-09-21 수집 (T4 민간 POI — 공식 시설대장 아님, 누락·폐업 미반영 가능)"}},{"type":"Feature","geometry":{"type":"Point","coordinates":[129.2295536305291,35.84244135848542]},"properties":{"name":"화랑초등학교 병설유치원","kind":"유치원","addr":"구황동 862","road":"경북 경주시 임해로 116","closed":false,"lbl":"화랑초등학교 병설유","source":"카카오 로컬(Places) 키워드·카테고리 검색, 2026-09-21 수집 (T4 민간 POI — 공식 시설대장 아님, 누락·폐업 미반영 가능)"}},{"type":"Feature","geometry":{"type":"Point","coordinates":[129.289848715752,35.7727167033602]},"properties":{"name":"경주여자정보고등학교 병설동도유치원","kind":"유치원","addr":"시래동 729-1","road":"경북 경주시 시동로 90","closed":false,"lbl":"경주여자정보고등학교 병설동도유치원","source":"카카오 로컬(Places) 키워드·카테고리 검색, 2026-09-21 수집 (T4 민간 POI — 공식 시설대장 아님, 누락·폐업 미반영 가능)"}},{"type":"Feature","geometry":{"type":"Point","coordinates":[129.2388034905918,35.85025701549534]},"properties":{"name":"불국유치원","kind":"유치원","addr":"동천동 270","road":"경북 경주시 다불로 379-25","closed":false,"lbl":"불국유치원","source":"카카오 로컬(Places) 키워드·카테고리 검색, 2026-09-21 수집 (T4 민간 POI — 공식 시설대장 아님, 누락·폐업 미반영 가능)"}},{"type":"Feature","geometry":{"type":"Point","coordinates":[129.290982033504,35.7733726895346]},"properties":{"name":"경주여자정보고등학교","kind":"고등학교(특성화·특목)","addr":"시래동 729-1","road":"경북 경주시 시동로 90","closed":false,"lbl":"경주여자정보고등학교","source":"카카오 로컬(Places) 키워드·카테고리 검색, 2026-09-21 수집 (T4 민간 POI — 공식 시설대장 아님, 누락·폐업 미반영 가능)"}},{"type":"Feature","geometry":{"type":"Point","coordinates":[129.387756159731,35.7943390827241]},"properties":{"name":"경주화랑고등학교","kind":"고등학교","addr":"문무대왕면 장항리 333","road":"경북 경주시 문무대왕면 장항재동길 41","closed":false,"lbl":"경주화랑고등학교","source":"카카오 로컬(Places) 키워드·카테고리 검색, 2026-09-21 수집 (T4 민간 POI — 공식 시설대장 아님, 누락·폐업 미반영 가능)"}},{"type":"Feature","geometry":{"type":"Point","coordinates":[129.261894434784,35.8036471147721]},"properties":{"name":"동방초등학교","kind":"초등학교","addr":"동방동 151","road":"경북 경주시 산업로 3485-8","closed":false,"lbl":"동방초등학교","source":"카카오 로컬(Places) 키워드·카테고리 검색, 2026-09-21 수집 (T4 민간 POI — 공식 시설대장 아님, 누락·폐업 미반영 가능)"}},{"type":"Feature","geometry":{"type":"Point","coordinates":[129.189721587206,35.8425289682563]},"properties":{"name":"경주초등학교 병설유치원","kind":"유치원","addr":"충효동 3012","road":"경북 경주시 충효2길 20","closed":false,"lbl":"경주초등학교 병설유","source":"카카오 로컬(Places) 키워드·카테고리 검색, 2026-09-21 수집 (T4 민간 POI — 공식 시설대장 아님, 누락·폐업 미반영 가능)"}},{"type":"Feature","geometry":{"type":"Point","coordinates":[129.203419206829,35.8697819607154]},"properties":{"name":"나원초등학교","kind":"초등학교","addr":"현곡면 금장리 394","road":"경북 경주시 현곡면 안현로 20","closed":false,"lbl":"나원초등학교","source":"카카오 로컬(Places) 키워드·카테고리 검색, 2026-09-21 수집 (T4 민간 POI — 공식 시설대장 아님, 누락·폐업 미반영 가능)"}},{"type":"Feature","geometry":{"type":"Point","coordinates":[129.228140318855,35.8485658309246]},"properties":{"name":"동천초등학교","kind":"초등학교","addr":"동천동 586-10","road":"경북 경주시 알천북로249번길 20","closed":false,"lbl":"동천초등학교","source":"카카오 로컬(Places) 키워드·카테고리 검색, 2026-09-21 수집 (T4 민간 POI — 공식 시설대장 아님, 누락·폐업 미반영 가능)"}},{"type":"Feature","geometry":{"type":"Point","coordinates":[129.309117396335,35.7736167573693]},"properties":{"name":"불국중학교","kind":"중학교","addr":"시래동 206","road":"경북 경주시 구매2길 35-12","closed":false,"lbl":"불국중학교","source":"카카오 로컬(Places) 키워드·카테고리 검색, 2026-09-21 수집 (T4 민간 POI — 공식 시설대장 아님, 누락·폐업 미반영 가능)"}},{"type":"Feature","geometry":{"type":"Point","coordinates":[129.30127746988,35.7781137026713]},"properties":{"name":"불국사초등학교","kind":"초등학교","addr":"구정동 392-2","road":"경북 경주시 불국사초등길 27","closed":false,"lbl":"불국사초등학교","source":"카카오 로컬(Places) 키워드·카테고리 검색, 2026-09-21 수집 (T4 민간 POI — 공식 시설대장 아님, 누락·폐업 미반영 가능)"}},{"type":"Feature","geometry":{"type":"Point","coordinates":[129.18767482446,35.8400505336533]},"properties":{"name":"신라고등학교","kind":"고등학교","addr":"충효동 191","road":"경북 경주시 태종로 526","closed":false,"lbl":"신라고등학교","source":"카카오 로컬(Places) 키워드·카테고리 검색, 2026-09-21 수집 (T4 민간 POI — 공식 시설대장 아님, 누락·폐업 미반영 가능)"}},{"type":"Feature","geometry":{"type":"Point","coordinates":[129.217253034751,35.8548655700275]},"properties":{"name":"신라중학교","kind":"중학교","addr":"황성동 1053-18","road":"경북 경주시 알천북로 143","closed":false,"lbl":"신라중학교","source":"카카오 로컬(Places) 키워드·카테고리 검색, 2026-09-21 수집 (T4 민간 POI — 공식 시설대장 아님, 누락·폐업 미반영 가능)"}},{"type":"Feature","geometry":{"type":"Point","coordinates":[129.05346948459638,35.892778802957444]},"properties":{"name":"아화초등학교 병설유치원","kind":"유치원","addr":"서면 아화리 282","road":"경북 경주시 서면 내서로 461","closed":false,"lbl":"아화초등학교 병설유","source":"카카오 로컬(Places) 키워드·카테고리 검색, 2026-09-21 수집 (T4 민간 POI — 공식 시설대장 아님, 누락·폐업 미반영 가능)"}},{"type":"Feature","geometry":{"type":"Point","coordinates":[129.053478432733,35.892782254172]},"properties":{"name":"아화초등학교","kind":"초등학교","addr":"서면 아화리 282","road":"경북 경주시 서면 내서로 461","closed":false,"lbl":"아화초등학교","source":"카카오 로컬(Places) 키워드·카테고리 검색, 2026-09-21 수집 (T4 민간 POI — 공식 시설대장 아님, 누락·폐업 미반영 가능)"}},{"type":"Feature","geometry":{"type":"Point","coordinates":[129.294862069871,35.7541858513563]},"properties":{"name":"영지초등학교","kind":"초등학교","addr":"외동읍 방어리 634","road":"경북 경주시 외동읍 영지로 449","closed":false,"lbl":"영지초등학교","source":"카카오 로컬(Places) 키워드·카테고리 검색, 2026-09-21 수집 (T4 민간 POI — 공식 시설대장 아님, 누락·폐업 미반영 가능)"}},{"type":"Feature","geometry":{"type":"Point","coordinates":[129.1808463856427,35.887117496526926]},"properties":{"name":"현곡초등학교","kind":"초등학교","addr":"현곡면 하구리 1120","road":"경북 경주시 현곡면 다경길 16-7","closed":false,"lbl":"현곡초등학교","source":"카카오 로컬(Places) 키워드·카테고리 검색, 2026-09-21 수집 (T4 민간 POI — 공식 시설대장 아님, 누락·폐업 미반영 가능)"}},{"type":"Feature","geometry":{"type":"Point","coordinates":[129.2290628926327,35.88458303574639]},"properties":{"name":"황남초등학교 병설유치원","kind":"유치원","addr":"용강동 1675","road":"경북 경주시 광중2길 28","closed":false,"lbl":"황남초등학교 병설유","source":"카카오 로컬(Places) 키워드·카테고리 검색, 2026-09-21 수집 (T4 민간 POI — 공식 시설대장 아님, 누락·폐업 미반영 가능)"}},{"type":"Feature","geometry":{"type":"Point","coordinates":[129.205640750473,35.8577536963784]},"properties":{"name":"경주여자고등학교","kind":"고등학교","addr":"성건동 620-118","road":"경북 경주시 금성로 437","closed":false,"lbl":"경주여자고등학교","source":"카카오 로컬(Places) 키워드·카테고리 검색, 2026-09-21 수집 (T4 민간 POI — 공식 시설대장 아님, 누락·폐업 미반영 가능)"}},{"type":"Feature","geometry":{"type":"Point","coordinates":[129.19772230626,36.0029945142334]},"properties":{"name":"산대초등학교","kind":"초등학교","addr":"안강읍 산대리 2387","road":"경북 경주시 안강읍 구부랑길 54-5","closed":false,"lbl":"산대초등학교","source":"카카오 로컬(Places) 키워드·카테고리 검색, 2026-09-21 수집 (T4 민간 POI — 공식 시설대장 아님, 누락·폐업 미반영 가능)"}},{"type":"Feature","geometry":{"type":"Point","coordinates":[129.19805830064539,36.002874825507384]},"properties":{"name":"산대초등학교 병설유치원","kind":"유치원","addr":"안강읍 산대리 2387","road":"경북 경주시 안강읍 구부랑길 54-5","closed":false,"lbl":"산대초등학교 병설유","source":"카카오 로컬(Places) 키워드·카테고리 검색, 2026-09-21 수집 (T4 민간 POI — 공식 시설대장 아님, 누락·폐업 미반영 가능)"}},{"type":"Feature","geometry":{"type":"Point","coordinates":[129.21742475698858,35.85566612897487]},"properties":{"name":"서라벌여자중학교","kind":"중학교","addr":"황성동 1053-18","road":"경북 경주시 알천북로145번길 23","closed":false,"lbl":"서라벌여자중학교","source":"카카오 로컬(Places) 키워드·카테고리 검색, 2026-09-21 수집 (T4 민간 POI — 공식 시설대장 아님, 누락·폐업 미반영 가능)"}},{"type":"Feature","geometry":{"type":"Point","coordinates":[129.208709179364,35.866376146314]},"properties":{"name":"계림고등학교","kind":"고등학교","addr":"황성동 897-1","road":"경북 경주시 용담로 122","closed":false,"lbl":"계림고등학교","source":"카카오 로컬(Places) 키워드·카테고리 검색, 2026-09-21 수집 (T4 민간 POI — 공식 시설대장 아님, 누락·폐업 미반영 가능)"}},{"type":"Feature","geometry":{"type":"Point","coordinates":[129.322413500443,35.7601442587323]},"properties":{"name":"괘릉초등학교","kind":"초등학교","addr":"외동읍 괘릉리 595","road":"경북 경주시 외동읍 신계입실길 139-5","closed":false,"lbl":"괘릉초등학교","source":"카카오 로컬(Places) 키워드·카테고리 검색, 2026-09-21 수집 (T4 민간 POI — 공식 시설대장 아님, 누락·폐업 미반영 가능)"}},{"type":"Feature","geometry":{"type":"Point","coordinates":[129.50658815948412,35.81108676782497]},"properties":{"name":"감포중학교","kind":"중학교","addr":"감포읍 오류리 478-2","road":"경북 경주시 감포읍 감포로12길 20","closed":false,"lbl":"감포중학교","source":"카카오 로컬(Places) 키워드·카테고리 검색, 2026-09-21 수집 (T4 민간 POI — 공식 시설대장 아님, 누락·폐업 미반영 가능)"}},{"type":"Feature","geometry":{"type":"Point","coordinates":[129.046482223552,35.7527624835596]},"properties":{"name":"산내중학교","kind":"중학교","addr":"산내면 의곡리 70-65","road":"경북 경주시 산내면 문복로 1797-27","closed":false,"lbl":"산내중학교","source":"카카오 로컬(Places) 키워드·카테고리 검색, 2026-09-21 수집 (T4 민간 POI — 공식 시설대장 아님, 누락·폐업 미반영 가능)"}},{"type":"Feature","geometry":{"type":"Point","coordinates":[129.507154180409,35.8110767590507]},"properties":{"name":"한국국제통상마이스터고등학교","kind":"고등학교(특성화·특목)","addr":"감포읍 오류리 478-2","road":"경북 경주시 감포읍 감포로12길 20","closed":false,"lbl":"한국국제통상마이스터고등학교","source":"카카오 로컬(Places) 키워드·카테고리 검색, 2026-09-21 수집 (T4 민간 POI — 공식 시설대장 아님, 누락·폐업 미반영 가능)"}},{"type":"Feature","geometry":{"type":"Point","coordinates":[129.22147922112617,35.865268374860285]},"properties":{"name":"용황초등학교","kind":"초등학교","addr":"용강동 1177","road":"경북 경주시 원지길30번길 31","closed":false,"lbl":"용황초등학교","source":"카카오 로컬(Places) 키워드·카테고리 검색, 2026-09-21 수집 (T4 민간 POI — 공식 시설대장 아님, 누락·폐업 미반영 가능)"}},{"type":"Feature","geometry":{"type":"Point","coordinates":[129.318796326415,35.7281444072429]},"properties":{"name":"연안초등학교","kind":"초등학교","addr":"외동읍 연안리 777-42","road":"경북 경주시 외동읍 연안1길 15","closed":false,"lbl":"연안초등학교","source":"카카오 로컬(Places) 키워드·카테고리 검색, 2026-09-21 수집 (T4 민간 POI — 공식 시설대장 아님, 누락·폐업 미반영 가능)"}},{"type":"Feature","geometry":{"type":"Point","coordinates":[129.09738668086027,35.84516521623501]},"properties":{"name":"무산고등학교","kind":"고등학교","addr":"건천읍 천포리 636","road":"경북 경주시 건천읍 천포방내길 18","closed":false,"lbl":"무산고등학교","source":"카카오 로컬(Places) 키워드·카테고리 검색, 2026-09-21 수집 (T4 민간 POI — 공식 시설대장 아님, 누락·폐업 미반영 가능)"}},{"type":"Feature","geometry":{"type":"Point","coordinates":[129.22331809851465,35.8593739782453]},"properties":{"name":"황성초등학교","kind":"초등학교","addr":"동천동 695-6","road":"경북 경주시 양정로287번길 12","closed":false,"lbl":"황성초등학교","source":"카카오 로컬(Places) 키워드·카테고리 검색, 2026-09-21 수집 (T4 민간 POI — 공식 시설대장 아님, 누락·폐업 미반영 가능)"}},{"type":"Feature","geometry":{"type":"Point","coordinates":[129.169251270392,35.9957352991791]},"properties":{"name":"안강옥산초등학교","kind":"초등학교","addr":"안강읍 옥산리 1116","road":"경북 경주시 안강읍 낙헌2길 48","closed":false,"lbl":"안강옥산초등학교","source":"카카오 로컬(Places) 키워드·카테고리 검색, 2026-09-21 수집 (T4 민간 POI — 공식 시설대장 아님, 누락·폐업 미반영 가능)"}},{"type":"Feature","geometry":{"type":"Point","coordinates":[129.22799043811537,35.84787661196145]},"properties":{"name":"동천초등학교 병설유치원","kind":"유치원","addr":"동천동 586-10","road":"경북 경주시 알천북로249번길 20","closed":false,"lbl":"동천초등학교 병설유","source":"카카오 로컬(Places) 키워드·카테고리 검색, 2026-09-21 수집 (T4 민간 POI — 공식 시설대장 아님, 누락·폐업 미반영 가능)"}},{"type":"Feature","geometry":{"type":"Point","coordinates":[129.194394055085,36.003736652266]},"properties":{"name":"나비어린이집","kind":"유치원","addr":"안강읍 산대리 2392","road":"경북 경주시 안강읍 구부랑4길 24-13","closed":false,"lbl":"나비어린이집","source":"카카오 로컬(Places) 키워드·카테고리 검색, 2026-09-21 수집 (T4 민간 POI — 공식 시설대장 아님, 누락·폐업 미반영 가능)"}},{"type":"Feature","geometry":{"type":"Point","coordinates":[129.1978567593924,35.86294135684774]},"properties":{"name":"동국대학교 부속유치원","kind":"유치원","addr":"석장동 707","road":"경북 경주시 동대로 159","closed":false,"lbl":"동국대학교 부속유치원","source":"카카오 로컬(Places) 키워드·카테고리 검색, 2026-09-21 수집 (T4 민간 POI — 공식 시설대장 아님, 누락·폐업 미반영 가능)"}},{"type":"Feature","geometry":{"type":"Point","coordinates":[129.220791964279,35.8645999006173]},"properties":{"name":"용황유치원","kind":"유치원","addr":"황성동 325-1","road":"경북 경주시 원지길12번길 49","closed":false,"lbl":"용황유치원","source":"카카오 로컬(Places) 키워드·카테고리 검색, 2026-09-21 수집 (T4 민간 POI — 공식 시설대장 아님, 누락·폐업 미반영 가능)"}},{"type":"Feature","geometry":{"type":"Point","coordinates":[129.168794946508,35.8533356174762]},"properties":{"name":"문화고등학교","kind":"고등학교","addr":"충효동 717","road":"경북 경주시 충현로 98","closed":false,"lbl":"문화고등학교","source":"카카오 로컬(Places) 키워드·카테고리 검색, 2026-09-21 수집 (T4 민간 POI — 공식 시설대장 아님, 누락·폐업 미반영 가능)"}},{"type":"Feature","geometry":{"type":"Point","coordinates":[129.303959248456,35.7806176620319]},"properties":{"name":"마루유치원","kind":"유치원","addr":"구정동 616-91","road":"경북 경주시 불국로 80-8","closed":false,"lbl":"마루유치원","source":"카카오 로컬(Places) 키워드·카테고리 검색, 2026-09-21 수집 (T4 민간 POI — 공식 시설대장 아님, 누락·폐업 미반영 가능)"}},{"type":"Feature","geometry":{"type":"Point","coordinates":[129.32238751888434,35.760277212482194]},"properties":{"name":"괘릉초등학교 병설유치원","kind":"유치원","addr":"외동읍 괘릉리 595","road":"경북 경주시 외동읍 신계입실길 139-5","closed":false,"lbl":"괘릉초등학교 병설유","source":"카카오 로컬(Places) 키워드·카테고리 검색, 2026-09-21 수집 (T4 민간 POI — 공식 시설대장 아님, 누락·폐업 미반영 가능)"}},{"type":"Feature","geometry":{"type":"Point","coordinates":[129.470546117753,35.6978690976093]},"properties":{"name":"나산초등학교 병설유치원","kind":"유치원","addr":"양남면 읍천리 17","road":"경북 경주시 양남면 동해안로 625-9","closed":false,"lbl":"나산초등학교 병설유","source":"카카오 로컬(Places) 키워드·카테고리 검색, 2026-09-21 수집 (T4 민간 POI — 공식 시설대장 아님, 누락·폐업 미반영 가능)"}},{"type":"Feature","geometry":{"type":"Point","coordinates":[129.1960593404858,35.7648902925057]},"properties":{"name":"내남초등학교 병설유치원","kind":"유치원","addr":"내남면 부지리 431-1","road":"경북 경주시 내남면 경덕로 286","closed":false,"lbl":"내남초등학교 병설유","source":"카카오 로컬(Places) 키워드·카테고리 검색, 2026-09-21 수집 (T4 민간 POI — 공식 시설대장 아님, 누락·폐업 미반영 가능)"}},{"type":"Feature","geometry":{"type":"Point","coordinates":[129.13094403328543,35.8237852902576]},"properties":{"name":"모량초등학교 병설유치원","kind":"유치원","addr":"건천읍 모량리 612-14","road":"경북 경주시 건천읍 내서로 1504","closed":false,"lbl":"모량초등학교 병설유","source":"카카오 로컬(Places) 키워드·카테고리 검색, 2026-09-21 수집 (T4 민간 POI — 공식 시설대장 아님, 누락·폐업 미반영 가능)"}},{"type":"Feature","geometry":{"type":"Point","coordinates":[129.46109694960853,35.67542212158124]},"properties":{"name":"양남초등학교 병설유치원","kind":"유치원","addr":"양남면 하서리 566","road":"경북 경주시 양남면 양남로 335-1","closed":false,"lbl":"양남초등학교 병설유","source":"카카오 로컬(Places) 키워드·카테고리 검색, 2026-09-21 수집 (T4 민간 POI — 공식 시설대장 아님, 누락·폐업 미반영 가능)"}},{"type":"Feature","geometry":{"type":"Point","coordinates":[129.25288216779916,35.99773324501959]},"properties":{"name":"양동초등학교 병설유치원","kind":"유치원","addr":"강동면 양동리 65-1","road":"경북 경주시 강동면 양동마을길 109","closed":true,"lbl":"양동초등학교 병설유(휴원)","source":"카카오 로컬(Places) 키워드·카테고리 검색, 2026-09-21 수집 (T4 민간 POI — 공식 시설대장 아님, 누락·폐업 미반영 가능)"}},{"type":"Feature","geometry":{"type":"Point","coordinates":[129.443798809863,35.7856512222236]},"properties":{"name":"양북초등학교 병설유치원","kind":"유치원","addr":"문무대왕면 어일리 701","road":"경북 경주시 문무대왕면 어일남길 2","closed":false,"lbl":"양북초등학교 병설유","source":"카카오 로컬(Places) 키워드·카테고리 검색, 2026-09-21 수집 (T4 민간 POI — 공식 시설대장 아님, 누락·폐업 미반영 가능)"}},{"type":"Feature","geometry":{"type":"Point","coordinates":[129.169331063466,35.9957338556125]},"properties":{"name":"옥산초등학교 병설유치원","kind":"유치원","addr":"안강읍 옥산리 1116","road":"경북 경주시 안강읍 낙헌2길 48","closed":false,"lbl":"옥산초등학교 병설유","source":"카카오 로컬(Places) 키워드·카테고리 검색, 2026-09-21 수집 (T4 민간 POI — 공식 시설대장 아님, 누락·폐업 미반영 가능)"}},{"type":"Feature","geometry":{"type":"Point","coordinates":[129.324328507043,35.7166773343882]},"properties":{"name":"입실초등학교 병설유치원","kind":"유치원","addr":"외동읍 입실리 1039","road":"경북 경주시 외동읍 입실로1길 94","closed":false,"lbl":"입실초등학교 병설유","source":"카카오 로컬(Places) 키워드·카테고리 검색, 2026-09-21 수집 (T4 민간 POI — 공식 시설대장 아님, 누락·폐업 미반영 가능)"}},{"type":"Feature","geometry":{"type":"Point","coordinates":[129.203424530669,35.8698143005635]},"properties":{"name":"나원초등학교 병설유치원","kind":"유치원","addr":"현곡면 금장리 394","road":"경북 경주시 현곡면 안현로 20","closed":false,"lbl":"나원초등학교 병설유","source":"카카오 로컬(Places) 키워드·카테고리 검색, 2026-09-21 수집 (T4 민간 POI — 공식 시설대장 아님, 누락·폐업 미반영 가능)"}},{"type":"Feature","geometry":{"type":"Point","coordinates":[129.24662087924588,35.920606919630096]},"properties":{"name":"모아초등학교병설유치원","kind":"유치원","addr":"천북면 모아리 588","road":"경북 경주시 천북면 산업로 4974-5","closed":false,"lbl":"모아초등학교병설유","source":"카카오 로컬(Places) 키워드·카테고리 검색, 2026-09-21 수집 (T4 민간 POI — 공식 시설대장 아님, 누락·폐업 미반영 가능)"}},{"type":"Feature","geometry":{"type":"Point","coordinates":[129.09413275915506,35.84494626357866]},"properties":{"name":"천포초등학교 병설유치원","kind":"유치원","addr":"건천읍 천포리 721","road":"경북 경주시 건천읍 단석로 1929","closed":false,"lbl":"천포초등학교 병설유","source":"카카오 로컬(Places) 키워드·카테고리 검색, 2026-09-21 수집 (T4 민간 POI — 공식 시설대장 아님, 누락·폐업 미반영 가능)"}},{"type":"Feature","geometry":{"type":"Point","coordinates":[129.22059728669,35.9914868375244]},"properties":{"name":"샛별유치원","kind":"유치원","addr":"안강읍 양월리 1214","road":"경북 경주시 안강읍 비화원로 112","closed":false,"lbl":"샛별유치원","source":"카카오 로컬(Places) 키워드·카테고리 검색, 2026-09-21 수집 (T4 민간 POI — 공식 시설대장 아님, 누락·폐업 미반영 가능)"}},{"type":"Feature","geometry":{"type":"Point","coordinates":[129.21334542291373,35.86785769084003]},"properties":{"name":"현대유치원","kind":"유치원","addr":"황성동 533-9","road":"경북 경주시 용담로92번길 43-9","closed":false,"lbl":"현대유치원","source":"카카오 로컬(Places) 키워드·카테고리 검색, 2026-09-21 수집 (T4 민간 POI — 공식 시설대장 아님, 누락·폐업 미반영 가능)"}},{"type":"Feature","geometry":{"type":"Point","coordinates":[129.22590931185,35.9384043939892]},"properties":{"name":"사방초등학교 병설유치원","kind":"유치원","addr":"안강읍 사방리 646","road":"경북 경주시 안강읍 사방검단길 54","closed":false,"lbl":"사방초등학교 병설유","source":"카카오 로컬(Places) 키워드·카테고리 검색, 2026-09-21 수집 (T4 민간 POI — 공식 시설대장 아님, 누락·폐업 미반영 가능)"}},{"type":"Feature","geometry":{"type":"Point","coordinates":[129.195321430384,35.7650731683137]},"properties":{"name":"내남초등학교","kind":"초등학교","addr":"내남면 부지리 431-1","road":"경북 경주시 내남면 경덕로 286","closed":false,"lbl":"내남초등학교","source":"카카오 로컬(Places) 키워드·카테고리 검색, 2026-09-21 수집 (T4 민간 POI — 공식 시설대장 아님, 누락·폐업 미반영 가능)"}},{"type":"Feature","geometry":{"type":"Point","coordinates":[129.467371874179,35.6930759941446]},"properties":{"name":"월성원자력유치원","kind":"유치원","addr":"양남면 읍천리 745","road":"경북 경주시 양남면 동해안로 603-19","closed":false,"lbl":"월성원자력유치원","source":"카카오 로컬(Places) 키워드·카테고리 검색, 2026-09-21 수집 (T4 민간 POI — 공식 시설대장 아님, 누락·폐업 미반영 가능)"}},{"type":"Feature","geometry":{"type":"Point","coordinates":[129.207790207865,35.9932658819145]},"properties":{"name":"이화유치원","kind":"유치원","addr":"안강읍 산대리 2075","road":"경북 경주시 안강읍 화전북4길 22","closed":false,"lbl":"이화유치원","source":"카카오 로컬(Places) 키워드·카테고리 검색, 2026-09-21 수집 (T4 민간 POI — 공식 시설대장 아님, 누락·폐업 미반영 가능)"}},{"type":"Feature","geometry":{"type":"Point","coordinates":[129.26176587371967,35.80387209150531]},"properties":{"name":"동방초등학교병설유치원","kind":"유치원","addr":"동방동 151","road":"경북 경주시 산업로 3485-8","closed":false,"lbl":"동방초등학교병설유","source":"카카오 로컬(Places) 키워드·카테고리 검색, 2026-09-21 수집 (T4 민간 POI — 공식 시설대장 아님, 누락·폐업 미반영 가능)"}},{"type":"Feature","geometry":{"type":"Point","coordinates":[129.341960138849,35.6719033655275]},"properties":{"name":"효청보건고등학교","kind":"고등학교(특성화·특목)","addr":"외동읍 모화리 162","road":"경북 경주시 외동읍 모화남1길 26-132","closed":false,"lbl":"효청보건고등학교","source":"카카오 로컬(Places) 키워드·카테고리 검색, 2026-09-21 수집 (T4 민간 POI — 공식 시설대장 아님, 누락·폐업 미반영 가능)"}},{"type":"Feature","geometry":{"type":"Point","coordinates":[129.137385335448,35.8039763480479]},"properties":{"name":"화천초등학교 병설유치원","kind":"유치원","addr":"건천읍 화천리 2702","road":"경북 경주시 건천읍 경주역세권3로 60","closed":false,"lbl":"화천초등학교 병설유","source":"카카오 로컬(Places) 키워드·카테고리 검색, 2026-09-21 수집 (T4 민간 POI — 공식 시설대장 아님, 누락·폐업 미반영 가능)"}},{"type":"Feature","geometry":{"type":"Point","coordinates":[129.205994480852,35.8364879381411]},"properties":{"name":"한국반도체마이스터고등학교","kind":"고등학교(특성화·특목)","addr":"사정동 70","road":"경북 경주시 금성로 209","closed":false,"lbl":"한국반도체마이스터고등학교","source":"카카오 로컬(Places) 키워드·카테고리 검색, 2026-09-21 수집 (T4 민간 POI — 공식 시설대장 아님, 누락·폐업 미반영 가능)"}},{"type":"Feature","geometry":{"type":"Point","coordinates":[129.1642987043,35.8353235725812]},"properties":{"name":"중앙유치원","kind":"유치원","addr":"충효동 1772-8","road":"경북 경주시 태종로 266-8","closed":false,"lbl":"중앙유치원","source":"카카오 로컬(Places) 키워드·카테고리 검색, 2026-09-21 수집 (T4 민간 POI — 공식 시설대장 아님, 누락·폐업 미반영 가능)"}},{"type":"Feature","geometry":{"type":"Point","coordinates":[129.211629632486,35.992903195692]},"properties":{"name":"경주예일고등학교","kind":"고등학교","addr":"안강읍 산대리 1859","road":"경북 경주시 안강읍 화전길 62-8","closed":false,"lbl":"경주예일고등학교","source":"카카오 로컬(Places) 키워드·카테고리 검색, 2026-09-21 수집 (T4 민간 POI — 공식 시설대장 아님, 누락·폐업 미반영 가능)"}},{"type":"Feature","geometry":{"type":"Point","coordinates":[129.13737865362663,35.80397466476461]},"properties":{"name":"화천초등학교","kind":"초등학교","addr":"건천읍 화천리 2702","road":"경북 경주시 건천읍 경주역세권3로 60","closed":false,"lbl":"화천초등학교","source":"카카오 로컬(Places) 키워드·카테고리 검색, 2026-09-21 수집 (T4 민간 POI — 공식 시설대장 아님, 누락·폐업 미반영 가능)"}},{"type":"Feature","geometry":{"type":"Point","coordinates":[129.22971896154675,35.88484116351569]},"properties":{"name":"황남초등학교","kind":"초등학교","addr":"용강동 1675","road":"경북 경주시 광중2길 28","closed":false,"lbl":"황남초등학교","source":"카카오 로컬(Places) 키워드·카테고리 검색, 2026-09-21 수집 (T4 민간 POI — 공식 시설대장 아님, 누락·폐업 미반영 가능)"}},{"type":"Feature","geometry":{"type":"Point","coordinates":[129.33084775748105,35.789286121690196]},"properties":{"name":"불국사 승가대학","kind":"대학교","addr":"진현동 22-2","road":"경북 경주시 불국로 385","closed":false,"lbl":"불국사 승가대학","source":"카카오 로컬(Places) 키워드·카테고리 검색, 2026-09-21 수집 (T4 민간 POI — 공식 시설대장 아님, 누락·폐업 미반영 가능)"}}]}