{"type":"FeatureCollection","features":[{"type":"Feature","geometry":{"type":"Point","coordinates":[129.2135416536711,35.82479459424549]},"properties":{"name":"경주 계림","addr":"경상북도 경주시 교동 1","geocode":"ROAD","TURSM_DSTRCT":"경주시내권","TELNO":"054-779-8743"}},{"type":"Feature","geometry":{"type":"Point","coordinates":[129.21083717608727,35.8466507792228]},"properties":{"name":"경주 문화원","addr":"경상북도 경주시 중앙로 67-12","geocode":"ROAD","TURSM_DSTRCT":"경주시내권","TELNO":"054-743-7182"}},{"type":"Feature","geometry":{"type":"Point","coordinates":[129.25334605584652,35.82899700627336]},"properties":{"name":"경주 보문사지 연화문 당간지주","addr":"경상북도 경주시 보문동 752-2","geocode":"PARCEL","TURSM_DSTRCT":"경주시내권","TELNO":null}},{"type":"Feature","geometry":{"type":"Point","coordinates":[129.22619354109605,35.8309318347593]},"properties":{"name":"경주 월성","addr":"경상북도 경주시 인왕동 387-1","geocode":"PARCEL","TURSM_DSTRCT":"경주시내권","TELNO":null}},{"type":"Feature","geometry":{"type":"Point","coordinates":[129.21388049422524,35.84727681432861]},"properties":{"name":"경주읍성","addr":"경상북도 경주시 동문로 31","geocode":"ROAD","TURSM_DSTRCT":"경주시내권","TELNO":null}},{"type":"Feature","geometry":{"type":"Point","coordinates":[129.21648328331207,35.830559186530635]},"properties":{"name":"경주최부자댁","addr":"경상북도 경주시 교촌안길 27-44","geocode":"ROAD","TURSM_DSTRCT":"경주시내권","TELNO":null}},{"type":"Feature","geometry":{"type":"Point","coordinates":[129.21703100035958,35.83111093928235]},"properties":{"name":"경주향교","addr":"경상북도 경주시 교동 17-1","geocode":"PARCEL","TURSM_DSTRCT":"경주시내권","TELNO":"054-775-3624"}},{"type":"Feature","geometry":{"type":"Point","coordinates":[129.2147370633527,35.829504113566045]},"properties":{"name":"교촌마을","addr":"경상북도 경주시 교촌길 39-2 (교동)","geocode":"ROAD","TURSM_DSTRCT":"경주시내권","TELNO":"054-760-7880"}},{"type":"Feature","geometry":{"type":"Point","coordinates":[129.22872545373633,35.82881892311139]},"properties":{"name":"국립경주박물관","addr":"경상북도 경주시 일정로 186, 국립경주박물관 (인왕동)","geocode":"ROAD","TURSM_DSTRCT":"경주시내권","TELNO":"054-740-7500"}},{"type":"Feature","geometry":{"type":"Point","coordinates":[129.20096384616477,35.8605638810707]},"properties":{"name":"금장대","addr":"경상북도 경주시 석장동 산 38-9","geocode":"PARCEL","TURSM_DSTRCT":"경주시내권","TELNO":null}},{"type":"Feature","geometry":{"type":"Point","coordinates":[129.24562725535546,35.832848587550586]},"properties":{"name":"낭산","addr":"경상북도 경주시 보문동 214-2","geocode":"PARCEL","TURSM_DSTRCT":"경주시내권","TELNO":"054-779-6109"}},{"type":"Feature","geometry":{"type":"Point","coordinates":[129.20980601621926,35.84110943557266]},"properties":{"name":"노서동 고분군","addr":"경상북도 경주시 노서동 104","geocode":"PARCEL","TURSM_DSTRCT":"경주시내권","TELNO":null}},{"type":"Feature","geometry":{"type":"Point","coordinates":[129.23992293584274,35.8263431782232]},"properties":{"name":"능지탑지","addr":"경상북도 경주시 배반동 621-1","geocode":"PARCEL","TURSM_DSTRCT":"경주시내권","TELNO":"054-779-8743"}},{"type":"Feature","geometry":{"type":"Point","coordinates":[129.21817337868436,35.81963522299753]},"properties":{"name":"대릉원","addr":"경상북도 경주시 황남동 31-1","geocode":"ROAD","TURSM_DSTRCT":"경주시내권","TELNO":"054-750-8650"}},{"type":"Feature","geometry":{"type":"Point","coordinates":[129.21369634132998,35.840905396608356]},"properties":{"name":"대릉원 돌담길","addr":"경상북도 경주시 태종로 783","geocode":"ROAD","TURSM_DSTRCT":"경주시내권","TELNO":null}},{"type":"Feature","geometry":{"type":"Point","coordinates":[129.21354201468975,35.83663517852747]},"properties":{"name":"대릉원 미추왕릉","addr":"경상북도 경주시 황남동 89-2","geocode":"PARCEL","TURSM_DSTRCT":"경주시내권","TELNO":"054-750-8650"}},{"type":"Feature","geometry":{"type":"Point","coordinates":[129.2268334644645,35.83409917396094]},"properties":{"name":"동궁과 월지","addr":"경상북도 경주시 원화로 102","geocode":"ROAD","TURSM_DSTRCT":"경주시내권","TELNO":null}},{"type":"Feature","geometry":{"type":"Point","coordinates":[129.22694063857136,35.824701350452166]},"properties":{"name":"동궁과 월지 연꽃단지","addr":"경상북도 경주시 양지길 35-1","geocode":"ROAD","TURSM_DSTRCT":"경주시내권","TELNO":"054-750-8655"}},{"type":"Feature","geometry":{"type":"Point","coordinates":[129.21778858222325,35.8352951700499]},"properties":{"name":"동부사적지구 꽃단지","addr":"경상북도 경주시 황남동 104-1","geocode":"PARCEL","TURSM_DSTRCT":"경주시내권","TELNO":"054-779-8755"}},{"type":"Feature","geometry":{"type":"Point","coordinates":[129.2311287762772,35.859356335642914]},"properties":{"name":"백률사","addr":"경상북도 경주시 산업로 4214-110 (동천동) ","geocode":"ROAD","TURSM_DSTRCT":"경주시내권","TELNO":"054-779-6109"}},{"type":"Feature","geometry":{"type":"Point","coordinates":[129.21064599787158,35.84125844397636]},"properties":{"name":"봉황대","addr":"경상북도 경주시 노동동 261","geocode":"PARCEL","TURSM_DSTRCT":"경주시내권","TELNO":null}},{"type":"Feature","geometry":{"type":"Point","coordinates":[129.23429282361838,35.84071074439275]},"properties":{"name":"분황사","addr":"경상북도 경주시 분황로 94-11 (구황동)","geocode":"ROAD","TURSM_DSTRCT":"경주시내권","TELNO":"054-742-9922"}},{"type":"Feature","geometry":{"type":"Point","coordinates":[129.21735325739925,35.83566293451188]},"properties":{"name":"비단벌레 전기자동차","addr":"경상북도 경주시 첨성로 149 (황남동)","geocode":"ROAD","TURSM_DSTRCT":"경주시내권","TELNO":"054-750-8658"}},{"type":"Feature","geometry":{"type":"Point","coordinates":[129.24280212480596,35.82348370561975]},"properties":{"name":"선덕여왕릉","addr":"경상북도 경주시 보문동 산79-2","geocode":"PARCEL","TURSM_DSTRCT":"경주시내권","TELNO":"054-779-6100"}},{"type":"Feature","geometry":{"type":"Point","coordinates":[129.21511855629785,35.84644591591277]},"properties":{"name":"성동시장","addr":"경상북도 경주시 경주시 동문로 24번길 12","geocode":"ROAD","TURSM_DSTRCT":"경주시내권","TELNO":"054-772-4226"}},{"type":"Feature","geometry":{"type":"Point","coordinates":[129.2260703175772,35.86321549376842]},"properties":{"name":"소금강산","addr":"경상북도 경주시 경주시 용강상리2길 (용강동) ","geocode":"ROAD","TURSM_DSTRCT":"경주시내권","TELNO":"054-741-7612"}},{"type":"Feature","geometry":{"type":"Point","coordinates":[129.2107873251898,35.83749353146411]},"properties":{"name":"소소밀밀","addr":"경상북도 경주시 경주시 포석로 1092번길 16","geocode":"ROAD","TURSM_DSTRCT":"경주시내권","TELNO":null}},{"type":"Feature","geometry":{"type":"Point","coordinates":[129.21353803491894,35.83538928971293]},"properties":{"name":"숭혜전","addr":"경상북도 경주시 포석로1050번길 39-11 (황남동) ","geocode":"ROAD","TURSM_DSTRCT":"경주시내권","TELNO":"054-779-6109"}},{"type":"Feature","geometry":{"type":"Point","coordinates":[129.21186775616462,35.84076629254753]},"properties":{"name":"신라대종","addr":"경상북도 경주시 태종로 767 종각","geocode":"ROAD","TURSM_DSTRCT":"경주시내권","TELNO":"054-779-6083"}},{"type":"Feature","geometry":{"type":"Point","coordinates":[129.242338048361,35.839425700801996]},"properties":{"name":"신라왕경숲","addr":"경상북도 경주시 경주시 구황동 885-6","geocode":"PARCEL","TURSM_DSTRCT":"경주시내권","TELNO":null}},{"type":"Feature","geometry":{"type":"Point","coordinates":[129.20949994971028,35.837653666575974]},"properties":{"name":"어서어서","addr":"경상북도 경주시 경주시 포석로 1083","geocode":"ROAD","TURSM_DSTRCT":"경주시내권","TELNO":null}},{"type":"Feature","geometry":{"type":"Point","coordinates":[129.221986916579,35.843141305009496]},"properties":{"name":"오늘은 책방","addr":"경상북도 경주시 원효로163번길 41-2 (황오동)","geocode":"ROAD","TURSM_DSTRCT":"경주시내권","TELNO":null}},{"type":"Feature","geometry":{"type":"Point","coordinates":[129.22040548054605,35.828871174806395]},"properties":{"name":"월정교","addr":"경상북도 경주시 교동 274","geocode":"PARCEL","TURSM_DSTRCT":"경주시내권","TELNO":null}},{"type":"Feature","geometry":{"type":"Point","coordinates":[129.20674535383108,35.843962160953964]},"properties":{"name":"중앙시장 야시장","addr":"경상북도 경주시 금성로 295, 중앙시장 (성건동)","geocode":"ROAD","TURSM_DSTRCT":"경주시내권","TELNO":"054-743-3696"}},{"type":"Feature","geometry":{"type":"Point","coordinates":[129.21052467094012,35.83858712649268]},"properties":{"name":"천마총","addr":"경상북도 경주시 황남동 262","geocode":"PARCEL","TURSM_DSTRCT":"경주시내권","TELNO":"054-743-1925"}},{"type":"Feature","geometry":{"type":"Point","coordinates":[129.21904735966777,35.83468257614427]},"properties":{"name":"첨성대","addr":"경상북도 경주시 인왕동 839-1","geocode":"PARCEL","TURSM_DSTRCT":"경주시내권","TELNO":null}},{"type":"Feature","geometry":{"type":"Point","coordinates":[129.23283261101477,35.853013074452235]},"properties":{"name":"탈해왕릉","addr":"경상북도 경주시 동천동 산 17","geocode":"PARCEL","TURSM_DSTRCT":"경주시내권","TELNO":null}},{"type":"Feature","geometry":{"type":"Point","coordinates":[129.1789506795896,35.85916305006995]},"properties":{"name":"화랑마을","addr":"경상북도 경주시 석장동 1272","geocode":"PARCEL","TURSM_DSTRCT":"경주시내권","TELNO":"054-760-2432"}},{"type":"Feature","geometry":{"type":"Point","coordinates":[129.21280459377215,35.83298811609964]},"properties":{"name":"황남리 고분군 ","addr":"경상북도 경주시 황남동 157-4","geocode":"PARCEL","TURSM_DSTRCT":"경주시내권","TELNO":null}},{"type":"Feature","geometry":{"type":"Point","coordinates":[129.23067081876798,35.838281892825336]},"properties":{"name":"황룡사역사문화관","addr":"경상북도 경주시 임해로 64-19 (구황동)","geocode":"ROAD","TURSM_DSTRCT":"경주시내권","TELNO":"054-777-6862"}},{"type":"Feature","geometry":{"type":"Point","coordinates":[129.23349874612455,35.838791695277166]},"properties":{"name":"황룡사지","addr":"경상북도 경주시 경주시 구황동 320-2 ","geocode":"PARCEL","TURSM_DSTRCT":"경주시내권","TELNO":null}},{"type":"Feature","geometry":{"type":"Point","coordinates":[129.20994563156796,35.837387896785145]},"properties":{"name":"황리단길","addr":"경상북도 경주시 포석로 1080 (황남동)","geocode":"ROAD","TURSM_DSTRCT":"경주시내권","TELNO":null}},{"type":"Feature","geometry":{"type":"Point","coordinates":[129.2016840848746,35.84119981534252]},"properties":{"name":"히어로 키즈파크","addr":"경상북도 경주시 강변로 200","geocode":"ROAD","TURSM_DSTRCT":"경주시내권","TELNO":"054-624-0099"}},{"type":"Feature","geometry":{"type":"Point","coordinates":[129.239317666734,35.811991582959905]},"properties":{"name":"경상북도 산림환경 연구원","addr":"경상북도 경주시 통일로 367 (배반동)","geocode":"ROAD","TURSM_DSTRCT":"남산권","TELNO":"054-778-3813"}},{"type":"Feature","geometry":{"type":"Point","coordinates":[129.22628579086194,35.80104469436948]},"properties":{"name":"경주 남산 늠비봉오층석탑","addr":"경상북도 경주시 남산순환로 525-26, 부흥사 (배동)","geocode":"ROAD","TURSM_DSTRCT":"남산권","TELNO":null}},{"type":"Feature","geometry":{"type":"Point","coordinates":[129.2352364862341,35.77428786555495]},"properties":{"name":"경주 남산 신선암 마애보살반가상","addr":"경상북도 경주시 칠불암길 201 (남산동)","geocode":"ROAD","TURSM_DSTRCT":"남산권","TELNO":null}},{"type":"Feature","geometry":{"type":"Point","coordinates":[129.22019003299187,35.77843919896712]},"properties":{"name":"경주 남산 용장사곡삼층석탑","addr":"경상북도 경주시 용장리 산 1-1","geocode":"PARCEL","TURSM_DSTRCT":"남산권","TELNO":null}},{"type":"Feature","geometry":{"type":"Point","coordinates":[129.21269760194684,35.815962100711886]},"properties":{"name":"나정","addr":"경상북도 경주시 탑동 700-1","geocode":"PARCEL","TURSM_DSTRCT":"남산권","TELNO":"054-779-6078"}},{"type":"Feature","geometry":{"type":"Point","coordinates":[129.23047128520005,35.816768456456536]},"properties":{"name":"남산 불곡 마애여래좌상 (부처골 감실여래좌상)","addr":"경상북도 경주시 인왕동 산56번지","geocode":"PARCEL","TURSM_DSTRCT":"남산권","TELNO":null}},{"type":"Feature","geometry":{"type":"Point","coordinates":[129.2327262105654,35.81443598360228]},"properties":{"name":"남산 탑곡 마애불상군","addr":"경상북도 경주시 배반동 산 72, 산79","geocode":"PARCEL","TURSM_DSTRCT":"남산권","TELNO":null}},{"type":"Feature","geometry":{"type":"Point","coordinates":[129.21527090402068,35.82784835609215]},"properties":{"name":"남산탐방길","addr":"경상북도 경주시 교동 153-5","geocode":"PARCEL","TURSM_DSTRCT":"남산권","TELNO":null}},{"type":"Feature","geometry":{"type":"Point","coordinates":[129.2356076711795,35.81217190243221]},"properties":{"name":"보리사","addr":"경상북도 경주시 갯마을길 41-30 ","geocode":"ROAD","TURSM_DSTRCT":"남산권","TELNO":"054-748-0794"}},{"type":"Feature","geometry":{"type":"Point","coordinates":[129.2100223121497,35.79697829719133]},"properties":{"name":"삼릉","addr":"경상북도 경주시 배동 산73-1","geocode":"PARCEL","TURSM_DSTRCT":"남산권","TELNO":null}},{"type":"Feature","geometry":{"type":"Point","coordinates":[129.24196326581486,35.7964548980208]},"properties":{"name":"서출지","addr":"경상북도 경주시 남산1길 17","geocode":"ROAD","TURSM_DSTRCT":"남산권","TELNO":null}},{"type":"Feature","geometry":{"type":"Point","coordinates":[129.20895750551915,35.823415324659706]},"properties":{"name":"오릉","addr":"경상북도 경주시 탑동 67-1","geocode":"PARCEL","TURSM_DSTRCT":"남산권","TELNO":"054-750-8614"}},{"type":"Feature","geometry":{"type":"Point","coordinates":[129.2083149181054,35.752762306498305]},"properties":{"name":"용산서원","addr":"경상북도 경주시 내남면 포석로 110-34","geocode":"ROAD","TURSM_DSTRCT":"남산권","TELNO":null}},{"type":"Feature","geometry":{"type":"Point","coordinates":[129.2352364862341,35.77428786555495]},"properties":{"name":"칠불암","addr":"경상북도 경주시 칠불암길 201 (남산동)","geocode":"ROAD","TURSM_DSTRCT":"남산권","TELNO":null}},{"type":"Feature","geometry":{"type":"Point","coordinates":[129.23851342102512,35.79845148136539]},"properties":{"name":"통일전","addr":"경상북도 경주시 칠불암길 6","geocode":"ROAD","TURSM_DSTRCT":"남산권","TELNO":"054-748-1850"}},{"type":"Feature","geometry":{"type":"Point","coordinates":[129.23851342102512,35.79845148136539]},"properties":{"name":"통일전 은행나무길","addr":"경상북도 경주시 칠불암길 6(통일전)","geocode":"ROAD","TURSM_DSTRCT":"남산권","TELNO":null}},{"type":"Feature","geometry":{"type":"Point","coordinates":[129.21306729678207,35.80705723893508]},"properties":{"name":"포석정","addr":"경상북도 경주시 배동 454-1","geocode":"PARCEL","TURSM_DSTRCT":"남산권","TELNO":"054-745-8484"}},{"type":"Feature","geometry":{"type":"Point","coordinates":[129.24014232906495,35.80202909452649]},"properties":{"name":"헌강왕릉과 정강왕릉","addr":"경상북도 경주시 남산동 산 55","geocode":"PARCEL","TURSM_DSTRCT":"남산권","TELNO":"054-779-6109"}},{"type":"Feature","geometry":{"type":"Point","coordinates":[129.50201932298367,35.80409083852615]},"properties":{"name":"감포공설시장","addr":"경상북도 경주시 감포읍 감포로 115","geocode":"ROAD","TURSM_DSTRCT":"동해권","TELNO":null}},{"type":"Feature","geometry":{"type":"Point","coordinates":[129.5046033640516,35.80421497379689]},"properties":{"name":"감포항 &감포해상공원","addr":"경상북도 경주시 감포읍 감포로2길 93","geocode":"ROAD","TURSM_DSTRCT":"동해권","TELNO":null}},{"type":"Feature","geometry":{"type":"Point","coordinates":[129.5019798558941,35.80477304959492]},"properties":{"name":"감포해국길","addr":"경상북도 경주시 감포읍 감포로 119-6","geocode":"ROAD","TURSM_DSTRCT":"동해권","TELNO":null}},{"type":"Feature","geometry":{"type":"Point","coordinates":[129.4772686287027,35.748047371952346]},"properties":{"name":"경주 감은사지","addr":"경상북도 경주시 문무대왕면 용당리 55-9","geocode":"PARCEL","TURSM_DSTRCT":"동해권","TELNO":null}},{"type":"Feature","geometry":{"type":"Point","coordinates":[129.47445039044834,35.690916670077456]},"properties":{"name":"경주 양남 주상절리 ","addr":"경상북도 경주시 양남면 양남항구길 14-3","geocode":"ROAD","TURSM_DSTRCT":"동해권","TELNO":null}},{"type":"Feature","geometry":{"type":"Point","coordinates":[129.48365877271056,35.74423620288725]},"properties":{"name":"경주 이견대","addr":"경상북도 경주시 감포읍 동해안로 1480-12","geocode":"ROAD","TURSM_DSTRCT":"동해권","TELNO":null}},{"type":"Feature","geometry":{"type":"Point","coordinates":[129.47416625877617,35.68604042758501]},"properties":{"name":"경주 주상절리 전망대","addr":"경상북도 경주시 양남면 동해안로 498-13","geocode":"ROAD","TURSM_DSTRCT":"동해권","TELNO":"054-775-6366"}},{"type":"Feature","geometry":{"type":"Point","coordinates":[129.45249482521626,35.66222040060837]},"properties":{"name":"관성솔밭해변","addr":"경상북도 경주시 양남면 양남로 68-24","geocode":"ROAD","TURSM_DSTRCT":"동해권","TELNO":null}},{"type":"Feature","geometry":{"type":"Point","coordinates":[129.40280704923882,35.8357869555967]},"properties":{"name":"기림사","addr":"경상북도 경주시 문무대왕면 기림로 437-17","geocode":"ROAD","TURSM_DSTRCT":"동해권","TELNO":"054-744-2292"}},{"type":"Feature","geometry":{"type":"Point","coordinates":[129.4927257630914,35.77894453109932]},"properties":{"name":"나정고운모래해변","addr":"경상북도 경주시 감포읍 동해안로 1915","geocode":"ROAD","TURSM_DSTRCT":"동해권","TELNO":"054-779-6324"}},{"type":"Feature","geometry":{"type":"Point","coordinates":[129.48345454895633,35.739459178786724]},"properties":{"name":"문무대왕릉","addr":"경상북도 경주시 문무대왕면 봉길리 26","geocode":"PARCEL","TURSM_DSTRCT":"동해권","TELNO":null}},{"type":"Feature","geometry":{"type":"Point","coordinates":[129.4638700319369,35.67211652687004]},"properties":{"name":"물빛 사랑길 & 하서해안공원","addr":"경상북도 경주시 양남면 하서리 1516-4","geocode":"PARCEL","TURSM_DSTRCT":"동해권","TELNO":null}},{"type":"Feature","geometry":{"type":"Point","coordinates":[129.4842866225549,35.737873067642894]},"properties":{"name":"봉길대왕암해변","addr":"경상북도 경주시 문무대왕면 봉길해안길","geocode":"ROAD","TURSM_DSTRCT":"동해권","TELNO":"054-779-6324"}},{"type":"Feature","geometry":{"type":"Point","coordinates":[129.51151281018042,35.80800271587913]},"properties":{"name":"송대말등대","addr":"경상북도 경주시 감포읍 척사길 18-94","geocode":"ROAD","TURSM_DSTRCT":"동해권","TELNO":null}},{"type":"Feature","geometry":{"type":"Point","coordinates":[129.5091181198666,35.82121851965928]},"properties":{"name":"오류고아라해변","addr":"경상북도 경주시 감포읍 오류리 277-8","geocode":"PARCEL","TURSM_DSTRCT":"동해권","TELNO":"054-745-6701"}},{"type":"Feature","geometry":{"type":"Point","coordinates":[129.50856176253814,35.821046884231365]},"properties":{"name":"오류캠핑장","addr":"경상북도 경주시 감포읍 감포로 382-7","geocode":"ROAD","TURSM_DSTRCT":"동해권","TELNO":"054-750-8600"}},{"type":"Feature","geometry":{"type":"Point","coordinates":[129.47411114368958,35.69208965572615]},"properties":{"name":"읍천항 벽화마을","addr":"경상북도 경주시 양남면 양남항구길 30","geocode":"ROAD","TURSM_DSTRCT":"동해권","TELNO":null}},{"type":"Feature","geometry":{"type":"Point","coordinates":[129.49086910698963,35.78602287495095]},"properties":{"name":"전촌솔밭해변","addr":"경상북도 경주시 감포읍 동해안로 2002-3","geocode":"ROAD","TURSM_DSTRCT":"동해권","TELNO":"054-745-9239"}},{"type":"Feature","geometry":{"type":"Point","coordinates":[129.49513981189276,35.79152342504061]},"properties":{"name":"전촌항","addr":"경상북도 경주시 감포읍 전촌리 1245-11","geocode":"PARCEL","TURSM_DSTRCT":"동해권","TELNO":null}},{"type":"Feature","geometry":{"type":"Point","coordinates":[129.4348587019828,35.76712268947146]},"properties":{"name":"전통명주 전시관","addr":"경상북도 경주시 문무대왕면 명주길 154, 전통명주전시관","geocode":"ROAD","TURSM_DSTRCT":"동해권","TELNO":"054-777-3492"}},{"type":"Feature","geometry":{"type":"Point","coordinates":[129.48195838555785,35.73270804055355]},"properties":{"name":"코라드 청정누리공원","addr":"경상북도 경주시 문무대왕면 동해안로 1249","geocode":"ROAD","TURSM_DSTRCT":"동해권","TELNO":"054-778-7041"}},{"type":"Feature","geometry":{"type":"Point","coordinates":[129.3915906552458,35.79401113275696]},"properties":{"name":"한국수력원자력 본사 홍보관 '에너지팜'","addr":"경상북도 경주시 문무대왕면 불국로 1655","geocode":"ROAD","TURSM_DSTRCT":"동해권","TELNO":"054-704-8114"}},{"type":"Feature","geometry":{"type":"Point","coordinates":[129.26149732917435,35.8494899285252]},"properties":{"name":"경주 동궁원","addr":"경상북도 경주시 보문로 74-14","geocode":"ROAD","TURSM_DSTRCT":"보문관광단지권","TELNO":"054-779-8725"}},{"type":"Feature","geometry":{"type":"Point","coordinates":[129.2664113007475,35.84132852669169]},"properties":{"name":"경주 명활성","addr":"경상북도 경주시 천군동 산 334","geocode":"PARCEL","TURSM_DSTRCT":"보문관광단지권","TELNO":null}},{"type":"Feature","geometry":{"type":"Point","coordinates":[129.29278620754656,35.83731922665249]},"properties":{"name":"경주 스파월드","addr":"경상북도 경주시 엑스포로 45 (신평동) ","geocode":"ROAD","TURSM_DSTRCT":"보문관광단지권","TELNO":"054-745-8100"}},{"type":"Feature","geometry":{"type":"Point","coordinates":[129.29166142141264,35.83224619618692]},"properties":{"name":"경주 엑스포대공원","addr":"경상북도 경주시 경감로 614 (천군동)","geocode":"ROAD","TURSM_DSTRCT":"보문관광단지권","TELNO":"054-748-3011"}},{"type":"Feature","geometry":{"type":"Point","coordinates":[129.2811091035484,35.86464582857763]},"properties":{"name":"경주생활체육공원","addr":"경상북도 경주시 손곡동 519-1번지","geocode":"PARCEL","TURSM_DSTRCT":"보문관광단지권","TELNO":"054-750-8570"}},{"type":"Feature","geometry":{"type":"Point","coordinates":[129.26770681969617,35.85189202412956]},"properties":{"name":"경주세계자동차박물관","addr":"경상북도 경주시 보문로 132-22 (북군동) ","geocode":"ROAD","TURSM_DSTRCT":"보문관광단지권","TELNO":"054-742-8900"}},{"type":"Feature","geometry":{"type":"Point","coordinates":[129.28011031489484,35.83662117191168]},"properties":{"name":"경주월드","addr":"경상북도 경주시 보문로 544, 경주월드 (천군동)","geocode":"ROAD","TURSM_DSTRCT":"보문관광단지권","TELNO":"054-745-7711"}},{"type":"Feature","geometry":{"type":"Point","coordinates":[129.29166142141264,35.83224619618692]},"properties":{"name":"경주타워","addr":"경상북도 경주시 경감로 614 (천군동)","geocode":"ROAD","TURSM_DSTRCT":"보문관광단지권","TELNO":"054-740-3971"}},{"type":"Feature","geometry":{"type":"Point","coordinates":[129.2935006229228,35.846960539622714]},"properties":{"name":"경주힐링테마파크","addr":"경상북도 경주시 천북남로 101 (신평동)","geocode":"ROAD","TURSM_DSTRCT":"보문관광단지권","TELNO":"054-777-6508"}},{"type":"Feature","geometry":{"type":"Point","coordinates":[129.32135967985568,35.87542223491534]},"properties":{"name":"동대봉산 무장봉(억새군락지)","addr":"경상북도 경주시 보덕로 478-1 (암곡동)","geocode":"ROAD","TURSM_DSTRCT":"보문관광단지권","TELNO":null}},{"type":"Feature","geometry":{"type":"Point","coordinates":[129.2657814437325,35.851565931248814]},"properties":{"name":"물너울교와 물너울공원","addr":"경상북도 경주시 북군동 236-17","geocode":"PARCEL","TURSM_DSTRCT":"보문관광단지권","TELNO":null}},{"type":"Feature","geometry":{"type":"Point","coordinates":[129.2734859985884,35.85145667582853]},"properties":{"name":"보문 물레방아 광장","addr":"경상북도 경주시 보문로 280-34 (북군동) ","geocode":"ROAD","TURSM_DSTRCT":"보문관광단지권","TELNO":"054-745-7601"}},{"type":"Feature","geometry":{"type":"Point","coordinates":[129.28571916320487,35.84268231061596]},"properties":{"name":"보문관광단지","addr":"경상북도 경주시 신평동 375","geocode":"PARCEL","TURSM_DSTRCT":"보문관광단지권","TELNO":null}},{"type":"Feature","geometry":{"type":"Point","coordinates":[129.2894482180555,35.841186364108495]},"properties":{"name":"보문정","addr":"경상북도 경주시 신평동 150-1","geocode":"PARCEL","TURSM_DSTRCT":"보문관광단지권","TELNO":null}},{"type":"Feature","geometry":{"type":"Point","coordinates":[129.28422604485655,35.84132191177443]},"properties":{"name":"보문호반길 ","addr":"경상북도 경주시 신평동 719-203","geocode":"PARCEL","TURSM_DSTRCT":"보문관광단지권","TELNO":null}},{"type":"Feature","geometry":{"type":"Point","coordinates":[129.28955030273832,35.82612817092569]},"properties":{"name":"블루원 워터파크","addr":"경상북도 경주시 천군동 1688","geocode":"PARCEL","TURSM_DSTRCT":"보문관광단지권","TELNO":"054-778-9000"}},{"type":"Feature","geometry":{"type":"Point","coordinates":[129.27082372143713,35.86027926350996]},"properties":{"name":"뽀로로 아쿠아빌리지","addr":"경상북도 경주시 보문로 182-27 (북군동) ","geocode":"ROAD","TURSM_DSTRCT":"보문관광단지권","TELNO":"054-777-8300"}},{"type":"Feature","geometry":{"type":"Point","coordinates":[129.28183166408704,35.84677295909499]},"properties":{"name":"소노벨 경주 오션플레이","addr":"경상북도 경주시 보문로 402-12 대명리조트 경주","geocode":"ROAD","TURSM_DSTRCT":"보문관광단지권","TELNO":"054-778-8356"}},{"type":"Feature","geometry":{"type":"Point","coordinates":[129.29166142141264,35.83224619618692]},"properties":{"name":"솔거미술관","addr":"경상북도 경주시 경감로 614","geocode":"ROAD","TURSM_DSTRCT":"보문관광단지권","TELNO":"054-740-3990"}},{"type":"Feature","geometry":{"type":"Point","coordinates":[129.25056139988124,35.832108805582536]},"properties":{"name":"숲머리뚝방길","addr":"경상북도 경주시 보문동 608","geocode":"PARCEL","TURSM_DSTRCT":"보문관광단지권","TELNO":null}},{"type":"Feature","geometry":{"type":"Point","coordinates":[129.28986857623153,35.83455894390285]},"properties":{"name":"애니멀테마파크 주렁주렁","addr":"경상북도 경주시 엑스포로 80 (천군동 157-3) ","geocode":"ROAD","TURSM_DSTRCT":"보문관광단지권","TELNO":"1644-2153"}},{"type":"Feature","geometry":{"type":"Point","coordinates":[129.28574998022253,35.83997863967095]},"properties":{"name":"우양미술관","addr":"경상북도 경주시 보문로 484-7 (신평동)","geocode":"ROAD","TURSM_DSTRCT":"보문관광단지권","TELNO":"054-745-7075"}},{"type":"Feature","geometry":{"type":"Point","coordinates":[129.25536707305133,35.83175290589026]},"properties":{"name":"전 홍유후 설총묘","addr":"경상북도 경주시 보문동 423","geocode":"PARCEL","TURSM_DSTRCT":"보문관광단지권","TELNO":null}},{"type":"Feature","geometry":{"type":"Point","coordinates":[129.29088112876263,35.83959631230032]},"properties":{"name":"정글의법칙 미디어파크","addr":"경상북도 경주시 보문로 465-67","geocode":"ROAD","TURSM_DSTRCT":"보문관광단지권","TELNO":"1522-5775"}},{"type":"Feature","geometry":{"type":"Point","coordinates":[129.29370595418226,35.86191655535965]},"properties":{"name":"종오정 일원","addr":"경상북도 경주시 손곡3길 37-39","geocode":"ROAD","TURSM_DSTRCT":"보문관광단지권","TELNO":null}},{"type":"Feature","geometry":{"type":"Point","coordinates":[129.25056139988124,35.832108805582536]},"properties":{"name":"진평왕릉","addr":"경상북도 경주시 보문동 608","geocode":"PARCEL","TURSM_DSTRCT":"보문관광단지권","TELNO":null}},{"type":"Feature","geometry":{"type":"Point","coordinates":[129.28109374939564,35.83158390274659]},"properties":{"name":"천군동 동서삼층석탑","addr":"경상북도 경주시 천군동 550-2","geocode":"PARCEL","TURSM_DSTRCT":"보문관광단지권","TELNO":null}},{"type":"Feature","geometry":{"type":"Point","coordinates":[129.28011031489484,35.83662117191168]},"properties":{"name":"캘리포니아비치","addr":"경상북도 경주시 보문로 544 (천군동)","geocode":"ROAD","TURSM_DSTRCT":"보문관광단지권","TELNO":"054-745-7711"}},{"type":"Feature","geometry":{"type":"Point","coordinates":[129.26815101109003,35.852637744202255]},"properties":{"name":"키덜트 뮤지엄","addr":"경상북도 경주시 보문로 132-16번지 콜로세움 ","geocode":"ROAD","TURSM_DSTRCT":"보문관광단지권","TELNO":"054-744-7997"}},{"type":"Feature","geometry":{"type":"Point","coordinates":[129.2734859985884,35.85145667582853]},"properties":{"name":"테디베어박물관","addr":"경상북도 경주시 보문로 280-34","geocode":"ROAD","TURSM_DSTRCT":"보문관광단지권","TELNO":"054-742-7400"}},{"type":"Feature","geometry":{"type":"Point","coordinates":[129.289563997907,35.83994746711877]},"properties":{"name":"한국대중음악박물관","addr":"경상북도 경주시 엑스포로 9","geocode":"ROAD","TURSM_DSTRCT":"보문관광단지권","TELNO":"054-776-5502"}},{"type":"Feature","geometry":{"type":"Point","coordinates":[129.31922585807123,35.759276931845136]},"properties":{"name":"경주 원성왕릉(괘릉) ","addr":"경상북도 경주시 외동읍 괘릉리 산 17","geocode":"PARCEL","TURSM_DSTRCT":"불국사권","TELNO":null}},{"type":"Feature","geometry":{"type":"Point","coordinates":[129.36474944813602,35.75000524881135]},"properties":{"name":"경주 풍력발전(바람의언덕)","addr":"경상북도 경주시 문무대왕면 불국로 1056-185","geocode":"ROAD","TURSM_DSTRCT":"불국사권","TELNO":"054-777-6652"}},{"type":"Feature","geometry":{"type":"Point","coordinates":[129.3085496652809,35.78329441154861]},"properties":{"name":"국립경주문화재연구소 천존고","addr":"경상북도 경주시 불국로 132 (마동)","geocode":"ROAD","TURSM_DSTRCT":"불국사권","TELNO":"054-777-8847"}},{"type":"Feature","geometry":{"type":"Point","coordinates":[129.33408422670732,35.78504350641362]},"properties":{"name":"동리목월문학관","addr":"경상북도 경주시 불국로 406-3 (진현동)","geocode":"ROAD","TURSM_DSTRCT":"불국사권","TELNO":"054-779-6090"}},{"type":"Feature","geometry":{"type":"Point","coordinates":[129.3114097911486,35.80431301134033]},"properties":{"name":"민속공예촌","addr":"경상북도 경주시 보불로 230 (하동)","geocode":"ROAD","TURSM_DSTRCT":"불국사권","TELNO":"054-746-7270"}},{"type":"Feature","geometry":{"type":"Point","coordinates":[129.34403494207885,35.781782186036395]},"properties":{"name":"불국사","addr":"경상북도 경주시 진현동 산15","geocode":"PARCEL","TURSM_DSTRCT":"불국사권","TELNO":"054-746-9913"}},{"type":"Feature","geometry":{"type":"Point","coordinates":[129.33188130321332,35.792118545865776]},"properties":{"name":"불국사 박물관","addr":"경상북도 경주시 불국로 385","geocode":"ROAD","TURSM_DSTRCT":"불국사권","TELNO":"054-745-2100"}},{"type":"Feature","geometry":{"type":"Point","coordinates":[129.31135762844153,35.806882333055825]},"properties":{"name":"신라역사과학관","addr":"경상북도 경주시 하동공예촌길 33, 신라역사과학관 (하동)","geocode":"ROAD","TURSM_DSTRCT":"불국사권","TELNO":"054-745-4998"}},{"type":"Feature","geometry":{"type":"Point","coordinates":[129.30195126350316,35.75999933189118]},"properties":{"name":"영지&영지석불좌상","addr":"경상북도 경주시 외동읍 괘릉리 1261-1","geocode":"PARCEL","TURSM_DSTRCT":"불국사권","TELNO":null}},{"type":"Feature","geometry":{"type":"Point","coordinates":[129.31273217033902,35.80384598652982]},"properties":{"name":"추억의 달동네","addr":"경상북도 경주시 보불로 216-8 (하동)","geocode":"ROAD","TURSM_DSTRCT":"불국사권","TELNO":"054-748-5002"}},{"type":"Feature","geometry":{"type":"Point","coordinates":[129.34979950868058,35.79007657540265]},"properties":{"name":"토함산","addr":"경상북도 경주시 진현동 973-8","geocode":"PARCEL","TURSM_DSTRCT":"불국사권","TELNO":null}},{"type":"Feature","geometry":{"type":"Point","coordinates":[129.0774018402037,35.833022449216784]},"properties":{"name":"건천 편백나무숲","addr":"경상북도 경주시 건천읍 송선리 535-2번지(400m)","geocode":"PARCEL","TURSM_DSTRCT":"서악북부권","TELNO":null}},{"type":"Feature","geometry":{"type":"Point","coordinates":[129.2259048866186,35.8861932726712]},"properties":{"name":"경주 롤러장 CM스포츠타운 ","addr":"경상북도 경주시 광중길 97-1","geocode":"ROAD","TURSM_DSTRCT":"서악북부권","TELNO":"054-624-0555"}},{"type":"Feature","geometry":{"type":"Point","coordinates":[129.14138324674892,35.88120310307793]},"properties":{"name":"구미산","addr":"경상북도 경주시 현곡면 상구리 산 81","geocode":"PARCEL","TURSM_DSTRCT":"서악북부권","TELNO":null}},{"type":"Feature","geometry":{"type":"Point","coordinates":[129.19561769208366,35.84640515127585]},"properties":{"name":"김유신장군묘","addr":"경상북도 경주시 충효동 산 7-1","geocode":"PARCEL","TURSM_DSTRCT":"서악북부권","TELNO":null}},{"type":"Feature","geometry":{"type":"Point","coordinates":[129.18817286763098,35.82948359739292]},"properties":{"name":"누군가의책방","addr":"경상북도 경주시 서악2길 32-16","geocode":"ROAD","TURSM_DSTRCT":"서악북부권","TELNO":null}},{"type":"Feature","geometry":{"type":"Point","coordinates":[129.07341596774353,35.92272090896354]},"properties":{"name":"도리마을 은행나무숲","addr":"경상북도 경주시 서면 도리(도리1리) ","geocode":"ROAD","TURSM_DSTRCT":"서악북부권","TELNO":null}},{"type":"Feature","geometry":{"type":"Point","coordinates":[129.16013292110665,36.016673766491834]},"properties":{"name":"독락당","addr":"경상북도 경주시 안강읍 옥산서원길 300-3","geocode":"ROAD","TURSM_DSTRCT":"서악북부권","TELNO":"054-774-1950"}},{"type":"Feature","geometry":{"type":"Point","coordinates":[129.32135967985568,35.87542223491534]},"properties":{"name":"동대봉산 무장봉(억새군락지)","addr":"경상북도 경주시 보덕로 478-1 (암곡동)","geocode":"ROAD","TURSM_DSTRCT":"서악북부권","TELNO":null}},{"type":"Feature","geometry":{"type":"Point","coordinates":[129.18753903292858,35.824980360869155]},"properties":{"name":"무열왕릉","addr":"경상북도 경주시 서악동 842","geocode":"PARCEL","TURSM_DSTRCT":"서악북부권","TELNO":"054-750-8614"}},{"type":"Feature","geometry":{"type":"Point","coordinates":[129.1219939399667,35.81760835061242]},"properties":{"name":"박목월 생가","addr":"경상북도 경주시 건천읍 행정길 61","geocode":"ROAD","TURSM_DSTRCT":"서악북부권","TELNO":"054-772-3077"}},{"type":"Feature","geometry":{"type":"Point","coordinates":[129.04766067713342,35.759089291220945]},"properties":{"name":"산내 동창천","addr":"경상북도 경주시 산내면 내일리 1782-1","geocode":"PARCEL","TURSM_DSTRCT":"서악북부권","TELNO":null}},{"type":"Feature","geometry":{"type":"Point","coordinates":[129.18485310466426,35.82795489643412]},"properties":{"name":"서악동 삼층석탑","addr":"경상북도 경주시 서악동 705-1","geocode":"PARCEL","TURSM_DSTRCT":"서악북부권","TELNO":null}},{"type":"Feature","geometry":{"type":"Point","coordinates":[129.18882545624425,35.82731088645133]},"properties":{"name":"서악서원","addr":"경상북도 경주시 서악2길 23 (서악동)","geocode":"ROAD","TURSM_DSTRCT":"서악북부권","TELNO":null}},{"type":"Feature","geometry":{"type":"Point","coordinates":[129.17432903532773,35.83243647260981]},"properties":{"name":"선도산","addr":"경상북도 경주시 효현동 산 75-2","geocode":"PARCEL","TURSM_DSTRCT":"서악북부권","TELNO":null}},{"type":"Feature","geometry":{"type":"Point","coordinates":[129.19512016009168,35.84539605316894]},"properties":{"name":"송화산(옥녀봉) ","addr":"경상북도 경주시 충효동 1-3","geocode":"PARCEL","TURSM_DSTRCT":"서악북부권","TELNO":null}},{"type":"Feature","geometry":{"type":"Point","coordinates":[129.254711032381,35.99950607254996]},"properties":{"name":"양동마을","addr":"경상북도 경주시 강동면 양동마을길 138-18","geocode":"ROAD","TURSM_DSTRCT":"서악북부권","TELNO":"054-762-2630"}},{"type":"Feature","geometry":{"type":"Point","coordinates":[129.04806833903325,35.85259158970357]},"properties":{"name":"오봉산","addr":"경상북도 경주시 서면 천촌리 산 56","geocode":"PARCEL","TURSM_DSTRCT":"서악북부권","TELNO":null}},{"type":"Feature","geometry":{"type":"Point","coordinates":[129.16318776270157,36.011572757607794]},"properties":{"name":"옥산서원","addr":"경상북도 경주시 안강읍 옥산서원길 216-27","geocode":"ROAD","TURSM_DSTRCT":"서악북부권","TELNO":"054-762-6567"}},{"type":"Feature","geometry":{"type":"Point","coordinates":[129.14349418518492,35.88892121210981]},"properties":{"name":"용담정","addr":"경상북도 경주시 현곡면 가정리 산 63-1","geocode":"PARCEL","TURSM_DSTRCT":"서악북부권","TELNO":"054-745-5345"}},{"type":"Feature","geometry":{"type":"Point","coordinates":[129.1576991709623,36.01907212275843]},"properties":{"name":"정혜사지 13층 석탑","addr":"경상북도 경주시 안강읍 옥산리1654","geocode":"PARCEL","TURSM_DSTRCT":"서악북부권","TELNO":null}},{"type":"Feature","geometry":{"type":"Point","coordinates":[129.15125983506243,35.90631641130203]},"properties":{"name":"최제우 생가","addr":"경상북도 경주시 현곡면 가정리 314","geocode":"PARCEL","TURSM_DSTRCT":"서악북부권","TELNO":null}},{"type":"Feature","geometry":{"type":"Point","coordinates":[129.1912017150874,35.82714677770174]},"properties":{"name":"키즈베리 딸기체험장","addr":"경상북도 경주시 대경로 4896-4 (서악동)","geocode":"ROAD","TURSM_DSTRCT":"서악북부권","TELNO":null}},{"type":"Feature","geometry":{"type":"Point","coordinates":[129.24204650095314,35.923455223998666]},"properties":{"name":"키즈팜 막내농부","addr":"경상북도 경주시 천북면 모아리 839","geocode":"PARCEL","TURSM_DSTRCT":"서악북부권","TELNO":null}},{"type":"Feature","geometry":{"type":"Point","coordinates":[129.0894291189939,35.770189799784326]},"properties":{"name":"화랑의 언덕(JTBC 캠핑클럽 촬영지)","addr":"경상북도 경주시 산내면 내일리 산261-1","geocode":"PARCEL","TURSM_DSTRCT":"서악북부권","TELNO":null}},{"type":"Feature","geometry":{"type":"Point","coordinates":[129.2191710852603,35.85972728867026]},"properties":{"name":"황성공원","addr":"경상북도 경주시 원화로 431-12","geocode":"ROAD","TURSM_DSTRCT":"서악북부권","TELNO":"054-750-8554"}},{"type":"Feature","geometry":{"type":"Point","coordinates":[129.20750886187483,36.01914307198181]},"properties":{"name":"흥덕왕릉","addr":"경상북도 경주시 안강읍 육통리 산 42","geocode":"PARCEL","TURSM_DSTRCT":"서악북부권","TELNO":null}},{"type":"Feature","geometry":{"type":"Point","coordinates":[129.18242944284935,35.843750643017344]},"properties":{"name":"흥무공원","addr":"경상북도 경주시 충효동 9-2 ","geocode":"ROAD","TURSM_DSTRCT":"서악북부권","TELNO":null}},{"type":"Feature","geometry":{"type":"Point","coordinates":[129.1969996757551,35.85022954603963]},"properties":{"name":"흥무로","addr":"경상북도 경주시 흥무로","geocode":"ROAD","TURSM_DSTRCT":"서악북부권","TELNO":null}}]}