{"type":"FeatureCollection","features":[{"type":"Feature","geometry":{"type":"LineString","coordinates":[[129.19090521343517,35.8460880165759],[129.2313384809979,35.828094154113955]]},"properties":{"era":1,"era_short":"왕경 남북축","era_title":"월성에서 북천으로 뻗는 왕경 계획축","years":"신라 왕경 · ~935 (Figure 3a 기준)","kind":"line","cls":"axis-hypo","cls_nm":"가설축(다큐 제시)","lbl":"","source":"「경주 도시 축의 변천사」 인터랙티브 도판(2026-09) SVG 개념축 → 배경도(미래구상 연구 2025 Figure 3d) GCP 9점 상사변환. 원문 서술: 경주시 원도심 미래구상 기획연구(2025.07) p.17–23, 77–109 · 보조 신라왕경 다큐 요약(T4). 개념선 ±100 m"}},{"type":"Feature","geometry":{"type":"LineString","coordinates":[[129.21821148321376,35.850709011972604],[129.22631694079732,35.84610687390785]]},"properties":{"era":1,"era_short":"왕경 남북축","era_title":"월성에서 북천으로 뻗는 왕경 계획축","years":"신라 왕경 · ~935 (Figure 3a 기준)","kind":"line","cls":"axis-secondary","cls_nm":"보조축·연결축","lbl":"","source":"「경주 도시 축의 변천사」 인터랙티브 도판(2026-09) SVG 개념축 → 배경도(미래구상 연구 2025 Figure 3d) GCP 9점 상사변환. 원문 서술: 경주시 원도심 미래구상 기획연구(2025.07) p.17–23, 77–109 · 보조 신라왕경 다큐 요약(T4). 개념선 ±100 m"}},{"type":"Feature","geometry":{"type":"LineString","coordinates":[[129.21817947503163,35.8484915188654],[129.22215602517463,35.84845340715628]]},"properties":{"era":1,"era_short":"왕경 남북축","era_title":"월성에서 북천으로 뻗는 왕경 계획축","years":"신라 왕경 · ~935 (Figure 3a 기준)","kind":"line","cls":"axis-secondary","cls_nm":"보조축·연결축","lbl":"","source":"「경주 도시 축의 변천사」 인터랙티브 도판(2026-09) SVG 개념축 → 배경도(미래구상 연구 2025 Figure 3d) GCP 9점 상사변환. 원문 서술: 경주시 원도심 미래구상 기획연구(2025.07) p.17–23, 77–109 · 보조 신라왕경 다큐 요약(T4). 개념선 ±100 m"}},{"type":"Feature","geometry":{"type":"LineString","coordinates":[[129.21814746895697,35.846274024923964],[129.22615481505704,35.84619714803548]]},"properties":{"era":1,"era_short":"왕경 남북축","era_title":"월성에서 북천으로 뻗는 왕경 계획축","years":"신라 왕경 · ~935 (Figure 3a 기준)","kind":"line","cls":"axis-secondary","cls_nm":"보조축·연결축","lbl":"","source":"「경주 도시 축의 변천사」 인터랙티브 도판(2026-09) SVG 개념축 → 배경도(미래구상 연구 2025 Figure 3d) GCP 9점 상사변환. 원문 서술: 경주시 원도심 미래구상 기획연구(2025.07) p.17–23, 77–109 · 보조 신라왕경 다큐 요약(T4). 개념선 ±100 m"}},{"type":"Feature","geometry":{"type":"LineString","coordinates":[[129.21811546498947,35.84405653014832],[129.2262859987375,35.84397808175275]]},"properties":{"era":1,"era_short":"왕경 남북축","era_title":"월성에서 북천으로 뻗는 왕경 계획축","years":"신라 왕경 · ~935 (Figure 3a 기준)","kind":"line","cls":"axis-secondary","cls_nm":"보조축·연결축","lbl":"","source":"「경주 도시 축의 변천사」 인터랙티브 도판(2026-09) SVG 개념축 → 배경도(미래구상 연구 2025 Figure 3d) GCP 9점 상사변환. 원문 서술: 경주시 원도심 미래구상 기획연구(2025.07) p.17–23, 77–109 · 보조 신라왕경 다큐 요약(T4). 개념선 ±100 m"}},{"type":"Feature","geometry":{"type":"LineString","coordinates":[[129.21808346312883,35.841839034538474],[129.22625376951424,35.84176058910667]]},"properties":{"era":1,"era_short":"왕경 남북축","era_title":"월성에서 북천으로 뻗는 왕경 계획축","years":"신라 왕경 · ~935 (Figure 3a 기준)","kind":"line","cls":"axis-secondary","cls_nm":"보조축·연결축","lbl":"","source":"「경주 도시 축의 변천사」 인터랙티브 도판(2026-09) SVG 개념축 → 배경도(미래구상 연구 2025 Figure 3d) GCP 9점 상사변환. 원문 서술: 경주시 원도심 미래구상 기획연구(2025.07) p.17–23, 77–109 · 보조 신라왕경 다큐 요약(T4). 개념선 ±100 m"}},{"type":"Feature","geometry":{"type":"LineString","coordinates":[[129.21805146337476,35.83962153809448],[129.22622154242234,35.83954309562607]]},"properties":{"era":1,"era_short":"왕경 남북축","era_title":"월성에서 북천으로 뻗는 왕경 계획축","years":"신라 왕경 · ~935 (Figure 3a 기준)","kind":"line","cls":"axis-secondary","cls_nm":"보조축·연결축","lbl":"","source":"「경주 도시 축의 변천사」 인터랙티브 도판(2026-09) SVG 개념축 → 배경도(미래구상 연구 2025 Figure 3d) GCP 9점 상사변환. 원문 서술: 경주시 원도심 미래구상 기획연구(2025.07) p.17–23, 77–109 · 보조 신라왕경 다큐 요약(T4). 개념선 ±100 m"}},{"type":"Feature","geometry":{"type":"LineString","coordinates":[[129.2180194657269,35.837404040816324],[129.2261893174615,35.837325601310994]]},"properties":{"era":1,"era_short":"왕경 남북축","era_title":"월성에서 북천으로 뻗는 왕경 계획축","years":"신라 왕경 · ~935 (Figure 3a 기준)","kind":"line","cls":"axis-secondary","cls_nm":"보조축·연결축","lbl":"","source":"「경주 도시 축의 변천사」 인터랙티브 도판(2026-09) SVG 개념축 → 배경도(미래구상 연구 2025 Figure 3d) GCP 9점 상사변환. 원문 서술: 경주시 원도심 미래구상 기획연구(2025.07) p.17–23, 77–109 · 보조 신라왕경 다큐 요약(T4). 개념선 ±100 m"}},{"type":"Feature","geometry":{"type":"LineString","coordinates":[[129.21821148321376,35.850709011972604],[129.21800026814907,35.83607354204906]]},"properties":{"era":1,"era_short":"왕경 남북축","era_title":"월성에서 북천으로 뻗는 왕경 계획축","years":"신라 왕경 · ~935 (Figure 3a 기준)","kind":"line","cls":"axis-secondary","cls_nm":"보조축·연결축","lbl":"","source":"「경주 도시 축의 변천사」 인터랙티브 도판(2026-09) SVG 개념축 → 배경도(미래구상 연구 2025 Figure 3d) GCP 9점 상사변환. 원문 서술: 경주시 원도심 미래구상 기획연구(2025.07) p.17–23, 77–109 · 보조 신라왕경 다큐 요약(T4). 개념선 ±100 m"}},{"type":"Feature","geometry":{"type":"LineString","coordinates":[[129.2209127649757,35.84913067687743],[129.22072350871875,35.83604745784046]]},"properties":{"era":1,"era_short":"왕경 남북축","era_title":"월성에서 북천으로 뻗는 왕경 계획축","years":"신라 왕경 · ~935 (Figure 3a 기준)","kind":"line","cls":"axis-secondary","cls_nm":"보조축·연결축","lbl":"","source":"「경주 도시 축의 변천사」 인터랙티브 도판(2026-09) SVG 개념축 → 배경도(미래구상 연구 2025 Figure 3d) GCP 9점 상사변환. 원문 서술: 경주시 원도심 미래구상 기획연구(2025.07) p.17–23, 77–109 · 보조 신라왕경 다큐 요약(T4). 개념선 ±100 m"}},{"type":"Feature","geometry":{"type":"LineString","coordinates":[[129.22361522584083,35.84764098069808],[129.22344674717442,35.83602131193117]]},"properties":{"era":1,"era_short":"왕경 남북축","era_title":"월성에서 북천으로 뻗는 왕경 계획축","years":"신라 왕경 · ~935 (Figure 3a 기준)","kind":"line","cls":"axis-secondary","cls_nm":"보조축·연결축","lbl":"","source":"「경주 도시 축의 변천사」 인터랙티브 도판(2026-09) SVG 개념축 → 배경도(미래구상 연구 2025 Figure 3d) GCP 9점 상사변환. 원문 서술: 경주시 원도심 미래구상 기획연구(2025.07) p.17–23, 77–109 · 보조 신라왕경 다큐 요약(T4). 개념선 ±100 m"}},{"type":"Feature","geometry":{"type":"LineString","coordinates":[[129.22631694079732,35.84610687390785],[129.2261699835078,35.835995104321384]]},"properties":{"era":1,"era_short":"왕경 남북축","era_title":"월성에서 북천으로 뻗는 왕경 계획축","years":"신라 왕경 · ~935 (Figure 3a 기준)","kind":"line","cls":"axis-secondary","cls_nm":"보조축·연결축","lbl":"","source":"「경주 도시 축의 변천사」 인터랙티브 도판(2026-09) SVG 개념축 → 배경도(미래구상 연구 2025 Figure 3d) GCP 9점 상사변환. 원문 서술: 경주시 원도심 미래구상 기획연구(2025.07) p.17–23, 77–109 · 보조 신라왕경 다큐 요약(T4). 개념선 ±100 m"}},{"type":"Feature","geometry":{"type":"LineString","coordinates":[[129.2190319219012,35.832071618372545],[129.21929585347635,35.85034378432399]]},"properties":{"era":1,"era_short":"왕경 남북축","era_title":"월성에서 북천으로 뻗는 왕경 계획축","years":"신라 왕경 · ~935 (Figure 3a 기준)","kind":"line","cls":"axis-main","cls_nm":"주요 도시축","lbl":"","source":"「경주 도시 축의 변천사」 인터랙티브 도판(2026-09) SVG 개념축 → 배경도(미래구상 연구 2025 Figure 3d) GCP 9점 상사변환. 원문 서술: 경주시 원도심 미래구상 기획연구(2025.07) p.17–23, 77–109 · 보조 신라왕경 다큐 요약(T4). 개념선 ±100 m"}},{"type":"Feature","geometry":{"type":"LineString","coordinates":[[129.21195196503695,35.85112358547165],[129.21696367767103,35.8510757918544],[129.21690484779032,35.84699560330892],[129.21189339182237,35.84704339362914],[129.21195196503695,35.85112358547165]]},"properties":{"era":2,"era_short":"읍성 행정축","era_title":"월성에서 읍성으로 — 행정 중심축의 이동","years":"고려–조선 · 1012–1910","kind":"line","cls":"rect","cls_nm":"읍성(개략)","lbl":"","source":"「경주 도시 축의 변천사」 인터랙티브 도판(2026-09) SVG 개념축 → 배경도(미래구상 연구 2025 Figure 3d) GCP 9점 상사변환. 원문 서술: 경주시 원도심 미래구상 기획연구(2025.07) p.17–23, 77–109 · 보조 신라왕경 다큐 요약(T4). 개념선 ±100 m"}},{"type":"Feature","geometry":{"type":"LineString","coordinates":[[129.21439912069332,35.84701952459136],[129.20445359521082,35.841081542231585]]},"properties":{"era":2,"era_short":"읍성 행정축","era_title":"월성에서 읍성으로 — 행정 중심축의 이동","years":"고려–조선 · 1012–1910","kind":"line","cls":"axis-tertiary","cls_nm":"확장·지역연결","lbl":"","source":"「경주 도시 축의 변천사」 인터랙티브 도판(2026-09) SVG 개념축 → 배경도(미래구상 연구 2025 Figure 3d) GCP 9점 상사변환. 원문 서술: 경주시 원도심 미래구상 기획연구(2025.07) p.17–23, 77–109 · 보조 신라왕경 다큐 요약(T4). 개념선 ±100 m"}},{"type":"Feature","geometry":{"type":"LineString","coordinates":[[129.21439912069332,35.84701952459136],[129.20708826990108,35.83484676047721]]},"properties":{"era":2,"era_short":"읍성 행정축","era_title":"월성에서 읍성으로 — 행정 중심축의 이동","years":"고려–조선 · 1012–1910","kind":"line","cls":"axis-tertiary","cls_nm":"확장·지역연결","lbl":"","source":"「경주 도시 축의 변천사」 인터랙티브 도판(2026-09) SVG 개념축 → 배경도(미래구상 연구 2025 Figure 3d) GCP 9점 상사변환. 원문 서술: 경주시 원도심 미래구상 기획연구(2025.07) p.17–23, 77–109 · 보조 신라왕경 다큐 요약(T4). 개념선 ±100 m"}},{"type":"Feature","geometry":{"type":"LineString","coordinates":[[129.21439912069332,35.84701952459136],[129.22367825956266,35.8519872631277]]},"properties":{"era":2,"era_short":"읍성 행정축","era_title":"월성에서 읍성으로 — 행정 중심축의 이동","years":"고려–조선 · 1012–1910","kind":"line","cls":"axis-tertiary","cls_nm":"확장·지역연결","lbl":"","source":"「경주 도시 축의 변천사」 인터랙티브 도판(2026-09) SVG 개념축 → 배경도(미래구상 연구 2025 Figure 3d) GCP 9점 상사변환. 원문 서술: 경주시 원도심 미래구상 기획연구(2025.07) p.17–23, 77–109 · 보조 신라왕경 다큐 요약(T4). 개념선 ±100 m"}},{"type":"Feature","geometry":{"type":"LineString","coordinates":[[129.2144680319305,35.85180931279628],[129.21429959950183,35.84010093475881]]},"properties":{"era":2,"era_short":"읍성 행정축","era_title":"월성에서 읍성으로 — 행정 중심축의 이동","years":"고려–조선 · 1012–1910","kind":"line","cls":"axis-main","cls_nm":"주요 도시축","lbl":"","source":"「경주 도시 축의 변천사」 인터랙티브 도판(2026-09) SVG 개념축 → 배경도(미래구상 연구 2025 Figure 3d) GCP 9점 상사변환. 원문 서술: 경주시 원도심 미래구상 기획연구(2025.07) p.17–23, 77–109 · 보조 신라왕경 다큐 요약(T4). 개념선 ±100 m"}},{"type":"Feature","geometry":{"type":"LineString","coordinates":[[129.22242560240096,35.859539810955546],[129.22160187649285,35.85677753084451],[129.22088415481952,35.85392693628096],[129.22027242844086,35.85098802907081],[129.21975832616116,35.847906826858335],[129.21939616695963,35.84514857569617],[129.2192627460544,35.843230147383466],[129.21926516929167,35.84220600813503],[129.21931135244208,35.841466629654875],[129.21939973976222,35.84074839089447],[129.2195340899318,35.84004815752016],[129.2198703550197,35.83891260063838],[129.2199573908016,35.83869136906261],[129.22029790886563,35.83808786637379],[129.22100929751608,35.83712271007872],[129.2218914268614,35.83619404434665],[129.22293381736148,35.835285297999214],[129.22438147537005,35.83419776329129],[129.22602670918593,35.833086413675254],[129.22882539583188,35.831312095276644]]},"properties":{"era":3,"era_short":"철도·역세권축","era_title":"철도와 경주역이 새로운 도시축을 만든다","years":"철도 도시 · 1918–1945 (보고서 3단계: 1910–1940년대)","kind":"line","cls":"axis-main","cls_nm":"주요 도시축","lbl":"","source":"「경주 도시 축의 변천사」 인터랙티브 도판(2026-09) SVG 개념축 → 배경도(미래구상 연구 2025 Figure 3d) GCP 9점 상사변환. 원문 서술: 경주시 원도심 미래구상 기획연구(2025.07) p.17–23, 77–109 · 보조 신라왕경 다큐 요약(T4). 개념선 ±100 m"}},{"type":"Feature","geometry":{"type":"LineString","coordinates":[[129.206717243902,35.84700382308987],[129.2196246166003,35.84670344342504]]},"properties":{"era":3,"era_short":"철도·역세권축","era_title":"철도와 경주역이 새로운 도시축을 만든다","years":"철도 도시 · 1918–1945 (보고서 3단계: 1910–1940년대)","kind":"line","cls":"axis-secondary","cls_nm":"보조축·연결축","lbl":"","source":"「경주 도시 축의 변천사」 인터랙티브 도판(2026-09) SVG 개념축 → 배경도(미래구상 연구 2025 Figure 3d) GCP 9점 상사변환. 원문 서술: 경주시 원도심 미래구상 기획연구(2025.07) p.17–23, 77–109 · 보조 신라왕경 다큐 요약(T4). 개념선 ±100 m"}},{"type":"Feature","geometry":{"type":"LineString","coordinates":[[129.20168727575677,35.838091454629854],[129.2173625767398,35.840958808408914]]},"properties":{"era":3,"era_short":"철도·역세권축","era_title":"철도와 경주역이 새로운 도시축을 만든다","years":"철도 도시 · 1918–1945 (보고서 3단계: 1910–1940년대)","kind":"line","cls":"axis-cut","cls_nm":"단절을 만든 축","lbl":"","source":"「경주 도시 축의 변천사」 인터랙티브 도판(2026-09) SVG 개념축 → 배경도(미래구상 연구 2025 Figure 3d) GCP 9점 상사변환. 원문 서술: 경주시 원도심 미래구상 기획연구(2025.07) p.17–23, 77–109 · 보조 신라왕경 다큐 요약(T4). 개념선 ±100 m"}},{"type":"Feature","geometry":{"type":"LineString","coordinates":[[129.2197015593445,35.8595659364627],[129.21793683507684,35.851442228635555],[129.21745091674336,35.84640095892539],[129.21751912881564,35.84054648518425],[129.21956470925963,35.83751835899539],[129.21976981728758,35.83731900993808],[129.22818982504893,35.83226697783851],[129.2313721386346,35.83040034976034]]},"properties":{"era":4,"era_short":"도로·관광축","era_title":"철도 중심에서 도로·관광 축으로","years":"도로·관광 도시 · 1950–현재 (보고서 4단계)","kind":"line","cls":"axis-main","cls_nm":"주요 도시축","lbl":"","source":"「경주 도시 축의 변천사」 인터랙티브 도판(2026-09) SVG 개념축 → 배경도(미래구상 연구 2025 Figure 3d) GCP 9점 상사변환. 원문 서술: 경주시 원도심 미래구상 기획연구(2025.07) p.17–23, 77–109 · 보조 신라왕경 다큐 요약(T4). 개념선 ±100 m"}},{"type":"Feature","geometry":{"type":"LineString","coordinates":[[129.2175835573336,35.84494873838013],[129.22461508178557,35.84355633320315],[129.23053143387705,35.843715319995916]]},"properties":{"era":4,"era_short":"도로·관광축","era_title":"철도 중심에서 도로·관광 축으로","years":"도로·관광 도시 · 1950–현재 (보고서 4단계)","kind":"line","cls":"axis-secondary","cls_nm":"보조축·연결축","lbl":"","source":"「경주 도시 축의 변천사」 인터랙티브 도판(2026-09) SVG 개념축 → 배경도(미래구상 연구 2025 Figure 3d) GCP 9점 상사변환. 원문 서술: 경주시 원도심 미래구상 기획연구(2025.07) p.17–23, 77–109 · 보조 신라왕경 다큐 요약(T4). 개념선 ±100 m"}},{"type":"Feature","geometry":{"type":"LineString","coordinates":[[129.20720554092244,35.84305151430237],[129.21740095456903,35.843619803746705]]},"properties":{"era":4,"era_short":"도로·관광축","era_title":"철도 중심에서 도로·관광 축으로","years":"도로·관광 도시 · 1950–현재 (보고서 4단계)","kind":"line","cls":"axis-tertiary","cls_nm":"확장·지역연결","lbl":"","source":"「경주 도시 축의 변천사」 인터랙티브 도판(2026-09) SVG 개념축 → 배경도(미래구상 연구 2025 Figure 3d) GCP 9점 상사변환. 원문 서술: 경주시 원도심 미래구상 기획연구(2025.07) p.17–23, 77–109 · 보조 신라왕경 다큐 요약(T4). 개념선 ±100 m"}},{"type":"Feature","geometry":{"type":"LineString","coordinates":[[129.2196246166003,35.84670344342504],[129.21771232249682,35.84622155685681],[129.21575725872896,35.84565510165997],[129.21346051818054,35.844926552598864],[129.20572915645297,35.84237153713787],[129.20303675621105,35.84155663032165],[129.20058356138415,35.84089017848785],[129.19081773089917,35.83987900188346]]},"properties":{"era":5,"era_short":"외곽 관문축","era_title":"광역 관문이 외곽으로 이동하고 중심이 분산된다","years":"KTX·다핵화 · 2010–2021","kind":"line","cls":"axis-main","cls_nm":"주요 도시축","lbl":"","source":"「경주 도시 축의 변천사」 인터랙티브 도판(2026-09) SVG 개념축 → 배경도(미래구상 연구 2025 Figure 3d) GCP 9점 상사변환. 원문 서술: 경주시 원도심 미래구상 기획연구(2025.07) p.17–23, 77–109 · 보조 신라왕경 다큐 요약(T4). 개념선 ±100 m"}},{"type":"Feature","geometry":{"type":"LineString","coordinates":[[129.2196246166003,35.84670344342504],[129.22846480450602,35.84395706836856]]},"properties":{"era":5,"era_short":"외곽 관문축","era_title":"광역 관문이 외곽으로 이동하고 중심이 분산된다","years":"KTX·다핵화 · 2010–2021","kind":"line","cls":"axis-secondary","cls_nm":"보조축·연결축","lbl":"","source":"「경주 도시 축의 변천사」 인터랙티브 도판(2026-09) SVG 개념축 → 배경도(미래구상 연구 2025 Figure 3d) GCP 9점 상사변환. 원문 서술: 경주시 원도심 미래구상 기획연구(2025.07) p.17–23, 77–109 · 보조 신라왕경 다큐 요약(T4). 개념선 ±100 m"}},{"type":"Feature","geometry":{"type":"LineString","coordinates":[[129.2196246166003,35.84670344342504],[129.21259199477225,35.838786524938016]]},"properties":{"era":5,"era_short":"외곽 관문축","era_title":"광역 관문이 외곽으로 이동하고 중심이 분산된다","years":"KTX·다핵화 · 2010–2021","kind":"line","cls":"axis-secondary","cls_nm":"보조축·연결축","lbl":"","source":"「경주 도시 축의 변천사」 인터랙티브 도판(2026-09) SVG 개념축 → 배경도(미래구상 연구 2025 Figure 3d) GCP 9점 상사변환. 원문 서술: 경주시 원도심 미래구상 기획연구(2025.07) p.17–23, 77–109 · 보조 신라왕경 다큐 요약(T4). 개념선 ±100 m"}},{"type":"Feature","geometry":{"type":"LineString","coordinates":[[129.2196246166003,35.84670344342504],[129.22505947126035,35.85330465714789]]},"properties":{"era":5,"era_short":"외곽 관문축","era_title":"광역 관문이 외곽으로 이동하고 중심이 분산된다","years":"KTX·다핵화 · 2010–2021","kind":"line","cls":"axis-tertiary","cls_nm":"확장·지역연결","lbl":"","source":"「경주 도시 축의 변천사」 인터랙티브 도판(2026-09) SVG 개념축 → 배경도(미래구상 연구 2025 Figure 3d) GCP 9점 상사변환. 원문 서술: 경주시 원도심 미래구상 기획연구(2025.07) p.17–23, 77–109 · 보조 신라왕경 다큐 요약(T4). 개념선 ±100 m"}},{"type":"Feature","geometry":{"type":"LineString","coordinates":[[129.22242560240096,35.859539810955546],[129.22160187649285,35.85677753084451],[129.22088415481952,35.85392693628096],[129.22027242844086,35.85098802907081],[129.21975832616116,35.847906826858335],[129.21939616695963,35.84514857569617],[129.2192627460544,35.843230147383466],[129.21926516929167,35.84220600813503],[129.21931135244208,35.841466629654875],[129.21939973976222,35.84074839089447],[129.2195340899318,35.84004815752016],[129.2198703550197,35.83891260063838],[129.2199573908016,35.83869136906261],[129.22029790886563,35.83808786637379],[129.22100929751608,35.83712271007872],[129.2218914268614,35.83619404434665],[129.22293381736148,35.835285297999214],[129.22438147537005,35.83419776329129],[129.22602670918593,35.833086413675254],[129.22882539583188,35.831312095276644]]},"properties":{"era":6,"era_short":"재연결 복합축","era_title":"남북 폐철도축을 ‘연결의 틀’로 다시 사용한다","years":"폐역 이후 · 2021– (보고서 구상 범위 2025–2035)","kind":"line","cls":"axis-green","cls_nm":"폐철도 녹지·재생축","lbl":"","source":"「경주 도시 축의 변천사」 인터랙티브 도판(2026-09) SVG 개념축 → 배경도(미래구상 연구 2025 Figure 3d) GCP 9점 상사변환. 원문 서술: 경주시 원도심 미래구상 기획연구(2025.07) p.17–23, 77–109 · 보조 신라왕경 다큐 요약(T4). 개념선 ±100 m"}},{"type":"Feature","geometry":{"type":"LineString","coordinates":[[129.22242560240096,35.859539810955546],[129.22160187649285,35.85677753084451],[129.22088415481952,35.85392693628096],[129.22027242844086,35.85098802907081],[129.21975832616116,35.847906826858335],[129.21939616695963,35.84514857569617],[129.2192627460544,35.843230147383466],[129.21926516929167,35.84220600813503],[129.21931135244208,35.841466629654875],[129.21939973976222,35.84074839089447],[129.2195340899318,35.84004815752016],[129.2198703550197,35.83891260063838],[129.2199573908016,35.83869136906261],[129.22029790886563,35.83808786637379],[129.22100929751608,35.83712271007872],[129.2218914268614,35.83619404434665],[129.22293381736148,35.835285297999214],[129.22438147537005,35.83419776329129],[129.22602670918593,35.833086413675254],[129.22882539583188,35.831312095276644]]},"properties":{"era":6,"era_short":"재연결 복합축","era_title":"남북 폐철도축을 ‘연결의 틀’로 다시 사용한다","years":"폐역 이후 · 2021– (보고서 구상 범위 2025–2035)","kind":"line","cls":"axis-tram","cls_nm":"무궤도 트램(보고서 방향 4)","lbl":"","source":"「경주 도시 축의 변천사」 인터랙티브 도판(2026-09) SVG 개념축 → 배경도(미래구상 연구 2025 Figure 3d) GCP 9점 상사변환. 원문 서술: 경주시 원도심 미래구상 기획연구(2025.07) p.17–23, 77–109 · 보조 신라왕경 다큐 요약(T4). 개념선 ±100 m"}},{"type":"Feature","geometry":{"type":"LineString","coordinates":[[129.20480311709835,35.84648966744027],[129.21958389486593,35.84670285858655],[129.22844543033773,35.84262657335983]]},"properties":{"era":6,"era_short":"재연결 복합축","era_title":"남북 폐철도축을 ‘연결의 틀’로 다시 사용한다","years":"폐역 이후 · 2021– (보고서 구상 범위 2025–2035)","kind":"line","cls":"axis-main","cls_nm":"주요 도시축","lbl":"","source":"「경주 도시 축의 변천사」 인터랙티브 도판(2026-09) SVG 개념축 → 배경도(미래구상 연구 2025 Figure 3d) GCP 9점 상사변환. 원문 서술: 경주시 원도심 미래구상 기획연구(2025.07) p.17–23, 77–109 · 보조 신라왕경 다큐 요약(T4). 개념선 ±100 m"}},{"type":"Feature","geometry":{"type":"LineString","coordinates":[[129.2190319219012,35.832071618372545],[129.2168195737974,35.83386687224119],[129.21566159062976,35.834860501257076],[129.2145658293675,35.83591720734861],[129.2137827910133,35.836807523971686],[129.21312318419197,35.8377374159697],[129.21285128098202,35.83821709277937],[129.21262417198187,35.838706531512486],[129.21253254329147,35.8392804954286],[129.21251781335167,35.84016037419142],[129.21265003075814,35.841317963879035],[129.21291087004957,35.84244634984861],[129.21325131438584,35.84353310034355],[129.21412899646916,35.84598624152512],[129.2144112046512,35.847018904226836],[129.2196246166003,35.84670344342504]]},"properties":{"era":6,"era_short":"재연결 복합축","era_title":"남북 폐철도축을 ‘연결의 틀’로 다시 사용한다","years":"폐역 이후 · 2021– (보고서 구상 범위 2025–2035)","kind":"line","cls":"axis-secondary","cls_nm":"보조축·연결축","lbl":"","source":"「경주 도시 축의 변천사」 인터랙티브 도판(2026-09) SVG 개념축 → 배경도(미래구상 연구 2025 Figure 3d) GCP 9점 상사변환. 원문 서술: 경주시 원도심 미래구상 기획연구(2025.07) p.17–23, 77–109 · 보조 신라왕경 다큐 요약(T4). 개념선 ±100 m"}}],"gcp_resid_m":{"황남대총":17.4,"천마총":91.9,"서천교(태종로)":42.5,"폐선×북천":54.1,"원화로×북천":33.6,"인왕동고분68":40.0,"인왕동고분66":28.1,"인왕동고분63":39.1,"인왕동고분65":39.7},"scale_m_per_px":4.921,"rot_deg":-0.55}