{"type":"FeatureCollection","features":[{"type":"Feature","geometry":{"type":"Point","coordinates":[129.2190319219012,35.832071618372545]},"properties":{"era":1,"era_short":"왕경 남북축","era_title":"월성에서 북천으로 뻗는 왕경 계획축","years":"신라 왕경 · ~935 (Figure 3a 기준)","kind":"node","cls":"node","cls_nm":"거점","lbl":"월성","source":"「경주 도시 축의 변천사」 인터랙티브 도판(2026-09) SVG 개념축 → 배경도(미래구상 연구 2025 Figure 3d) GCP 9점 상사변환. 원문 서술: 경주시 원도심 미래구상 기획연구(2025.07) p.17–23, 77–109 · 보조 신라왕경 다큐 요약(T4). 개념선 ±100 m"}},{"type":"Feature","geometry":{"type":"Point","coordinates":[129.21259199477225,35.838786524938016]},"properties":{"era":1,"era_short":"왕경 남북축","era_title":"월성에서 북천으로 뻗는 왕경 계획축","years":"신라 왕경 · ~935 (Figure 3a 기준)","kind":"node","cls":"node-alt","cls_nm":"참조 지점","lbl":"고분군(대릉원)","source":"「경주 도시 축의 변천사」 인터랙티브 도판(2026-09) SVG 개념축 → 배경도(미래구상 연구 2025 Figure 3d) GCP 9점 상사변환. 원문 서술: 경주시 원도심 미래구상 기획연구(2025.07) p.17–23, 77–109 · 보조 신라왕경 다큐 요약(T4). 개념선 ±100 m"}},{"type":"Feature","geometry":{"type":"Point","coordinates":[129.2274069154991,35.8386445465792]},"properties":{"era":1,"era_short":"왕경 남북축","era_title":"월성에서 북천으로 뻗는 왕경 계획축","years":"신라 왕경 · ~935 (Figure 3a 기준)","kind":"node","cls":"node-alt","cls_nm":"참조 지점","lbl":"황룡사","source":"「경주 도시 축의 변천사」 인터랙티브 도판(2026-09) SVG 개념축 → 배경도(미래구상 연구 2025 Figure 3d) GCP 9점 상사변환. 원문 서술: 경주시 원도심 미래구상 기획연구(2025.07) p.17–23, 77–109 · 보조 신라왕경 다큐 요약(T4). 개념선 ±100 m"}},{"type":"Feature","geometry":{"type":"Point","coordinates":[129.21634715324979,35.834758663538004]},"properties":{"era":1,"era_short":"왕경 남북축","era_title":"월성에서 북천으로 뻗는 왕경 계획축","years":"신라 왕경 · ~935 (Figure 3a 기준)","kind":"node","cls":"node-alt","cls_nm":"참조 지점","lbl":"첨성대","source":"「경주 도시 축의 변천사」 인터랙티브 도판(2026-09) SVG 개념축 → 배경도(미래구상 연구 2025 Figure 3d) GCP 9점 상사변환. 원문 서술: 경주시 원도심 미래구상 기획연구(2025.07) p.17–23, 77–109 · 보조 신라왕경 다큐 요약(T4). 개념선 ±100 m"}},{"type":"Feature","geometry":{"type":"Point","coordinates":[129.21985470334167,35.851314262718525]},"properties":{"era":1,"era_short":"왕경 남북축","era_title":"월성에서 북천으로 뻗는 왕경 계획축","years":"신라 왕경 · ~935 (Figure 3a 기준)","kind":"label","cls":"axislabel","cls_nm":"축 라벨","lbl":"왕경 남북 계획축","source":"「경주 도시 축의 변천사」 인터랙티브 도판(2026-09) SVG 개념축 → 배경도(미래구상 연구 2025 Figure 3d) GCP 9점 상사변환. 원문 서술: 경주시 원도심 미래구상 기획연구(2025.07) p.17–23, 77–109 · 보조 신라왕경 다큐 요약(T4). 개념선 ±100 m"}},{"type":"Feature","geometry":{"type":"Point","coordinates":[129.19167907670302,35.84687919215627]},"properties":{"era":1,"era_short":"왕경 남북축","era_title":"월성에서 북천으로 뻗는 왕경 계획축","years":"신라 왕경 · ~935 (Figure 3a 기준)","kind":"label","cls":"hypolabel","cls_nm":"축 라벨","lbl":"김유신묘·옥녀봉","source":"「경주 도시 축의 변천사」 인터랙티브 도판(2026-09) SVG 개념축 → 배경도(미래구상 연구 2025 Figure 3d) GCP 9점 상사변환. 원문 서술: 경주시 원도심 미래구상 기획연구(2025.07) p.17–23, 77–109 · 보조 신라왕경 다큐 요약(T4). 개념선 ±100 m"}},{"type":"Feature","geometry":{"type":"Point","coordinates":[129.19305904421867,35.84429364154269]},"properties":{"era":1,"era_short":"왕경 남북축","era_title":"월성에서 북천으로 뻗는 왕경 계획축","years":"신라 왕경 · ~935 (Figure 3a 기준)","kind":"label","cls":"hypolabel","cls_nm":"축 라벨","lbl":"동지 일출축 (가설)","source":"「경주 도시 축의 변천사」 인터랙티브 도판(2026-09) SVG 개념축 → 배경도(미래구상 연구 2025 Figure 3d) GCP 9점 상사변환. 원문 서술: 경주시 원도심 미래구상 기획연구(2025.07) p.17–23, 77–109 · 보조 신라왕경 다큐 요약(T4). 개념선 ±100 m"}},{"type":"Feature","geometry":{"type":"Point","coordinates":[129.22278322686458,35.827821803571496]},"properties":{"era":1,"era_short":"왕경 남북축","era_title":"월성에서 북천으로 뻗는 왕경 계획축","years":"신라 왕경 · ~935 (Figure 3a 기준)","kind":"label","cls":"hypolabel","cls_nm":"축 라벨","lbl":"선덕여왕릉","source":"「경주 도시 축의 변천사」 인터랙티브 도판(2026-09) SVG 개념축 → 배경도(미래구상 연구 2025 Figure 3d) GCP 9점 상사변환. 원문 서술: 경주시 원도심 미래구상 기획연구(2025.07) p.17–23, 77–109 · 보조 신라왕경 다큐 요약(T4). 개념선 ±100 m"}},{"type":"Feature","geometry":{"type":"Point","coordinates":[129.21442847058017,35.849059620043285]},"properties":{"era":2,"era_short":"읍성 행정축","era_title":"월성에서 읍성으로 — 행정 중심축의 이동","years":"고려–조선 · 1012–1910","kind":"node","cls":"node","cls_nm":"거점","lbl":"경주읍성","source":"「경주 도시 축의 변천사」 인터랙티브 도판(2026-09) SVG 개념축 → 배경도(미래구상 연구 2025 Figure 3d) GCP 9점 상사변환. 원문 서술: 경주시 원도심 미래구상 기획연구(2025.07) p.17–23, 77–109 · 보조 신라왕경 다큐 요약(T4). 개념선 ±100 m"}},{"type":"Feature","geometry":{"type":"Point","coordinates":[129.21439912069332,35.84701952459136]},"properties":{"era":2,"era_short":"읍성 행정축","era_title":"월성에서 읍성으로 — 행정 중심축의 이동","years":"고려–조선 · 1012–1910","kind":"node","cls":"node-alt","cls_nm":"참조 지점","lbl":"남문","source":"「경주 도시 축의 변천사」 인터랙티브 도판(2026-09) SVG 개념축 → 배경도(미래구상 연구 2025 Figure 3d) GCP 9점 상사변환. 원문 서술: 경주시 원도심 미래구상 기획연구(2025.07) p.17–23, 77–109 · 보조 신라왕경 다큐 요약(T4). 개념선 ±100 m"}},{"type":"Feature","geometry":{"type":"Point","coordinates":[129.21259199477225,35.838786524938016]},"properties":{"era":2,"era_short":"읍성 행정축","era_title":"월성에서 읍성으로 — 행정 중심축의 이동","years":"고려–조선 · 1012–1910","kind":"node","cls":"node-alt","cls_nm":"참조 지점","lbl":"대릉원","source":"「경주 도시 축의 변천사」 인터랙티브 도판(2026-09) SVG 개념축 → 배경도(미래구상 연구 2025 Figure 3d) GCP 9점 상사변환. 원문 서술: 경주시 원도심 미래구상 기획연구(2025.07) p.17–23, 77–109 · 보조 신라왕경 다큐 요약(T4). 개념선 ±100 m"}},{"type":"Feature","geometry":{"type":"Point","coordinates":[129.2190319219012,35.832071618372545]},"properties":{"era":2,"era_short":"읍성 행정축","era_title":"월성에서 읍성으로 — 행정 중심축의 이동","years":"고려–조선 · 1012–1910","kind":"node","cls":"node-alt","cls_nm":"참조 지점","lbl":"월성","source":"「경주 도시 축의 변천사」 인터랙티브 도판(2026-09) SVG 개념축 → 배경도(미래구상 연구 2025 Figure 3d) GCP 9점 상사변환. 원문 서술: 경주시 원도심 미래구상 기획연구(2025.07) p.17–23, 77–109 · 보조 신라왕경 다큐 요약(T4). 개념선 ±100 m"}},{"type":"Feature","geometry":{"type":"Point","coordinates":[129.21482044085914,35.84222505673381]},"properties":{"era":2,"era_short":"읍성 행정축","era_title":"월성에서 읍성으로 — 행정 중심축의 이동","years":"고려–조선 · 1012–1910","kind":"label","cls":"axislabel","cls_nm":"축 라벨","lbl":"봉황로·중앙로 축","source":"「경주 도시 축의 변천사」 인터랙티브 도판(2026-09) SVG 개념축 → 배경도(미래구상 연구 2025 Figure 3d) GCP 9점 상사변환. 원문 서술: 경주시 원도심 미래구상 기획연구(2025.07) p.17–23, 77–109 · 보조 신라왕경 다큐 요약(T4). 개념선 ±100 m"}},{"type":"Feature","geometry":{"type":"Point","coordinates":[129.19899101910158,35.84002416105708]},"properties":{"era":2,"era_short":"읍성 행정축","era_title":"월성에서 읍성으로 — 행정 중심축의 이동","years":"고려–조선 · 1012–1910","kind":"label","cls":"axislabel","cls_nm":"축 라벨","lbl":"남문 기점 외부도시 연결","source":"「경주 도시 축의 변천사」 인터랙티브 도판(2026-09) SVG 개념축 → 배경도(미래구상 연구 2025 Figure 3d) GCP 9점 상사변환. 원문 서술: 경주시 원도심 미래구상 기획연구(2025.07) p.17–23, 77–109 · 보조 신라왕경 다큐 요약(T4). 개념선 ±100 m"}},{"type":"Feature","geometry":{"type":"Point","coordinates":[129.2196246166003,35.84670344342504]},"properties":{"era":3,"era_short":"철도·역세권축","era_title":"철도와 경주역이 새로운 도시축을 만든다","years":"철도 도시 · 1918–1945 (보고서 3단계: 1910–1940년대)","kind":"node","cls":"node","cls_nm":"거점","lbl":"(옛)경주역","source":"「경주 도시 축의 변천사」 인터랙티브 도판(2026-09) SVG 개념축 → 배경도(미래구상 연구 2025 Figure 3d) GCP 9점 상사변환. 원문 서술: 경주시 원도심 미래구상 기획연구(2025.07) p.17–23, 77–109 · 보조 신라왕경 다큐 요약(T4). 개념선 ±100 m"}},{"type":"Feature","geometry":{"type":"Point","coordinates":[129.21640181427207,35.84611328971675]},"properties":{"era":3,"era_short":"철도·역세권축","era_title":"철도와 경주역이 새로운 도시축을 만든다","years":"철도 도시 · 1918–1945 (보고서 3단계: 1910–1940년대)","kind":"node","cls":"node-alt","cls_nm":"참조 지점","lbl":"성동시장","source":"「경주 도시 축의 변천사」 인터랙티브 도판(2026-09) SVG 개념축 → 배경도(미래구상 연구 2025 Figure 3d) GCP 9점 상사변환. 원문 서술: 경주시 원도심 미래구상 기획연구(2025.07) p.17–23, 77–109 · 보조 신라왕경 다큐 요약(T4). 개념선 ±100 m"}},{"type":"Feature","geometry":{"type":"Point","coordinates":[129.22076538354855,35.85024099008937]},"properties":{"era":3,"era_short":"철도·역세권축","era_title":"철도와 경주역이 새로운 도시축을 만든다","years":"철도 도시 · 1918–1945 (보고서 3단계: 1910–1940년대)","kind":"label","cls":"axislabel","cls_nm":"축 라벨","lbl":"철도 광역축","source":"「경주 도시 축의 변천사」 인터랙티브 도판(2026-09) SVG 개념축 → 배경도(미래구상 연구 2025 Figure 3d) GCP 9점 상사변환. 원문 서술: 경주시 원도심 미래구상 기획연구(2025.07) p.17–23, 77–109 · 보조 신라왕경 다큐 요약(T4). 개념선 ±100 m"}},{"type":"Feature","geometry":{"type":"Point","coordinates":[129.2068337944334,35.84753499061938]},"properties":{"era":3,"era_short":"철도·역세권축","era_title":"철도와 경주역이 새로운 도시축을 만든다","years":"철도 도시 · 1918–1945 (보고서 3단계: 1910–1940년대)","kind":"label","cls":"axislabel","cls_nm":"축 라벨","lbl":"화랑로 역세권축","source":"「경주 도시 축의 변천사」 인터랙티브 도판(2026-09) SVG 개념축 → 배경도(미래구상 연구 2025 Figure 3d) GCP 9점 상사변환. 원문 서술: 경주시 원도심 미래구상 기획연구(2025.07) p.17–23, 77–109 · 보조 신라왕경 다큐 요약(T4). 개념선 ±100 m"}},{"type":"Feature","geometry":{"type":"Point","coordinates":[129.20167087394577,35.83693835280848]},"properties":{"era":3,"era_short":"철도·역세권축","era_title":"철도와 경주역이 새로운 도시축을 만든다","years":"철도 도시 · 1918–1945 (보고서 3단계: 1910–1940년대)","kind":"label","cls":"cutlabel","cls_nm":"축 라벨","lbl":"태종로 확장 — 왕경 남북 분리","source":"「경주 도시 축의 변천사」 인터랙티브 도판(2026-09) SVG 개념축 → 배경도(미래구상 연구 2025 Figure 3d) GCP 9점 상사변환. 원문 서술: 경주시 원도심 미래구상 기획연구(2025.07) p.17–23, 77–109 · 보조 신라왕경 다큐 요약(T4). 개념선 ±100 m"}},{"type":"Feature","geometry":{"type":"Point","coordinates":[129.21752908642995,35.844949259266485]},"properties":{"era":4,"era_short":"도로·관광축","era_title":"철도 중심에서 도로·관광 축으로","years":"도로·관광 도시 · 1950–현재 (보고서 4단계)","kind":"node","cls":"node","cls_nm":"거점","lbl":"(옛)경주역 앞","source":"「경주 도시 축의 변천사」 인터랙티브 도판(2026-09) SVG 개념축 → 배경도(미래구상 연구 2025 Figure 3d) GCP 9점 상사변환. 원문 서술: 경주시 원도심 미래구상 기획연구(2025.07) p.17–23, 77–109 · 보조 신라왕경 다큐 요약(T4). 개념선 ±100 m"}},{"type":"Feature","geometry":{"type":"Point","coordinates":[129.23053143387705,35.843715319995916]},"properties":{"era":4,"era_short":"도로·관광축","era_title":"철도 중심에서 도로·관광 축으로","years":"도로·관광 도시 · 1950–현재 (보고서 4단계)","kind":"node","cls":"node-alt","cls_nm":"참조 지점","lbl":"보문 관광권 →","source":"「경주 도시 축의 변천사」 인터랙티브 도판(2026-09) SVG 개념축 → 배경도(미래구상 연구 2025 Figure 3d) GCP 9점 상사변환. 원문 서술: 경주시 원도심 미래구상 기획연구(2025.07) p.17–23, 77–109 · 보조 신라왕경 다큐 요약(T4). 개념선 ±100 m"}},{"type":"Feature","geometry":{"type":"Point","coordinates":[129.21853508699434,35.854254392760296]},"properties":{"era":4,"era_short":"도로·관광축","era_title":"철도 중심에서 도로·관광 축으로","years":"도로·관광 도시 · 1950–현재 (보고서 4단계)","kind":"label","cls":"axislabel","cls_nm":"축 라벨","lbl":"7번 국도(원화로) · 포항 방면","source":"「경주 도시 축의 변천사」 인터랙티브 도판(2026-09) SVG 개념축 → 배경도(미래구상 연구 2025 Figure 3d) GCP 9점 상사변환. 원문 서술: 경주시 원도심 미래구상 기획연구(2025.07) p.17–23, 77–109 · 보조 신라왕경 다큐 요약(T4). 개념선 ±100 m"}},{"type":"Feature","geometry":{"type":"Point","coordinates":[129.22118794757512,35.83049848844767]},"properties":{"era":4,"era_short":"도로·관광축","era_title":"철도 중심에서 도로·관광 축으로","years":"도로·관광 도시 · 1950–현재 (보고서 4단계)","kind":"label","cls":"axislabel","cls_nm":"축 라벨","lbl":"울산 방면","source":"「경주 도시 축의 변천사」 인터랙티브 도판(2026-09) SVG 개념축 → 배경도(미래구상 연구 2025 Figure 3d) GCP 9점 상사변환. 원문 서술: 경주시 원도심 미래구상 기획연구(2025.07) p.17–23, 77–109 · 보조 신라왕경 다큐 요약(T4). 개념선 ±100 m"}},{"type":"Feature","geometry":{"type":"Point","coordinates":[129.2196246166003,35.84670344342504]},"properties":{"era":5,"era_short":"외곽 관문축","era_title":"광역 관문이 외곽으로 이동하고 중심이 분산된다","years":"KTX·다핵화 · 2010–2021","kind":"node","cls":"node","cls_nm":"거점","lbl":"구경주역","source":"「경주 도시 축의 변천사」 인터랙티브 도판(2026-09) SVG 개념축 → 배경도(미래구상 연구 2025 Figure 3d) GCP 9점 상사변환. 원문 서술: 경주시 원도심 미래구상 기획연구(2025.07) p.17–23, 77–109 · 보조 신라왕경 다큐 요약(T4). 개념선 ±100 m"}},{"type":"Feature","geometry":{"type":"Point","coordinates":[129.21259199477225,35.838786524938016]},"properties":{"era":5,"era_short":"외곽 관문축","era_title":"광역 관문이 외곽으로 이동하고 중심이 분산된다","years":"KTX·다핵화 · 2010–2021","kind":"node","cls":"node-alt","cls_nm":"참조 지점","lbl":"황리단길·대릉원","source":"「경주 도시 축의 변천사」 인터랙티브 도판(2026-09) SVG 개념축 → 배경도(미래구상 연구 2025 Figure 3d) GCP 9점 상사변환. 원문 서술: 경주시 원도심 미래구상 기획연구(2025.07) p.17–23, 77–109 · 보조 신라왕경 다큐 요약(T4). 개념선 ±100 m"}},{"type":"Feature","geometry":{"type":"Point","coordinates":[129.19683115554358,35.84137514216592]},"properties":{"era":5,"era_short":"외곽 관문축","era_title":"광역 관문이 외곽으로 이동하고 중심이 분산된다","years":"KTX·다핵화 · 2010–2021","kind":"label","cls":"axislabel","cls_nm":"축 라벨","lbl":"KTX·건천권","source":"「경주 도시 축의 변천사」 인터랙티브 도판(2026-09) SVG 개념축 → 배경도(미래구상 연구 2025 Figure 3d) GCP 9점 상사변환. 원문 서술: 경주시 원도심 미래구상 기획연구(2025.07) p.17–23, 77–109 · 보조 신라왕경 다큐 요약(T4). 개념선 ±100 m"}},{"type":"Feature","geometry":{"type":"Point","coordinates":[129.22228887589648,35.853863562324996]},"properties":{"era":5,"era_short":"외곽 관문축","era_title":"광역 관문이 외곽으로 이동하고 중심이 분산된다","years":"KTX·다핵화 · 2010–2021","kind":"label","cls":"axislabel","cls_nm":"축 라벨","lbl":"황성·동천","source":"「경주 도시 축의 변천사」 인터랙티브 도판(2026-09) SVG 개념축 → 배경도(미래구상 연구 2025 Figure 3d) GCP 9점 상사변환. 원문 서술: 경주시 원도심 미래구상 기획연구(2025.07) p.17–23, 77–109 · 보조 신라왕경 다큐 요약(T4). 개념선 ±100 m"}},{"type":"Feature","geometry":{"type":"Point","coordinates":[129.2196246166003,35.84670344342504]},"properties":{"era":6,"era_short":"재연결 복합축","era_title":"남북 폐철도축을 ‘연결의 틀’로 다시 사용한다","years":"폐역 이후 · 2021– (보고서 구상 범위 2025–2035)","kind":"node","cls":"node-green","cls_nm":"재생 거점","lbl":"구경주역 재생거점","source":"「경주 도시 축의 변천사」 인터랙티브 도판(2026-09) SVG 개념축 → 배경도(미래구상 연구 2025 Figure 3d) GCP 9점 상사변환. 원문 서술: 경주시 원도심 미래구상 기획연구(2025.07) p.17–23, 77–109 · 보조 신라왕경 다큐 요약(T4). 개념선 ±100 m"}},{"type":"Feature","geometry":{"type":"Point","coordinates":[129.21439912069332,35.84701952459136]},"properties":{"era":6,"era_short":"재연결 복합축","era_title":"남북 폐철도축을 ‘연결의 틀’로 다시 사용한다","years":"폐역 이후 · 2021– (보고서 구상 범위 2025–2035)","kind":"node","cls":"node-alt","cls_nm":"참조 지점","lbl":"경주읍성","source":"「경주 도시 축의 변천사」 인터랙티브 도판(2026-09) SVG 개념축 → 배경도(미래구상 연구 2025 Figure 3d) GCP 9점 상사변환. 원문 서술: 경주시 원도심 미래구상 기획연구(2025.07) p.17–23, 77–109 · 보조 신라왕경 다큐 요약(T4). 개념선 ±100 m"}},{"type":"Feature","geometry":{"type":"Point","coordinates":[129.21259199477225,35.838786524938016]},"properties":{"era":6,"era_short":"재연결 복합축","era_title":"남북 폐철도축을 ‘연결의 틀’로 다시 사용한다","years":"폐역 이후 · 2021– (보고서 구상 범위 2025–2035)","kind":"node","cls":"node-alt","cls_nm":"참조 지점","lbl":"대릉원","source":"「경주 도시 축의 변천사」 인터랙티브 도판(2026-09) SVG 개념축 → 배경도(미래구상 연구 2025 Figure 3d) GCP 9점 상사변환. 원문 서술: 경주시 원도심 미래구상 기획연구(2025.07) p.17–23, 77–109 · 보조 신라왕경 다큐 요약(T4). 개념선 ±100 m"}},{"type":"Feature","geometry":{"type":"Point","coordinates":[129.2190319219012,35.832071618372545]},"properties":{"era":6,"era_short":"재연결 복합축","era_title":"남북 폐철도축을 ‘연결의 틀’로 다시 사용한다","years":"폐역 이후 · 2021– (보고서 구상 범위 2025–2035)","kind":"node","cls":"node-alt","cls_nm":"참조 지점","lbl":"월성","source":"「경주 도시 축의 변천사」 인터랙티브 도판(2026-09) SVG 개념축 → 배경도(미래구상 연구 2025 Figure 3d) GCP 9점 상사변환. 원문 서술: 경주시 원도심 미래구상 기획연구(2025.07) p.17–23, 77–109 · 보조 신라왕경 다큐 요약(T4). 개념선 ±100 m"}},{"type":"Feature","geometry":{"type":"Point","coordinates":[129.2208262744036,35.850683966089704]},"properties":{"era":6,"era_short":"재연결 복합축","era_title":"남북 폐철도축을 ‘연결의 틀’로 다시 사용한다","years":"폐역 이후 · 2021– (보고서 구상 범위 2025–2035)","kind":"label","cls":"axislabel","cls_nm":"축 라벨","lbl":"남북 폐철도 녹지축 (설계 제안)","source":"「경주 도시 축의 변천사」 인터랙티브 도판(2026-09) SVG 개념축 → 배경도(미래구상 연구 2025 Figure 3d) GCP 9점 상사변환. 원문 서술: 경주시 원도심 미래구상 기획연구(2025.07) p.17–23, 77–109 · 보조 신라왕경 다큐 요약(T4). 개념선 ±100 m"}},{"type":"Feature","geometry":{"type":"Point","coordinates":[129.206367628597,35.85303954255883]},"properties":{"era":6,"era_short":"재연결 복합축","era_title":"남북 폐철도축을 ‘연결의 틀’로 다시 사용한다","years":"폐역 이후 · 2021– (보고서 구상 범위 2025–2035)","kind":"label","cls":"tramlabel","cls_nm":"축 라벨","lbl":"옛 동해선 무궤도 트램 (보고서 방향 4)","source":"「경주 도시 축의 변천사」 인터랙티브 도판(2026-09) SVG 개념축 → 배경도(미래구상 연구 2025 Figure 3d) GCP 9점 상사변환. 원문 서술: 경주시 원도심 미래구상 기획연구(2025.07) p.17–23, 77–109 · 보조 신라왕경 다큐 요약(T4). 개념선 ±100 m"}},{"type":"Feature","geometry":{"type":"Point","coordinates":[129.20505775865527,35.84524529202956]},"properties":{"era":6,"era_short":"재연결 복합축","era_title":"남북 폐철도축을 ‘연결의 틀’로 다시 사용한다","years":"폐역 이후 · 2021– (보고서 구상 범위 2025–2035)","kind":"label","cls":"axislabel","cls_nm":"축 라벨","lbl":"동서 생활·대중교통축","source":"「경주 도시 축의 변천사」 인터랙티브 도판(2026-09) SVG 개념축 → 배경도(미래구상 연구 2025 Figure 3d) GCP 9점 상사변환. 원문 서술: 경주시 원도심 미래구상 기획연구(2025.07) p.17–23, 77–109 · 보조 신라왕경 다큐 요약(T4). 개념선 ±100 m"}},{"type":"Feature","geometry":{"type":"Point","coordinates":[129.2240673028649,35.84124936364645]},"properties":{"era":6,"era_short":"재연결 복합축","era_title":"남북 폐철도축을 ‘연결의 틀’로 다시 사용한다","years":"폐역 이후 · 2021– (보고서 구상 범위 2025–2035)","kind":"label","cls":"axislabel","cls_nm":"축 라벨","lbl":"황오동","source":"「경주 도시 축의 변천사」 인터랙티브 도판(2026-09) SVG 개념축 → 배경도(미래구상 연구 2025 Figure 3d) GCP 9점 상사변환. 원문 서술: 경주시 원도심 미래구상 기획연구(2025.07) p.17–23, 77–109 · 보조 신라왕경 다큐 요약(T4). 개념선 ±100 m"}},{"type":"Feature","geometry":{"type":"Point","coordinates":[129.21297038682448,35.834790875636294]},"properties":{"era":6,"era_short":"재연결 복합축","era_title":"남북 폐철도축을 ‘연결의 틀’로 다시 사용한다","years":"폐역 이후 · 2021– (보고서 구상 범위 2025–2035)","kind":"label","cls":"axislabel","cls_nm":"축 라벨","lbl":"역사 보행축(계림로)","source":"「경주 도시 축의 변천사」 인터랙티브 도판(2026-09) SVG 개념축 → 배경도(미래구상 연구 2025 Figure 3d) GCP 9점 상사변환. 원문 서술: 경주시 원도심 미래구상 기획연구(2025.07) p.17–23, 77–109 · 보조 신라왕경 다큐 요약(T4). 개념선 ±100 m"}}]}