{"type":"FeatureCollection","features":[{"type":"Feature","properties":{"name":"구경주역 지구단위계획구역","no":27,"area_m2":158472.2,"gosi_area_m2":156460,"source":"경주시 고시 제2026-8호 지형도면고시도 11·12장 쇄선 추출"},"geometry":{"type":"Polygon","coordinates":[[[129.21870812024798,35.850115958265846],[129.21869961259333,35.850100557111354],[129.21869952322643,35.850068011036115],[129.21868462426272,35.85003720487349],[129.21867614483915,35.85003208142518],[129.21866556319662,35.8500321006815],[129.2186591671847,35.85001498272134],[129.21865695680484,35.8499807275452],[129.21864206257635,35.849951634328114],[129.21862723888785,35.849948235379706],[129.21862085699638,35.84993625627134],[129.2186186325301,35.84989686223982],[129.2185845691879,35.849823266929896],[129.2185419372233,35.849712002073524],[129.2185313133247,35.84969660475477],[129.21851861070746,35.849694914895295],[129.2185163722006,35.849650382005656],[129.2185014686874,35.84961786286618],[129.21848664036816,35.8496127509485],[129.2184802679224,35.84960419773484],[129.21847377801353,35.849552820733294],[129.21846314005444,35.84953228455344],[129.21845677701407,35.84952715724141],[129.21844619543845,35.849527176478176],[129.2184460638953,35.84947921383552],[129.21840973896886,35.84935252081853],[129.2184033712493,35.84934568055188],[129.21839278969776,35.84934569978386],[129.21838217527028,35.84933372835386],[129.2183504306204,35.84933378604139],[129.21834829083122,35.84932522512901],[129.21833769519557,35.84932010550136],[129.218333255974,35.84924474332156],[129.21832475787627,35.849232768040956],[129.21831840895433,35.84923277957607],[129.21831825870888,35.84917796512412],[129.21831395097604,35.84915056558783],[129.21830759267078,35.849147151219064],[129.2183074283485,35.84908719791132],[129.21830318165715,35.84908206674582],[129.2183030971504,35.84905123361585],[129.21829885985068,35.84904952835351],[129.21829876595626,35.84901526932],[129.2182901693033,35.84896732205092],[129.21828955901856,35.84874463832645],[129.21821760031753,35.84874305606377],[129.21821708409826,35.84855463136642],[129.2182249673188,35.84834220996413],[129.21823761808793,35.84832505738512],[129.21847464180485,35.84832462668203],[129.21847658424656,35.84826124361532],[129.2182332071805,35.848259972900024],[129.21816924486498,35.84808708003957],[129.21814158783891,35.84803402847457],[129.21814153623612,35.8480151860028],[129.2181266191127,35.84797752795037],[129.2181160283615,35.84797412125336],[129.2180967849084,35.84790221183912],[129.21809040795216,35.84789194564968],[129.2180819381754,35.847890248060736],[129.21808188658696,35.847871405588414],[129.21807550963513,35.84786113939813],[129.21807120205935,35.84783373984657],[129.21801365018754,35.84768310374418],[129.21800089164537,35.84766085840308],[129.21800085882884,35.84764886773836],[129.2179944959692,35.84764374039961],[129.2179944725295,35.84763517563907],[129.2179860027821,35.847633478043186],[129.2179816999375,35.84760779143936],[129.21797533708238,35.84760266409954],[129.2179731598812,35.84758039956069],[129.21796679234149,35.84757355926826],[129.21796037793098,35.84754958945413],[129.2179519081934,35.84754789185579],[129.21795187069736,35.84753418823866],[129.21792843247192,35.847475990085265],[129.21792193372684,35.8474211871295],[129.21790698870373,35.84737325133217],[129.21785794934453,35.847239729313294],[129.21785365124796,35.84721575565521],[129.21784518154814,35.847214058049126],[129.21784081318853,35.847164390106606],[129.21782377543295,35.847125022894296],[129.21781318949206,35.84712332912193],[129.21781316138836,35.84711305140827],[129.21780255671445,35.84710450582585],[129.21778562202434,35.84710282355799],[129.21778135673992,35.84709084056269],[129.21776864518807,35.847085724717125],[129.2177664914742,35.847072024933844],[129.21775801710876,35.847068614369206],[129.217757974964,35.84705319779851],[129.21775161685034,35.84704978339848],[129.2177452212774,35.84703266537963],[129.21774517913516,35.84701724880883],[129.21771110848073,35.8469402273042],[129.21768970259043,35.846851192120646],[129.21768957151568,35.84680322945415],[129.2176810550527,35.84678440231236],[129.21767888263832,35.846763850717174],[129.21767036150132,35.846743310622074],[129.21766188249438,35.84673818709793],[129.21766182632686,35.84671763166906],[129.21765122640235,35.84671079902489],[129.21763626763735,35.84665772432991],[129.2176277886417,35.846652600803246],[129.2176191692564,35.846596088702746],[129.21761060135796,35.84655841907814],[129.21760636420584,35.84655671379014],[129.21760390637743,35.84643167209132],[129.21756792573788,35.84643002427984],[129.2175679023451,35.84642145951733],[129.21755731650313,35.84641976572189],[129.217553286887,35.845719171937155],[129.21755751463695,35.845717451322],[129.2175571590942,35.84558726691489],[129.2175529173169,35.84558384867181],[129.21754667339408,35.844847286608086],[129.2175360830843,35.84484387985663],[129.21753598953242,35.84480962079736],[129.21752328303828,35.844806217875536],[129.2175190225953,35.844795947818774],[129.21742378938978,35.84479440720038],[129.2174232751229,35.84460598236902],[129.21741480570986,35.84460428473085],[129.21741224857163,35.84366729934421],[129.21747996567828,35.84366717681274],[129.217484174616,35.84365860438674],[129.21753284628087,35.84365851629199],[129.21753706924474,35.84365508272405],[129.21753660618256,35.84348550034513],[129.21754928907808,35.84348033850031],[129.21755560479738,35.84346833633399],[129.2175975910182,35.84334492706409],[129.21761023177697,35.843324348632365],[129.21762913675096,35.84327292554146],[129.21766299045618,35.843271151266585],[129.21766478367908,35.843152953648364],[129.21766899725023,35.84314609416876],[129.21768380090919,35.843142641430084],[129.21769640884858,35.84311007231476],[129.21769840329284,35.843065531691785],[129.21770262153734,35.84306038516437],[129.21771742517896,35.843056932421575],[129.2177447290442,35.84298151262657],[129.21775948116644,35.84295921739044],[129.217788863636,35.84287009012191],[129.2177993928157,35.84285122845764],[129.21779926169413,35.842803265759514],[129.21780983769392,35.842801533629284],[129.21781611117123,35.8427741148666],[129.21788382283214,35.84277227915667],[129.217883401209,35.84261811333872],[129.21790022719128,35.84258039766554],[129.2179043751203,35.84254955682723],[129.2179275541504,35.84251354259209],[129.21793811136553,35.84250495863631],[129.21798024646856,35.842436363732126],[129.217982245426,35.842393536053656],[129.21800127180833,35.84238664969183],[129.2180138748123,35.84235236758634],[129.21801373887666,35.84230269193127],[129.21802431949294,35.84230267273592],[129.21802853298843,35.842295813242984],[129.2180347969758,35.8422649685597],[129.21803902453232,35.84226324792729],[129.21803889326935,35.842215285225215],[129.21805158530668,35.84221354923442],[129.21806622936538,35.84215185602435],[129.21807256365713,35.842146705643515],[129.21807671618643,35.84211757775102],[129.21809771324766,35.842057585969584],[129.2180974881668,35.84197536419187],[129.2181017016388,35.8419685046961],[129.2181165097498,35.841966764858],[129.2181270340437,35.84194619020914],[129.21812700590488,35.841935912486825],[129.21814181400924,35.841934172645615],[129.21815867255958,35.841908447608986],[129.2181692531234,35.84190842840104],[129.21817980085066,35.8418964185161],[129.2181945198128,35.84186213254753],[129.21819440253188,35.84181930870398],[129.21819862067872,35.84181416215844],[129.21825150935757,35.84180892723083],[129.21841655655282,35.84180520144669],[129.2184207793806,35.8418017678471],[129.21854350905508,35.84179983175692],[129.21854984328795,35.84179468135084],[129.21875722203546,35.841794304031474],[129.218772749762,35.84205464602141],[129.21877786161247,35.8423749606339],[129.21878211738243,35.84238351769655],[129.21878226320558,35.8424366192554],[129.21878650016305,35.84243832450379],[129.21878664598938,35.84249142606214],[129.2187952092917,35.84252738267453],[129.21879583966776,35.84275691843601],[129.21878949596632,35.84275864294763],[129.21878999461262,35.84294021600646],[129.21879423159712,35.842941921254344],[129.21879639007656,35.84295733398174],[129.21880485934327,35.842959031523506],[129.21882182610724,35.84297270432535],[129.21888108746577,35.84297602232585],[129.21888323184425,35.84298629619154],[129.2189149927913,35.84299309018538],[129.2189657801864,35.84299299765676],[129.21896580843452,35.84300327537669],[129.21898274698512,35.84300667043567],[129.21898488666912,35.84301523134613],[129.2190251027865,35.843018583979266],[129.21909532176366,35.84315891885191],[129.21911650677853,35.843167445035306],[129.21911873128548,35.84320683910158],[129.21913999641632,35.843244485485755],[129.21915481416522,35.84324617142578],[129.2191590605982,35.84325130256708],[129.21916128041644,35.843288983678725],[129.2191782803004,35.843314647101494],[129.2191783085763,35.84332492482073],[129.2191973633546,35.8433283159894],[129.21920586566185,35.843342004175035],[129.21920595050028,35.843372837332495],[129.2192123413753,35.843388242330775],[129.2192867838922,35.84352514345385],[129.2192995751313,35.84355937934672],[129.21930807748095,35.84357306752445],[129.21932926734473,35.8435833066224],[129.21933360341163,35.843620983866174],[129.2193485108454,35.84365521589078],[129.2193675657099,35.843658607031976],[129.2193739472055,35.84367058611457],[129.21937616242116,35.843706554266134],[129.21938255807328,35.843723672207375],[129.21939318133334,35.84373906946842],[129.21940800389714,35.8437424683298],[129.21941649684942,35.843752730593195],[129.21941659120634,35.843786989654205],[129.2194421172714,35.843834905970695],[129.21944741127123,35.84422031266108],[129.21946857773017,35.844221986968115],[129.21947071278058,35.84422883491498],[129.22001880188836,35.8442278326786],[129.22004207034078,35.84422436415155],[129.22042509309102,35.84422194923618],[129.2204322852941,35.84452684318259],[129.22043864805994,35.84453197039525],[129.22046364213494,35.84515201654204],[129.2204640924939,35.84531474703067],[129.2204704458434,35.845316448335765],[129.2204797308471,35.845612773578196],[129.2204839680099,35.845614478765114],[129.22048430463036,35.84573609838432],[129.22052514215008,35.84672782782301],[129.2205255499806,35.8468751416999],[129.22048332466113,35.84691119135788],[129.22044523698568,35.84691297419597],[129.22044558304415,35.847038019693166],[129.22050907524695,35.84703961616113],[129.22052815942408,35.84705328482528],[129.22053360965504,35.84825748606544],[129.2205251540156,35.84826092750405],[129.220525168243,35.84826606635897],[129.2205018891485,35.84826610907805],[129.2204892246524,35.84827812303895],[129.220489262586,35.84829182665204],[129.22047444861195,35.848291853833025],[129.22046601193108,35.848302147074],[129.220368681902,35.84830917744623],[129.2198459790273,35.848316986724505],[129.219573016323,35.84833118949055],[129.21938466711813,35.84833153350548],[129.21938253668117,35.84832639851388],[129.21912858270835,35.84832686188231],[129.2191264805624,35.84833200459681],[129.21909474102506,35.84833377543137],[129.21909494362924,35.84840743235761],[129.21910136316316,35.848433115058064],[129.21911831701203,35.84844164894605],[129.219118448955,35.848489611594864],[129.21913769818696,35.84856323378642],[129.2191381176171,35.84871568648696],[129.21913388974278,35.848717407157295],[129.2191297231313,35.848741396199145],[129.21912126266707,35.848743124587415],[129.21912182815288,35.84894867878352],[129.21909662103172,35.84901724315403],[129.21907586791198,35.84916630852537],[129.21907599512141,35.84921255821699],[129.21906757229632,35.849227990213784],[129.21906777488203,35.84930164712917],[129.21906143066607,35.849303371655076],[129.21905515240434,35.84932907750174],[129.21904734668894,35.849568906139176],[129.21904311876747,35.84957062680624],[129.21904316116485,35.84958604336915],[129.2189627411338,35.84958618993785],[129.21895005265173,35.84958963897825],[129.21895021275193,35.84964787932698],[129.21895657583363,35.84965300661263],[129.21896715742557,35.84965298733086],[129.21897353463675,35.849663253469885],[129.21897575456202,35.84970093454436],[129.2190544918101,35.84985838335104],[129.21905487341172,35.849997132409015],[129.21904219900094,35.85000572031306],[129.21904224139885,35.85002113687484],[129.21903590654662,35.85002628730199],[129.21901689256427,35.850038312678876],[129.21899996193528,35.85003834353655],[129.21898305485433,35.850046939148385],[129.21895982232803,35.85006411108361],[129.21895775308946,35.850081244452966],[129.21893451583912,35.850096703431944],[129.21891546886746,35.85009673813365],[129.21889012468904,35.85011562686222],[129.21870812024798,35.850115958265846]]]}}]}